{
"type": "FeatureCollection",
"name": "Red_1039",
"crs": { "type": "name", "properties": { "name": "urn:ogc:def:crs:OGC:1.3:CRS84" } },
"features": [
{ "type": "Feature", "properties": { "LAYER": "1039", "GM_TYPE": "Unknown Line Type", "MAP_NAME": "Red_Cl.Civit_2026.dwg", "ELEVATION": 0.0, "LINE_STYLE": "Solid", "LINE_COLOR": "RGB(0,0,255)", "LINE_WIDTH": 1 }, "geometry": { "type": "MultiLineString", "coordinates": [ [ [ -68.867041909882488, -32.934327158961068 ], [ -68.867450408352312, -32.933066372861418 ], [ -68.867724135327464, -32.932265356641111 ], [ -68.868043478388884, -32.931278920593101 ], [ -68.868720755036662, -32.931452470455596 ], [ -68.868801039652254, -32.931346805373956 ], [ -68.86820997047414, -32.928948800076121 ] ] ] } },
{ "type": "Feature", "properties": { "LAYER": "1039", "GM_TYPE": "Unknown Line Type", "MAP_NAME": "Red_Cl.Civit_2026.dwg", "ELEVATION": 0.0, "LINE_STYLE": "Solid", "LINE_COLOR": "RGB(0,0,255)", "LINE_WIDTH": 1 }, "geometry": { "type": "MultiLineString", "coordinates": [ [ [ -68.854349843665375, -32.960295832889706 ], [ -68.854450367162656, -32.960260705706496 ], [ -68.854536230466934, -32.960232604704096 ], [ -68.854636669436132, -32.960184345631056 ], [ -68.854680491449898, -32.960092467000038 ], [ -68.85464218555515, -32.959974543500728 ], [ -68.854509020410205, -32.959597799167192 ], [ -68.854345862634403, -32.959238663017103 ], [ -68.854299824843295, -32.959075252578714 ], [ -68.854278925897646, -32.958862667014159 ], [ -68.854264288845627, -32.958753728908505 ], [ -68.854268496429583, -32.958650489460226 ], [ -68.854266435577173, -32.958483570788367 ], [ -68.854283199572393, -32.958425590934155 ], [ -68.854425704601738, -32.957861289456858 ], [ -68.854601728690071, -32.957210110404823 ], [ -68.854633164054448, -32.957080094325534 ], [ -68.854836174543749, -32.956300965459782 ], [ -68.854995444056854, -32.955632221221393 ], [ -68.85509185041748, -32.955188091510912 ], [ -68.855239722387807, -32.954756693410893 ], [ -68.855367501960771, -32.954495362177873 ], [ -68.855552291141777, -32.95401747348965 ], [ -68.855734477255368, -32.953940187552575 ], [ -68.855800355672997, -32.953604919953847 ], [ -68.855622043799997, -32.953242178294452 ], [ -68.855595243246952, -32.953099574542129 ], [ -68.855700043699997, -32.952997362394456 ], [ -68.855960033625891, -32.952919192442401 ], [ -68.855926547777031, -32.95282606566056 ], [ -68.855803048483438, -32.95259587932793 ], [ -68.855629494572995, -32.952320460296548 ], [ -68.855539513001943, -32.952014725781851 ], [ -68.855524881273041, -32.951874161551849 ], [ -68.855550033194049, -32.95173360238919 ], [ -68.855654490399999, -32.95163772549445 ], [ -68.85590162194903, -32.951479273714718 ], [ -68.855916310638463, -32.95130130260236 ], [ -68.856012770516671, -32.950498713960947 ], [ -68.856042108230469, -32.950365183172529 ], [ -68.856075646330709, -32.950157857712142 ], [ -68.856153201938383, -32.949674683436918 ], [ -68.856174179626478, -32.949453805015438 ], [ -68.856207721299228, -32.94922363806301 ], [ -68.856327247828929, -32.948189744366218 ], [ -68.856352418589893, -32.947926193139153 ], [ -68.856381800010439, -32.947530111244333 ], [ -68.85649284815436, -32.947072536943125 ], [ -68.856641592157104, -32.946559120810761 ], [ -68.856716864264286, -32.946353815526827 ], [ -68.85672235256807, -32.94627265178223 ], [ -68.856749741196637, -32.946180770813221 ], [ -68.85682593469356, -32.946005679171648 ], [ -68.856909105306471, -32.945865193593193 ], [ -68.857031396621807, -32.945713598899772 ], [ -68.857093455431908, -32.945632441687529 ], [ -68.857188161142474, -32.945545033166233 ], [ -68.857722215285932, -32.945166396203348 ], [ -68.857910672335805, -32.945018826742718 ], [ -68.858396410500546, -32.944674075251207 ], [ -68.859084449481301, -32.944169192748461 ], [ -68.859760403820403, -32.94365348780417 ], [ -68.860071279058005, -32.943418927419536 ], [ -68.86017387942772, -32.943341627279835 ], [ -68.860345577823537, -32.943208108400903 ], [ -68.862088007298055, -32.941945957958389 ], [ -68.862258460661906, -32.941845515295789 ], [ -68.862480827413577, -32.941693917348985 ], [ -68.863138715100007, -32.941295450494479 ], [ -68.863217856800006, -32.94124023689448 ], [ -68.863362199700006, -32.941168945294464 ], [ -68.863734850900002, -32.940892931894481 ], [ -68.863903750399999, -32.940755149194466 ], [ -68.864381827399995, -32.940308748994489 ], [ -68.864555844700007, -32.940144353194462 ], [ -68.865160289283779, -32.939498868014084 ], [ -68.865417417499998, -32.938858354594473 ], [ -68.865476477499996, -32.938687711194476 ], [ -68.865540978300004, -32.938490041094489 ], [ -68.865694288220894, -32.937778135711966 ], [ -68.866099174726031, -32.93631761348253 ], [ -68.866307236675155, -32.935524741786338 ], [ -68.866618366728304, -32.935551134701072 ], [ -68.866635650091553, -32.935451269908036 ], [ -68.866674869682001, -32.935416121993192 ], [ -68.867041909882488, -32.934327158961068 ] ] ] } },
{ "type": "Feature", "properties": { "LAYER": "1039_AUXILIAR", "GM_TYPE": "Unknown Line Type", "MAP_NAME": "Red_Cl.Civit_2026.dwg", "ELEVATION": 0.0, "LINE_STYLE": "Solid", "LINE_COLOR": "RGB(255,255,0)", "LINE_WIDTH": 1 }, "geometry": { "type": "MultiLineString", "coordinates": [ [ [ -68.867041909882488, -32.934327158961068 ], [ -68.865715280200007, -32.934148877694497 ], [ -68.865804953099996, -32.933859189694495 ] ] ] } },
{ "type": "Feature", "properties": { "LAYER": "1039_AUXILIAR", "GM_TYPE": "Unknown Line Type", "MAP_NAME": "Red_Cl.Civit_2026.dwg", "ELEVATION": 0.0, "LINE_STYLE": "Solid", "LINE_COLOR": "RGB(255,255,0)", "LINE_WIDTH": 1 }, "geometry": { "type": "MultiLineString", "coordinates": [ [ [ -68.865804953099996, -32.933859189694495 ], [ -68.865892000700001, -32.933632029694486 ] ] ] } },
{ "type": "Feature", "properties": { "LAYER": "1039_AUXILIAR", "GM_TYPE": "Unknown Line Type", "MAP_NAME": "Red_Cl.Civit_2026.dwg", "ELEVATION": 0.0, "LINE_STYLE": "Solid", "LINE_COLOR": "RGB(255,255,0)", "LINE_WIDTH": 1 }, "geometry": { "type": "MultiLineString", "coordinates": [ [ [ -68.865804953099996, -32.933859189694495 ], [ -68.865700709600006, -32.933835676494489 ] ] ] } },
{ "type": "Feature", "properties": { "LAYER": "1039", "GM_TYPE": "Unknown Line Type", "MAP_NAME": "Red_Cl.Civit_2026.dwg", "ELEVATION": 0.0, "LINE_STYLE": "Solid", "LINE_COLOR": "RGB(0,0,255)", "LINE_WIDTH": 1 }, "geometry": { "type": "MultiLineString", "coordinates": [ [ [ -68.86820997047414, -32.928948800076121 ], [ -68.868054928712766, -32.92788553423906 ], [ -68.86803212572687, -32.927655461195151 ], [ -68.868011881481607, -32.927343031874322 ], [ -68.868097984770102, -32.92706461147155 ], [ -68.868169910663767, -32.926897635616633 ], [ -68.868286684810045, -32.926698556252873 ], [ -68.868312228993702, -32.926657209003999 ], [ -68.868348720512699, -32.926602079391458 ], [ -68.868399808435981, -32.926528573232666 ], [ -68.86851475583984, -32.926369309711369 ], [ -68.868615109580844, -32.92613093028104 ], [ -68.868675322738596, -32.925953288834656 ], [ -68.868758491439422, -32.925819840513554 ], [ -68.868873437151265, -32.925666702506874 ], [ -68.868904457055578, -32.925530408231133 ], [ -68.868858850422853, -32.925380329675953 ], [ -68.868782225849642, -32.925308351972184 ], [ -68.868570594116662, -32.925182037237661 ], [ -68.868529699, -32.925121613594506 ] ] ] } },
{ "type": "Feature", "properties": { "LAYER": "1039_AUXILIAR", "GM_TYPE": "Unknown Line Type", "MAP_NAME": "Red_Cl.Civit_2026.dwg", "ELEVATION": 0.0, "LINE_STYLE": "Solid", "LINE_COLOR": "RGB(255,255,0)", "LINE_WIDTH": 1 }, "geometry": { "type": "MultiLineString", "coordinates": [ [ [ -68.867111914, -32.928935199294493 ], [ -68.867005647599996, -32.927870635694497 ], [ -68.867002171999985, -32.927665505094495 ], [ -68.8669129548, -32.927642837694499 ] ] ] } },
{ "type": "Feature", "properties": { "LAYER": "1039_AUXILIAR", "GM_TYPE": "Unknown Line Type", "MAP_NAME": "Red_Cl.Civit_2026.dwg", "ELEVATION": 0.0, "LINE_STYLE": "Solid", "LINE_COLOR": "RGB(255,255,0)", "LINE_WIDTH": 1 }, "geometry": { "type": "MultiLineString", "coordinates": [ [ [ -68.867111914, -32.928935199294493 ], [ -68.861211599499995, -32.928668597294504 ], [ -68.861326136, -32.928285670994491 ], [ -68.860361457900012, -32.928243632894507 ], [ -68.860383023200001, -32.927620782494493 ] ] ] } },
{ "type": "Feature", "properties": { "LAYER": "1039_AUXILIAR", "GM_TYPE": "Unknown Line Type", "MAP_NAME": "Red_Cl.Civit_2026.dwg", "ELEVATION": 0.0, "LINE_STYLE": "Solid", "LINE_COLOR": "RGB(255,255,0)", "LINE_WIDTH": 1 }, "geometry": { "type": "MultiLineString", "coordinates": [ [ [ -68.86820997047414, -32.928948800076121 ], [ -68.867111914, -32.928935199294493 ] ] ] } },
{ "type": "Feature", "properties": { "LAYER": "1039_AUXILIAR", "GM_TYPE": "Unknown Line Type", "MAP_NAME": "Red_Cl.Civit_2026.dwg", "ELEVATION": 0.0, "LINE_STYLE": "Solid", "LINE_COLOR": "RGB(255,255,0)", "LINE_WIDTH": 1 }, "geometry": { "type": "MultiLineString", "coordinates": [ [ [ -68.8669129548, -32.927642837694499 ], [ -68.866823737700003, -32.927620170194508 ] ] ] } },
{ "type": "Feature", "properties": { "LAYER": "1039_AUXILIAR", "GM_TYPE": "Unknown Line Type", "MAP_NAME": "Red_Cl.Civit_2026.dwg", "ELEVATION": 0.0, "LINE_STYLE": "Solid", "LINE_COLOR": "RGB(255,255,0)", "LINE_WIDTH": 1 }, "geometry": { "type": "MultiLineString", "coordinates": [ [ [ -68.8669129548, -32.927642837694499 ], [ -68.866936150499996, -32.926644051194508 ], [ -68.866851789099982, -32.926619380694497 ], [ -68.866846369200005, -32.925942024194505 ], [ -68.866362635800002, -32.925822387594501 ], [ -68.866373296600003, -32.925780694194508 ] ] ] } },
{ "type": "Feature", "properties": { "LAYER": "1039_AUXILIAR", "GM_TYPE": "Unknown Line Type", "MAP_NAME": "Red_Cl.Civit_2026.dwg", "ELEVATION": 0.0, "LINE_STYLE": "Solid", "LINE_COLOR": "RGB(255,255,0)", "LINE_WIDTH": 1 }, "geometry": { "type": "MultiLineString", "coordinates": [ [ [ -68.868080318599993, -32.925067100694498 ], [ -68.868090020699995, -32.925016917294492 ] ] ] } },
{ "type": "Feature", "properties": { "LAYER": "1039_AUXILIAR", "GM_TYPE": "Unknown Line Type", "MAP_NAME": "Red_Cl.Civit_2026.dwg", "ELEVATION": 0.0, "LINE_STYLE": "Solid", "LINE_COLOR": "RGB(255,255,0)", "LINE_WIDTH": 1 }, "geometry": { "type": "MultiLineString", "coordinates": [ [ [ -68.868080318599993, -32.925067100694498 ], [ -68.868065822299997, -32.925131852194511 ], [ -68.866652208700003, -32.924831660594506 ], [ -68.866456230599994, -32.924675102394495 ], [ -68.865682845199984, -32.924295283494502 ], [ -68.864517241, -32.923560792894506 ], [ -68.864153115600004, -32.924395797894505 ], [ -68.862388699199983, -32.923653547194505 ], [ -68.861885336599997, -32.923558403194498 ], [ -68.860659659800007, -32.922934671594504 ], [ -68.859700267199997, -32.9223100634945 ], [ -68.859614868600005, -32.923586550394496 ], [ -68.859347735599997, -32.924430365194496 ], [ -68.859192868400001, -32.925661664094498 ], [ -68.859016442699996, -32.926684278694509 ], [ -68.857211798700007, -32.926603504494501 ], [ -68.853409335799995, -32.926442122694489 ] ] ] } },
{ "type": "Feature", "properties": { "LAYER": "1039_AUXILIAR", "GM_TYPE": "Unknown Line Type", "MAP_NAME": "Red_Cl.Civit_2026.dwg", "ELEVATION": 0.0, "LINE_STYLE": "Solid", "LINE_COLOR": "RGB(255,255,0)", "LINE_WIDTH": 1 }, "geometry": { "type": "MultiLineString", "coordinates": [ [ [ -68.868529699, -32.925121613594506 ], [ -68.868080318599993, -32.925067100694498 ] ] ] } },
{ "type": "Feature", "properties": { "LAYER": "1039_AUXILIAR", "GM_TYPE": "Unknown Line Type", "MAP_NAME": "Red_Cl.Civit_2026.dwg", "ELEVATION": 0.0, "LINE_STYLE": "Solid", "LINE_COLOR": "RGB(255,255,0)", "LINE_WIDTH": 1 }, "geometry": { "type": "MultiLineString", "coordinates": [ [ [ -68.853409335799995, -32.926442122694489 ], [ -68.853317703900004, -32.926438232294508 ], [ -68.853306767600003, -32.926567756494499 ] ] ] } },
{ "type": "Feature", "properties": { "LAYER": "1039_AUXILIAR", "GM_TYPE": "Unknown Line Type", "MAP_NAME": "Red_Cl.Civit_2026.dwg", "ELEVATION": 0.0, "LINE_STYLE": "Solid", "LINE_COLOR": "RGB(255,255,0)", "LINE_WIDTH": 1 }, "geometry": { "type": "MultiLineString", "coordinates": [ [ [ -68.853409335799995, -32.926442122694489 ], [ -68.853389129199996, -32.927809287194492 ], [ -68.853412509600005, -32.927941193594492 ], [ -68.853530495300006, -32.927984912694491 ], [ -68.853635694499999, -32.927988814694487 ], [ -68.853634520300005, -32.928117462394503 ] ] ] } },
{ "type": "Feature", "properties": { "LAYER": "1039_AUXILIAR", "GM_TYPE": "Unknown Line Type", "MAP_NAME": "Red_Cl.Civit_2026.dwg", "ELEVATION": 0.0, "LINE_STYLE": "Solid", "LINE_COLOR": "RGB(255,255,0)", "LINE_WIDTH": 1 }, "geometry": { "type": "MultiLineString", "coordinates": [ [ [ -68.853634520300005, -32.928117462394503 ], [ -68.853504593799997, -32.928232295994476 ], [ -68.853371505499993, -32.928235865094486 ], [ -68.853360434099997, -32.928349474894503 ], [ -68.853255636, -32.928338939594518 ], [ -68.853247732100002, -32.928420361094503 ], [ -68.852934771899996, -32.928394650994498 ] ] ] } },
{ "type": "Feature", "properties": { "LAYER": "1039_AUXILIAR", "GM_TYPE": "Unknown Line Type", "MAP_NAME": "Red_Cl.Civit_2026.dwg", "ELEVATION": 0.0, "LINE_STYLE": "Solid", "LINE_COLOR": "RGB(255,255,0)", "LINE_WIDTH": 1 }, "geometry": { "type": "MultiLineString", "coordinates": [ [ [ -68.853634520300005, -32.928117462394503 ], [ -68.85363424400002, -32.928147740894502 ] ] ] } },
{ "type": "Feature", "properties": { "LAYER": "1039", "GM_TYPE": "Unknown Line Type", "MAP_NAME": "Red_Cl.Civit_2026.dwg", "ELEVATION": 0.0, "LINE_STYLE": "Solid", "LINE_COLOR": "RGB(0,0,255)", "LINE_WIDTH": 1 }, "geometry": { "type": "MultiLineString", "coordinates": [ [ [ -68.868529699, -32.925121613594506 ], [ -68.868530976000017, -32.925117965594495 ], [ -68.868563119, -32.925049931094492 ], [ -68.868745595899995, -32.924906390294517 ], [ -68.869350448, -32.923887788194513 ], [ -68.869560208200014, -32.923511769294507 ], [ -68.869595607799994, -32.923449265894497 ] ] ] } },
{ "type": "Feature", "properties": { "LAYER": "1039", "GM_TYPE": "Unknown Line Type", "MAP_NAME": "Red_Cl.Civit_2026.dwg", "ELEVATION": 0.0, "LINE_STYLE": "Solid", "LINE_COLOR": "RGB(0,0,255)", "LINE_WIDTH": 1 }, "geometry": { "type": "MultiLineString", "coordinates": [ [ [ -68.869841933600014, -32.923017742294505 ], [ -68.870228525599998, -32.922356819394516 ] ] ] } },
{ "type": "Feature", "properties": { "LAYER": "1039", "GM_TYPE": "Unknown Line Type", "MAP_NAME": "Red_Cl.Civit_2026.dwg", "ELEVATION": 0.0, "LINE_STYLE": "Solid", "LINE_COLOR": "RGB(0,0,255)", "LINE_WIDTH": 1 }, "geometry": { "type": "MultiLineString", "coordinates": [ [ [ -68.869761820099995, -32.923155791094509 ], [ -68.869781208099994, -32.923121558394506 ], [ -68.869841933600014, -32.923017742294505 ] ] ] } },
{ "type": "Feature", "properties": { "LAYER": "1039", "GM_TYPE": "Unknown Line Type", "MAP_NAME": "Red_Cl.Civit_2026.dwg", "ELEVATION": 0.0, "LINE_STYLE": "Solid", "LINE_COLOR": "RGB(0,0,255)", "LINE_WIDTH": 1 }, "geometry": { "type": "MultiLineString", "coordinates": [ [ [ -68.869595607799994, -32.923449265894497 ], [ -68.869761820099995, -32.923155791094509 ] ] ] } },
{ "type": "Feature", "properties": { "LAYER": "1039_AUXILIAR", "GM_TYPE": "Unknown Line Type", "MAP_NAME": "Red_Cl.Civit_2026.dwg", "ELEVATION": 0.0, "LINE_STYLE": "Solid", "LINE_COLOR": "RGB(255,255,0)", "LINE_WIDTH": 1 }, "geometry": { "type": "MultiLineString", "coordinates": [ [ [ -68.869595607799994, -32.923449265894497 ], [ -68.869848980499995, -32.923542344694511 ] ] ] } },
{ "type": "Feature", "properties": { "LAYER": "1039_AUXILIAR", "GM_TYPE": "Unknown Line Type", "MAP_NAME": "Red_Cl.Civit_2026.dwg", "ELEVATION": 0.0, "LINE_STYLE": "Solid", "LINE_COLOR": "RGB(255,255,0)", "LINE_WIDTH": 1 }, "geometry": { "type": "MultiLineString", "coordinates": [ [ [ -68.869848980499995, -32.923542344694511 ], [ -68.869893060400003, -32.92346238629451 ] ] ] } },
{ "type": "Feature", "properties": { "LAYER": "1039_AUXILIAR", "GM_TYPE": "Unknown Line Type", "MAP_NAME": "Red_Cl.Civit_2026.dwg", "ELEVATION": 0.0, "LINE_STYLE": "Solid", "LINE_COLOR": "RGB(255,255,0)", "LINE_WIDTH": 1 }, "geometry": { "type": "MultiLineString", "coordinates": [ [ [ -68.869848980499995, -32.923542344694511 ], [ -68.869791911099995, -32.923645864994505 ], [ -68.8712330643, -32.924255995694509 ] ] ] } },
{ "type": "Feature", "properties": { "LAYER": "1039_AUXILIAR", "GM_TYPE": "Unknown Line Type", "MAP_NAME": "Red_Cl.Civit_2026.dwg", "ELEVATION": 0.0, "LINE_STYLE": "Solid", "LINE_COLOR": "RGB(255,255,0)", "LINE_WIDTH": 1 }, "geometry": { "type": "MultiLineString", "coordinates": [ [ [ -68.8712330643, -32.924255995694509 ], [ -68.871265540799996, -32.924201431494502 ] ] ] } },
{ "type": "Feature", "properties": { "LAYER": "1039_AUXILIAR", "GM_TYPE": "Unknown Line Type", "MAP_NAME": "Red_Cl.Civit_2026.dwg", "ELEVATION": 0.0, "LINE_STYLE": "Solid", "LINE_COLOR": "RGB(255,255,0)", "LINE_WIDTH": 1 }, "geometry": { "type": "MultiLineString", "coordinates": [ [ [ -68.8712330643, -32.924255995694509 ], [ -68.871426149800001, -32.924337739094511 ], [ -68.871604531900005, -32.9240494257945 ], [ -68.872521795500006, -32.9242099934945 ] ] ] } },
{ "type": "Feature", "properties": { "LAYER": "1039_AUXILIAR", "GM_TYPE": "Unknown Line Type", "MAP_NAME": "Red_Cl.Civit_2026.dwg", "ELEVATION": 0.0, "LINE_STYLE": "Solid", "LINE_COLOR": "RGB(255,255,0)", "LINE_WIDTH": 1 }, "geometry": { "type": "MultiLineString", "coordinates": [ [ [ -68.869761820099995, -32.923155791094509 ], [ -68.869551646800005, -32.923068226194502 ] ] ] } },
{ "type": "Feature", "properties": { "LAYER": "1039_AUXILIAR", "GM_TYPE": "Unknown Line Type", "MAP_NAME": "Red_Cl.Civit_2026.dwg", "ELEVATION": 0.0, "LINE_STYLE": "Solid", "LINE_COLOR": "RGB(255,255,0)", "LINE_WIDTH": 1 }, "geometry": { "type": "MultiLineString", "coordinates": [ [ [ -68.869841933600014, -32.923017742294505 ], [ -68.8679393189, -32.922194153694512 ], [ -68.867983135, -32.922121496994514 ] ] ] } },
{ "type": "Feature", "properties": { "LAYER": "1039_AUXILIAR", "GM_TYPE": "Unknown Line Type", "MAP_NAME": "Red_Cl.Civit_2026.dwg", "ELEVATION": 0.0, "LINE_STYLE": "Solid", "LINE_COLOR": "RGB(255,255,0)", "LINE_WIDTH": 1 }, "geometry": { "type": "MultiLineString", "coordinates": [ [ [ -68.870228525599998, -32.922356819394516 ], [ -68.870464838800004, -32.922475718394502 ] ] ] } },
{ "type": "Feature", "properties": { "LAYER": "1039", "GM_TYPE": "Unknown Line Type", "MAP_NAME": "Red_Cl.Civit_2026.dwg", "ELEVATION": 0.0, "LINE_STYLE": "Solid", "LINE_COLOR": "RGB(0,0,255)", "LINE_WIDTH": 1 }, "geometry": { "type": "MultiLineString", "coordinates": [ [ [ -68.870228525599998, -32.922356819394516 ], [ -68.870425149100001, -32.922020665094507 ], [ -68.871191773899994, -32.921189804094517 ], [ -68.872023647600003, -32.92025840379452 ], [ -68.872068793099999, -32.920208912994518 ] ] ] } },
{ "type": "Feature", "properties": { "LAYER": "1039", "GM_TYPE": "Unknown Line Type", "MAP_NAME": "Red_Cl.Civit_2026.dwg", "ELEVATION": 0.0, "LINE_STYLE": "Solid", "LINE_COLOR": "RGB(0,0,255)", "LINE_WIDTH": 1 }, "geometry": { "type": "MultiLineString", "coordinates": [ [ [ -68.872068793099999, -32.920208912994518 ], [ -68.872170141, -32.920097809894521 ], [ -68.872182097099994, -32.920078102994509 ] ] ] } },
{ "type": "Feature", "properties": { "LAYER": "1039", "GM_TYPE": "Unknown Line Type", "MAP_NAME": "Red_Cl.Civit_2026.dwg", "ELEVATION": 0.0, "LINE_STYLE": "Solid", "LINE_COLOR": "RGB(0,0,255)", "LINE_WIDTH": 1 }, "geometry": { "type": "MultiLineString", "coordinates": [ [ [ -68.872182097099994, -32.920078102994509 ], [ -68.872452021, -32.919633196694505 ], [ -68.872526628399996, -32.919517076294511 ] ] ] } },
{ "type": "Feature", "properties": { "LAYER": "1039", "GM_TYPE": "Unknown Line Type", "MAP_NAME": "Red_Cl.Civit_2026.dwg", "ELEVATION": 0.0, "LINE_STYLE": "Solid", "LINE_COLOR": "RGB(0,0,255)", "LINE_WIDTH": 1 }, "geometry": { "type": "MultiLineString", "coordinates": [ [ [ -68.872526628399996, -32.919517076294511 ], [ -68.872607759700017, -32.919390801494515 ], [ -68.872610527600003, -32.91938635049452 ] ] ] } },
{ "type": "Feature", "properties": { "LAYER": "1039", "GM_TYPE": "Unknown Line Type", "MAP_NAME": "Red_Cl.Civit_2026.dwg", "ELEVATION": 0.0, "LINE_STYLE": "Solid", "LINE_COLOR": "RGB(0,0,255)", "LINE_WIDTH": 1 }, "geometry": { "type": "MultiLineString", "coordinates": [ [ [ -68.872610527600003, -32.91938635049452 ], [ -68.872851686399997, -32.918998545194512 ], [ -68.873045993399998, -32.91870571439452 ] ] ] } },
{ "type": "Feature", "properties": { "LAYER": "1039", "GM_TYPE": "Unknown Line Type", "MAP_NAME": "Red_Cl.Civit_2026.dwg", "ELEVATION": 0.0, "LINE_STYLE": "Solid", "LINE_COLOR": "RGB(0,0,255)", "LINE_WIDTH": 1 }, "geometry": { "type": "MultiLineString", "coordinates": [ [ [ -68.873045993399998, -32.91870571439452 ], [ -68.873148362399988, -32.918551438094525 ], [ -68.873524578399994, -32.917950889394511 ], [ -68.873568527399996, -32.917889193194512 ] ] ] } },
{ "type": "Feature", "properties": { "LAYER": "1039", "GM_TYPE": "Unknown Line Type", "MAP_NAME": "Red_Cl.Civit_2026.dwg", "ELEVATION": 0.0, "LINE_STYLE": "Solid", "LINE_COLOR": "RGB(0,0,255)", "LINE_WIDTH": 1 }, "geometry": { "type": "MultiLineString", "coordinates": [ [ [ -68.873568527399996, -32.917889193194512 ], [ -68.873639636199997, -32.917789369194523 ] ] ] } },
{ "type": "Feature", "properties": { "LAYER": "1039", "GM_TYPE": "Unknown Line Type", "MAP_NAME": "Red_Cl.Civit_2026.dwg", "ELEVATION": 0.0, "LINE_STYLE": "Solid", "LINE_COLOR": "RGB(0,0,255)", "LINE_WIDTH": 1 }, "geometry": { "type": "MultiLineString", "coordinates": [ [ [ -68.873639636199997, -32.917789369194523 ], [ -68.873901941900002, -32.917555276294529 ], [ -68.8740324961, -32.917388866194521 ], [ -68.874086656700001, -32.917243902194507 ], [ -68.874174658116004, -32.917101144530172 ], [ -68.875501225629577, -32.914526415255267 ], [ -68.876174689838905, -32.913294271701631 ], [ -68.876637887499768, -32.912406349379665 ], [ -68.876663095426665, -32.912366371915326 ] ] ] } },
{ "type": "Feature", "properties": { "LAYER": "1039", "GM_TYPE": "Unknown Line Type", "MAP_NAME": "Red_Cl.Civit_2026.dwg", "ELEVATION": 0.0, "LINE_STYLE": "Solid", "LINE_COLOR": "RGB(0,0,255)", "LINE_WIDTH": 1 }, "geometry": { "type": "MultiLineString", "coordinates": [ [ [ -68.876663095426665, -32.912366371915326 ], [ -68.876812478251495, -32.912069229708955 ] ] ] } },
{ "type": "Feature", "properties": { "LAYER": "1039", "GM_TYPE": "Unknown Line Type", "MAP_NAME": "Red_Cl.Civit_2026.dwg", "ELEVATION": 0.0, "LINE_STYLE": "Solid", "LINE_COLOR": "RGB(0,0,255)", "LINE_WIDTH": 1 }, "geometry": { "type": "MultiLineString", "coordinates": [ [ [ -68.876812478251495, -32.912069229708955 ], [ -68.876877531683334, -32.91190354374055 ], [ -68.877778716700007, -32.910262653194529 ] ] ] } },
{ "type": "Feature", "properties": { "LAYER": "1039", "GM_TYPE": "Unknown Line Type", "MAP_NAME": "Red_Cl.Civit_2026.dwg", "ELEVATION": 0.0, "LINE_STYLE": "Solid", "LINE_COLOR": "RGB(0,0,255)", "LINE_WIDTH": 1 }, "geometry": { "type": "MultiLineString", "coordinates": [ [ [ -68.877778716700007, -32.910262653194529 ], [ -68.878004815251387, -32.909794288681546 ], [ -68.878304086392035, -32.909654080032048 ], [ -68.878588180298095, -32.909572133491835 ], [ -68.879123580293324, -32.909422243957259 ], [ -68.879247189119454, -32.909340305403113 ], [ -68.879396726201435, -32.909347223847931 ], [ -68.879467602594275, -32.9092494526667 ], [ -68.879520758417158, -32.909160183931057 ], [ -68.879525533899994, -32.909099853094538 ], [ -68.879486754499993, -32.908900785894538 ], [ -68.879409040900001, -32.908711782794533 ], [ -68.879409040499993, -32.908711781894532 ] ] ] } },
{ "type": "Feature", "properties": { "LAYER": "1039", "GM_TYPE": "Unknown Line Type", "MAP_NAME": "Red_Cl.Civit_2026.dwg", "ELEVATION": 0.0, "LINE_STYLE": "Solid", "LINE_COLOR": "RGB(0,0,255)", "LINE_WIDTH": 1 }, "geometry": { "type": "MultiLineString", "coordinates": [ [ [ -68.879409040499993, -32.908711781894532 ], [ -68.879331018299993, -32.908538282794538 ], [ -68.879273122699999, -32.908357970094528 ], [ -68.879216720514492, -32.908106315036157 ], [ -68.879229719081479, -32.907949734936317 ], [ -68.879171157103315, -32.907855062596276 ], [ -68.879000693500004, -32.907614535394536 ] ] ] } },
{ "type": "Feature", "properties": { "LAYER": "1039", "GM_TYPE": "Unknown Line Type", "MAP_NAME": "Red_Cl.Civit_2026.dwg", "ELEVATION": 0.0, "LINE_STYLE": "Solid", "LINE_COLOR": "RGB(0,0,255)", "LINE_WIDTH": 1 }, "geometry": { "type": "MultiLineString", "coordinates": [ [ [ -68.878034630997305, -32.905835660360744 ], [ -68.877960889511684, -32.905720960436909 ], [ -68.877891484307881, -32.905593515264464 ], [ -68.87771580230789, -32.905271259737823 ], [ -68.877596519239177, -32.905112716957369 ], [ -68.877578697501036, -32.904949720846524 ], [ -68.87753531946467, -32.904856867603129 ] ] ] } },
{ "type": "Feature", "properties": { "LAYER": "1039", "GM_TYPE": "Unknown Line Type", "MAP_NAME": "Red_Cl.Civit_2026.dwg", "ELEVATION": 0.0, "LINE_STYLE": "Solid", "LINE_COLOR": "RGB(0,0,255)", "LINE_WIDTH": 1 }, "geometry": { "type": "MultiLineString", "coordinates": [ [ [ -68.87753531946467, -32.904856867603129 ], [ -68.877405192687235, -32.904689370065476 ], [ -68.877368322219311, -32.904622006145487 ], [ -68.877361811245009, -32.90454189596047 ], [ -68.877374813008657, -32.90439441922495 ], [ -68.877275033434472, -32.904030284349616 ], [ -68.877246833016315, -32.903901015724465 ], [ -68.877217237196703, -32.903750121470509 ], [ -68.877126150009445, -32.903639062985427 ] ] ] } },
{ "type": "Feature", "properties": { "LAYER": "1039", "GM_TYPE": "Unknown Line Type", "MAP_NAME": "Red_Cl.Civit_2026.dwg", "ELEVATION": 0.0, "LINE_STYLE": "Solid", "LINE_COLOR": "RGB(0,0,255)", "LINE_WIDTH": 1 }, "geometry": { "type": "MultiLineString", "coordinates": [ [ [ -68.877126150009445, -32.903639062985427 ], [ -68.877042471730007, -32.903509190464703 ], [ -68.876968732207999, -32.903370821120426 ], [ -68.876875474647818, -32.90321150676241 ], [ -68.876834263627245, -32.903069494517361 ], [ -68.876784380893881, -32.90296753776596 ] ] ] } },
{ "type": "Feature", "properties": { "LAYER": "1039", "GM_TYPE": "Unknown Line Type", "MAP_NAME": "Red_Cl.Civit_2026.dwg", "ELEVATION": 0.0, "LINE_STYLE": "Solid", "LINE_COLOR": "RGB(0,0,255)", "LINE_WIDTH": 1 }, "geometry": { "type": "MultiLineString", "coordinates": [ [ [ -68.876784380893881, -32.90296753776596 ], [ -68.876773532811271, -32.902880144933583 ], [ -68.876773531606943, -32.902860117280021 ] ] ] } },
{ "type": "Feature", "properties": { "LAYER": "1039", "GM_TYPE": "Unknown Line Type", "MAP_NAME": "Red_Cl.Civit_2026.dwg", "ELEVATION": 0.0, "LINE_STYLE": "Solid", "LINE_COLOR": "RGB(0,0,255)", "LINE_WIDTH": 1 }, "geometry": { "type": "MultiLineString", "coordinates": [ [ [ -68.876773531606943, -32.902860117280021 ], [ -68.876721475672781, -32.902671733519504 ], [ -68.876704121211176, -32.902564313335077 ], [ -68.876693260680909, -32.902260257931751 ], [ -68.876764799074678, -32.901856683851882 ], [ -68.876795152847976, -32.901763827246654 ], [ -68.876852452581957, -32.901557088611156 ] ] ] } },
{ "type": "Feature", "properties": { "LAYER": "1039", "GM_TYPE": "Unknown Line Type", "MAP_NAME": "Red_Cl.Civit_2026.dwg", "ELEVATION": 0.0, "LINE_STYLE": "Solid", "LINE_COLOR": "RGB(0,0,255)", "LINE_WIDTH": 1 }, "geometry": { "type": "MultiLineString", "coordinates": [ [ [ -68.876852452581957, -32.901557088611156 ], [ -68.876946933003453, -32.901505283438411 ], [ -68.876998962009054, -32.901257667379667 ], [ -68.877031482632745, -32.901146603815718 ], [ -68.87705966569105, -32.90102825756744 ], [ -68.877155058992614, -32.900699029553103 ], [ -68.877181290199999, -32.900497089794548 ], [ -68.877207785300001, -32.900282845294548 ], [ -68.877207063008996, -32.900071830375914 ], [ -68.877154636100002, -32.899723330494545 ] ] ] } },
{ "type": "Feature", "properties": { "LAYER": "1039", "GM_TYPE": "Unknown Line Type", "MAP_NAME": "Red_Cl.Civit_2026.dwg", "ELEVATION": 0.0, "LINE_STYLE": "Solid", "LINE_COLOR": "RGB(0,0,255)", "LINE_WIDTH": 1 }, "geometry": { "type": "MultiLineString", "coordinates": [ [ [ -68.877577244220163, -32.898951775504848 ], [ -68.877659629002082, -32.898707798419359 ], [ -68.877696481283905, -32.898536650850282 ], [ -68.877709467461429, -32.898191154759246 ], [ -68.877705103939178, -32.897811508416837 ], [ -68.877705093230674, -32.897653108187306 ], [ -68.877722437512674, -32.897607589992283 ], [ -68.877796125166185, -32.897058018672965 ], [ -68.877841639804231, -32.896733932296122 ], [ -68.877958385765851, -32.896257541762509 ], [ -68.878032089253963, -32.895957123749994 ], [ -68.878309129999664, -32.895395926307089 ], [ -68.878458724849338, -32.895102786449499 ], [ -68.878768801282092, -32.894726834375625 ], [ -68.8791265404396, -32.894288027177367 ], [ -68.879250122400578, -32.894133260776314 ], [ -68.879418786271813, -32.893802399663336 ], [ -68.879583549449634, -32.893481481050344 ], [ -68.87972229492776, -32.893190161363471 ], [ -68.879752648217845, -32.893157386838638 ], [ -68.880056745626305, -32.892937412922677 ] ] ] } },
{ "type": "Feature", "properties": { "LAYER": "1039", "GM_TYPE": "Unknown Line Type", "MAP_NAME": "Red_Cl.Civit_2026.dwg", "ELEVATION": 0.0, "LINE_STYLE": "Solid", "LINE_COLOR": "RGB(0,0,255)", "LINE_WIDTH": 1 }, "geometry": { "type": "MultiLineString", "coordinates": [ [ [ -68.877154636100002, -32.899723330494545 ], [ -68.877217327915545, -32.899670343177462 ], [ -68.877425493638299, -32.899570195670648 ], [ -68.877516554306837, -32.899346246167447 ], [ -68.877577244220163, -32.898951775504848 ] ] ] } },
{ "type": "Feature", "properties": { "LAYER": "1039", "GM_TYPE": "Unknown Line Type", "MAP_NAME": "Red_Cl.Civit_2026.dwg", "ELEVATION": 0.0, "LINE_STYLE": "Solid", "LINE_COLOR": "RGB(0,0,255)", "LINE_WIDTH": 1 }, "geometry": { "type": "MultiLineString", "coordinates": [ [ [ -68.880056745626305, -32.892937412922677 ], [ -68.88032039538075, -32.892745661983895 ], [ -68.880420128898038, -32.892665544430287 ], [ -68.88060831901808, -32.892521262080109 ], [ -68.880773095898334, -32.892397443233179 ], [ -68.880978264000348, -32.892264517618855 ], [ -68.881220901005506, -32.892063919907237 ], [ -68.881418199487371, -32.891929173595898 ], [ -68.881524434862428, -32.891839951459694 ], [ -68.881582720427147, -32.891731899574054 ], [ -68.881604392541874, -32.89163722190397 ], [ -68.881634742132604, -32.891582598758518 ], [ -68.881630397559633, -32.891511592192771 ], [ -68.881693271625522, -32.891462428530296 ], [ -68.881819028312336, -32.891440570108863 ], [ -68.882035852123096, -32.89142234541616 ], [ -68.882220153617254, -32.89141868860456 ], [ -68.882324224593702, -32.891373792875001 ], [ -68.882575703239922, -32.891056971235741 ], [ -68.882616891416319, -32.890987781419902 ] ] ] } },
{ "type": "Feature", "properties": { "LAYER": "1039", "GM_TYPE": "Unknown Line Type", "MAP_NAME": "Red_Cl.Civit_2026.dwg", "ELEVATION": 0.0, "LINE_STYLE": "Solid", "LINE_COLOR": "RGB(0,0,255)", "LINE_WIDTH": 1 }, "geometry": { "type": "MultiLineString", "coordinates": [ [ [ -68.882616891416319, -32.890987781419902 ], [ -68.882701391160154, -32.890487083420695 ], [ -68.882843522711724, -32.890232202225228 ], [ -68.882837003353231, -32.890116408890073 ], [ -68.882765425917526, -32.88991067729917 ], [ -68.882702527307814, -32.889750461933652 ], [ -68.88259410606301, -32.889668540144761 ], [ -68.8824705862, -32.889646829494581 ], [ -68.882323067489281, -32.889572403624378 ], [ -68.881921920100623, -32.889350312405412 ], [ -68.881661720500659, -32.889240508882331 ], [ -68.881524164318336, -32.889135986022438 ], [ -68.881430920535266, -32.889043137988281 ], [ -68.881378868177663, -32.888906589934479 ], [ -68.881262863582748, -32.888745492634627 ], [ -68.880764120086837, -32.88820842501908 ], [ -68.880566085699655, -32.888052289532922 ] ] ] } },
{ "type": "Feature", "properties": { "LAYER": "1039", "GM_TYPE": "Unknown Line Type", "MAP_NAME": "Red_Cl.Civit_2026.dwg", "ELEVATION": 0.0, "LINE_STYLE": "Solid", "LINE_COLOR": "RGB(0,0,255)", "LINE_WIDTH": 1 }, "geometry": { "type": "MultiLineString", "coordinates": [ [ [ -68.880566085699655, -32.888052289532922 ], [ -68.880435984475298, -32.887950340069381 ], [ -68.880262508855594, -32.887739151729328 ], [ -68.880029922311891, -32.887245020515614 ], [ -68.87974091328698, -32.886701370786476 ], [ -68.879530995217564, -32.886278812791332 ], [ -68.879513646560952, -32.886240579265142 ] ] ] } },
{ "type": "Feature", "properties": { "LAYER": "1039_AUXILIAR", "GM_TYPE": "Unknown Line Type", "MAP_NAME": "Red_Cl.Civit_2026.dwg", "ELEVATION": 0.0, "LINE_STYLE": "Solid", "LINE_COLOR": "RGB(255,255,0)", "LINE_WIDTH": 1 }, "geometry": { "type": "MultiLineString", "coordinates": [ [ [ -68.87891304346681, -32.907335646027789 ], [ -68.878689675938205, -32.907375713991414 ] ] ] } },
{ "type": "Feature", "properties": { "LAYER": "1039_AUXILIAR", "GM_TYPE": "Unknown Line Type", "MAP_NAME": "Red_Cl.Civit_2026.dwg", "ELEVATION": 0.0, "LINE_STYLE": "Solid", "LINE_COLOR": "RGB(255,255,0)", "LINE_WIDTH": 1 }, "geometry": { "type": "MultiLineString", "coordinates": [ [ [ -68.878034630997305, -32.905835660360744 ], [ -68.877906688004799, -32.905915777260006 ] ] ] } },
{ "type": "Feature", "properties": { "LAYER": "1039_AUXILIAR", "GM_TYPE": "Unknown Line Type", "MAP_NAME": "Red_Cl.Civit_2026.dwg", "ELEVATION": 0.0, "LINE_STYLE": "Solid", "LINE_COLOR": "RGB(255,255,0)", "LINE_WIDTH": 1 }, "geometry": { "type": "MultiLineString", "coordinates": [ [ [ -68.879000693500004, -32.907614535394536 ], [ -68.878888419899994, -32.907640124794526 ] ] ] } },
{ "type": "Feature", "properties": { "LAYER": "1039_AUXILIAR", "GM_TYPE": "Unknown Line Type", "MAP_NAME": "Red_Cl.Civit_2026.dwg", "ELEVATION": 0.0, "LINE_STYLE": "Solid", "LINE_COLOR": "RGB(255,255,0)", "LINE_WIDTH": 1 }, "geometry": { "type": "MultiLineString", "coordinates": [ [ [ -68.876784380893881, -32.90296753776596 ], [ -68.876732335508436, -32.902967539859915 ], [ -68.876630416392999, -32.903020344037422 ], [ -68.876565359128961, -32.903013063793971 ], [ -68.876324648760459, -32.903023997073042 ] ] ] } },
{ "type": "Feature", "properties": { "LAYER": "1039_AUXILIAR", "GM_TYPE": "Unknown Line Type", "MAP_NAME": "Red_Cl.Civit_2026.dwg", "ELEVATION": 0.0, "LINE_STYLE": "Solid", "LINE_COLOR": "RGB(255,255,0)", "LINE_WIDTH": 1 }, "geometry": { "type": "MultiLineString", "coordinates": [ [ [ -68.876773531606943, -32.902860117280021 ], [ -68.876555602400003, -32.902899211294532 ] ] ] } },
{ "type": "Feature", "properties": { "LAYER": "1039_AUXILIAR", "GM_TYPE": "Unknown Line Type", "MAP_NAME": "Red_Cl.Civit_2026.dwg", "ELEVATION": 0.0, "LINE_STYLE": "Solid", "LINE_COLOR": "RGB(255,255,0)", "LINE_WIDTH": 1 }, "geometry": { "type": "MultiLineString", "coordinates": [ [ [ -68.872068793099999, -32.920208912994518 ], [ -68.871967358299997, -32.920162458594497 ] ] ] } },
{ "type": "Feature", "properties": { "LAYER": "1039_AUXILIAR", "GM_TYPE": "Unknown Line Type", "MAP_NAME": "Red_Cl.Civit_2026.dwg", "ELEVATION": 0.0, "LINE_STYLE": "Solid", "LINE_COLOR": "RGB(255,255,0)", "LINE_WIDTH": 1 }, "geometry": { "type": "MultiLineString", "coordinates": [ [ [ -68.876663095426665, -32.912366371915326 ], [ -68.875349506299997, -32.911874134794516 ] ] ] } },
{ "type": "Feature", "properties": { "LAYER": "1039_AUXILIAR", "GM_TYPE": "Unknown Line Type", "MAP_NAME": "Red_Cl.Civit_2026.dwg", "ELEVATION": 0.0, "LINE_STYLE": "Solid", "LINE_COLOR": "RGB(255,255,0)", "LINE_WIDTH": 1 }, "geometry": { "type": "MultiLineString", "coordinates": [ [ [ -68.876812478251495, -32.912069229708955 ], [ -68.875744310300007, -32.911220370094533 ] ] ] } },
{ "type": "Feature", "properties": { "LAYER": "1039_AUXILIAR", "GM_TYPE": "Unknown Line Type", "MAP_NAME": "Red_Cl.Civit_2026.dwg", "ELEVATION": 0.0, "LINE_STYLE": "Solid", "LINE_COLOR": "RGB(255,255,0)", "LINE_WIDTH": 1 }, "geometry": { "type": "MultiLineString", "coordinates": [ [ [ -68.877778716700007, -32.910262653194529 ], [ -68.877359121200001, -32.909971205494536 ] ] ] } },
{ "type": "Feature", "properties": { "LAYER": "1039_AUXILIAR", "GM_TYPE": "Unknown Line Type", "MAP_NAME": "Red_Cl.Civit_2026.dwg", "ELEVATION": 0.0, "LINE_STYLE": "Solid", "LINE_COLOR": "RGB(255,255,0)", "LINE_WIDTH": 1 }, "geometry": { "type": "MultiLineString", "coordinates": [ [ [ -68.879409040900001, -32.908711782794533 ], [ -68.879300459, -32.908741111294532 ] ] ] } },
{ "type": "Feature", "properties": { "LAYER": "1039_AUXILIAR", "GM_TYPE": "Unknown Line Type", "MAP_NAME": "Red_Cl.Civit_2026.dwg", "ELEVATION": 0.0, "LINE_STYLE": "Solid", "LINE_COLOR": "RGB(255,255,0)", "LINE_WIDTH": 1 }, "geometry": { "type": "MultiLineString", "coordinates": [ [ [ -68.87753531946467, -32.904856867603129 ], [ -68.877023236909437, -32.904925431252302 ] ] ] } },
{ "type": "Feature", "properties": { "LAYER": "1039_AUXILIAR", "GM_TYPE": "Unknown Line Type", "MAP_NAME": "Red_Cl.Civit_2026.dwg", "ELEVATION": 0.0, "LINE_STYLE": "Solid", "LINE_COLOR": "RGB(255,255,0)", "LINE_WIDTH": 1 }, "geometry": { "type": "MultiLineString", "coordinates": [ [ [ -68.877126150009445, -32.903639062985427 ], [ -68.877029473158217, -32.903720391217853 ], [ -68.876966579836889, -32.903638462825128 ] ] ] } },
{ "type": "Feature", "properties": { "LAYER": "1039_AUXILIAR", "GM_TYPE": "Unknown Line Type", "MAP_NAME": "Red_Cl.Civit_2026.dwg", "ELEVATION": 0.0, "LINE_STYLE": "Solid", "LINE_COLOR": "RGB(255,255,0)", "LINE_WIDTH": 1 }, "geometry": { "type": "MultiLineString", "coordinates": [ [ [ -68.876852452581957, -32.901557088611156 ], [ -68.875625889644255, -32.901630703208923 ] ] ] } },
{ "type": "Feature", "properties": { "LAYER": "1039_AUXILIAR", "GM_TYPE": "Unknown Line Type", "MAP_NAME": "Red_Cl.Civit_2026.dwg", "ELEVATION": 0.0, "LINE_STYLE": "Solid", "LINE_COLOR": "RGB(255,255,0)", "LINE_WIDTH": 1 }, "geometry": { "type": "MultiLineString", "coordinates": [ [ [ -68.877577244220163, -32.898951775504848 ], [ -68.877356705585854, -32.899039161690311 ], [ -68.877190048188396, -32.899020511950333 ], [ -68.876845627216426, -32.899048512629079 ], [ -68.87657342978018, -32.899183788701627 ], [ -68.876256787378153, -32.899277087175555 ], [ -68.875790152297469, -32.899365725908403 ] ] ] } },
{ "type": "Feature", "properties": { "LAYER": "1039_AUXILIAR", "GM_TYPE": "Unknown Line Type", "MAP_NAME": "Red_Cl.Civit_2026.dwg", "ELEVATION": 0.0, "LINE_STYLE": "Solid", "LINE_COLOR": "RGB(255,255,0)", "LINE_WIDTH": 1 }, "geometry": { "type": "MultiLineString", "coordinates": [ [ [ -68.880056745626305, -32.892937412922677 ], [ -68.880514151739845, -32.892958635851926 ] ] ] } },
{ "type": "Feature", "properties": { "LAYER": "1039_AUXILIAR", "GM_TYPE": "Unknown Line Type", "MAP_NAME": "Red_Cl.Civit_2026.dwg", "ELEVATION": 0.0, "LINE_STYLE": "Solid", "LINE_COLOR": "RGB(255,255,0)", "LINE_WIDTH": 1 }, "geometry": { "type": "MultiLineString", "coordinates": [ [ [ -68.882616891416319, -32.890987781419902 ], [ -68.882328055800002, -32.890910292894574 ] ] ] } },
{ "type": "Feature", "properties": { "LAYER": "1039_AUXILIAR", "GM_TYPE": "Unknown Line Type", "MAP_NAME": "Red_Cl.Civit_2026.dwg", "ELEVATION": 0.0, "LINE_STYLE": "Solid", "LINE_COLOR": "RGB(255,255,0)", "LINE_WIDTH": 1 }, "geometry": { "type": "MultiLineString", "coordinates": [ [ [ -68.880566085699655, -32.888052289532922 ], [ -68.880007048, -32.887959501094585 ] ] ] } },
{ "type": "Feature", "properties": { "LAYER": "1039_AUXILIAR", "GM_TYPE": "Unknown Line Type", "MAP_NAME": "Red_Cl.Civit_2026.dwg", "ELEVATION": 0.0, "LINE_STYLE": "Solid", "LINE_COLOR": "RGB(255,255,0)", "LINE_WIDTH": 1 }, "geometry": { "type": "MultiLineString", "coordinates": [ [ [ -68.872610527600003, -32.91938635049452 ], [ -68.872443387399997, -32.919318132494503 ] ] ] } },
{ "type": "Feature", "properties": { "LAYER": "1039_AUXILIAR", "GM_TYPE": "Unknown Line Type", "MAP_NAME": "Red_Cl.Civit_2026.dwg", "ELEVATION": 0.0, "LINE_STYLE": "Solid", "LINE_COLOR": "RGB(255,255,0)", "LINE_WIDTH": 1 }, "geometry": { "type": "MultiLineString", "coordinates": [ [ [ -68.872526605800005, -32.919517111494507 ], [ -68.872369963300002, -32.91945318279452 ] ] ] } },
{ "type": "Feature", "properties": { "LAYER": "1039_AUXILIAR", "GM_TYPE": "Unknown Line Type", "MAP_NAME": "Red_Cl.Civit_2026.dwg", "ELEVATION": 0.0, "LINE_STYLE": "Solid", "LINE_COLOR": "RGB(255,255,0)", "LINE_WIDTH": 1 }, "geometry": { "type": "MultiLineString", "coordinates": [ [ [ -68.872182097099994, -32.920078102994509 ], [ -68.872090108400002, -32.920039030794513 ] ] ] } },
{ "type": "Feature", "properties": { "LAYER": "1039_AUXILIAR", "GM_TYPE": "Unknown Line Type", "MAP_NAME": "Red_Cl.Civit_2026.dwg", "ELEVATION": 0.0, "LINE_STYLE": "Solid", "LINE_COLOR": "RGB(255,255,0)", "LINE_WIDTH": 1 }, "geometry": { "type": "MultiLineString", "coordinates": [ [ [ -68.873045993399998, -32.91870571439452 ], [ -68.872879000799998, -32.918637561894521 ] ] ] } },
{ "type": "Feature", "properties": { "LAYER": "1039_AUXILIAR", "GM_TYPE": "Unknown Line Type", "MAP_NAME": "Red_Cl.Civit_2026.dwg", "ELEVATION": 0.0, "LINE_STYLE": "Solid", "LINE_COLOR": "RGB(255,255,0)", "LINE_WIDTH": 1 }, "geometry": { "type": "MultiLineString", "coordinates": [ [ [ -68.873639636199997, -32.917789369194523 ], [ -68.873472644800017, -32.917721217394508 ] ] ] } },
{ "type": "Feature", "properties": { "LAYER": "1039_AUXILIAR", "GM_TYPE": "Unknown Line Type", "MAP_NAME": "Red_Cl.Civit_2026.dwg", "ELEVATION": 0.0, "LINE_STYLE": "Solid", "LINE_COLOR": "RGB(255,255,0)", "LINE_WIDTH": 1 }, "geometry": { "type": "MultiLineString", "coordinates": [ [ [ -68.873568527399996, -32.917889193194512 ], [ -68.873405110199997, -32.917822500094516 ] ] ] } },
{ "type": "Feature", "properties": { "LAYER": "1039_AUXILIAR", "GM_TYPE": "Unknown Line Type", "MAP_NAME": "Red_Cl.Civit_2026.dwg", "ELEVATION": 0.0, "LINE_STYLE": "Solid", "LINE_COLOR": "RGB(255,255,0)", "LINE_WIDTH": 1 }, "geometry": { "type": "MultiLineString", "coordinates": [ [ [ -68.875625889644255, -32.901630703208923 ], [ -68.87561491636437, -32.901540253972328 ] ] ] } },
{ "type": "Feature", "properties": { "LAYER": "1039_AUXILIAR", "GM_TYPE": "Unknown Line Type", "MAP_NAME": "Red_Cl.Civit_2026.dwg", "ELEVATION": 0.0, "LINE_STYLE": "Solid", "LINE_COLOR": "RGB(255,255,0)", "LINE_WIDTH": 1 }, "geometry": { "type": "MultiLineString", "coordinates": [ [ [ -68.875625889644255, -32.901630703208923 ], [ -68.874020435381439, -32.90167684585915 ], [ -68.873838485050086, -32.901689594720459 ], [ -68.873651993181511, -32.901716908170343 ], [ -68.873049598341979, -32.901802489078221 ], [ -68.872982348299999, -32.90172529509455 ] ] ] } },
{ "type": "Feature", "properties": { "LAYER": "1039_AUXILIAR", "GM_TYPE": "Unknown Line Type", "MAP_NAME": "Red_Cl.Civit_2026.dwg", "ELEVATION": 0.0, "LINE_STYLE": "Solid", "LINE_COLOR": "RGB(255,255,0)", "LINE_WIDTH": 1 }, "geometry": { "type": "MultiLineString", "coordinates": [ [ [ -68.877154636100002, -32.899723330494545 ], [ -68.876547398880405, -32.899839546209854 ] ] ] } },
{ "type": "Feature", "properties": { "LAYER": "1039_AUXILIAR", "GM_TYPE": "Unknown Line Type", "MAP_NAME": "Red_Cl.Civit_2026.dwg", "ELEVATION": 0.0, "LINE_STYLE": "Solid", "LINE_COLOR": "RGB(255,255,0)", "LINE_WIDTH": 1 }, "geometry": { "type": "MultiLineString", "coordinates": [ [ [ -68.880514151739845, -32.892958635851926 ], [ -68.8801385087, -32.893355710694564 ] ] ] } },
{ "type": "Feature", "properties": { "LAYER": "1039_AUXILIAR", "GM_TYPE": "Unknown Line Type", "MAP_NAME": "Red_Cl.Civit_2026.dwg", "ELEVATION": 0.0, "LINE_STYLE": "Solid", "LINE_COLOR": "RGB(255,255,0)", "LINE_WIDTH": 1 }, "geometry": { "type": "MultiLineString", "coordinates": [ [ [ -68.880514151739845, -32.892958635851926 ], [ -68.880899555072787, -32.892793301642278 ], [ -68.880963748413677, -32.892937001241151 ], [ -68.881081428541876, -32.89313009495384 ], [ -68.881156321706271, -32.893305228454814 ], [ -68.881279341933634, -32.893421978423575 ], [ -68.881557449167587, -32.893453392018344 ], [ -68.881958548225953, -32.893354563508119 ], [ -68.882108293291765, -32.893332097413918 ], [ -68.882445248617103, -32.893520679712587 ], [ -68.882391782502395, -32.893646424889965 ], [ -68.883559766700003, -32.89449501429457 ] ] ] } },
{ "type": "Feature", "properties": { "LAYER": "1039_AUXILIAR", "GM_TYPE": "Unknown Line Type", "MAP_NAME": "Red_Cl.Civit_2026.dwg", "ELEVATION": 0.0, "LINE_STYLE": "Solid", "LINE_COLOR": "RGB(255,255,0)", "LINE_WIDTH": 1 }, "geometry": { "type": "MultiLineString", "coordinates": [ [ [ -68.879513647711036, -32.886240579775759 ], [ -68.879244805513252, -32.886311603334043 ], [ -68.878958615327079, -32.886357137815367 ], [ -68.878919547968863, -32.885861912299852 ], [ -68.877914866134688, -32.886029470369486 ], [ -68.877694858200002, -32.886072550694571 ], [ -68.876195713200005, -32.886354170994572 ], [ -68.875860734200018, -32.886408993394596 ], [ -68.875800859, -32.886412392194565 ], [ -68.875666831299995, -32.886400056194582 ], [ -68.875548479800003, -32.886367388294573 ], [ -68.875155970500003, -32.886043284194578 ], [ -68.874775118539731, -32.88556471211465 ], [ -68.874502737890595, -32.88489745579988 ], [ -68.874153916699996, -32.883957187494573 ] ] ] } },
{ "type": "Feature", "properties": { "LAYER": "1039_AUXILIAR", "GM_TYPE": "Unknown Line Type", "MAP_NAME": "Red_Cl.Civit_2026.dwg", "ELEVATION": 0.0, "LINE_STYLE": "Solid", "LINE_COLOR": "RGB(255,255,0)", "LINE_WIDTH": 1 }, "geometry": { "type": "MultiLineString", "coordinates": [ [ [ -68.879513647711036, -32.886240579775759 ], [ -68.879236064954014, -32.88552506555375 ] ] ] } },
{ "type": "Feature", "properties": { "LAYER": "1039_AUXILIAR", "GM_TYPE": "Unknown Line Type", "MAP_NAME": "Red_Cl.Civit_2026.dwg", "ELEVATION": 0.0, "LINE_STYLE": "Solid", "LINE_COLOR": "RGB(255,255,0)", "LINE_WIDTH": 1 }, "geometry": { "type": "MultiLineString", "coordinates": [ [ [ -68.882328055800002, -32.890910292894574 ], [ -68.882355443140199, -32.891505484684572 ] ] ] } },
{ "type": "Feature", "properties": { "LAYER": "1039_AUXILIAR", "GM_TYPE": "Unknown Line Type", "MAP_NAME": "Red_Cl.Civit_2026.dwg", "ELEVATION": 0.0, "LINE_STYLE": "Solid", "LINE_COLOR": "RGB(255,255,0)", "LINE_WIDTH": 1 }, "geometry": { "type": "MultiLineString", "coordinates": [ [ [ -68.882328055800002, -32.890910292894574 ], [ -68.882187817399995, -32.890909558194579 ] ] ] } },
{ "type": "Feature", "properties": { "LAYER": "1039_AUXILIAR", "GM_TYPE": "Unknown Line Type", "MAP_NAME": "Red_Cl.Civit_2026.dwg", "ELEVATION": 0.0, "LINE_STYLE": "Solid", "LINE_COLOR": "RGB(255,255,0)", "LINE_WIDTH": 1 }, "geometry": { "type": "MultiLineString", "coordinates": [ [ [ -68.882328055800002, -32.890910292894574 ], [ -68.883076789699999, -32.890691300594568 ] ] ] } },
{ "type": "Feature", "properties": { "LAYER": "1039_AUXILIAR", "GM_TYPE": "Unknown Line Type", "MAP_NAME": "Red_Cl.Civit_2026.dwg", "ELEVATION": 0.0, "LINE_STYLE": "Solid", "LINE_COLOR": "RGB(255,255,0)", "LINE_WIDTH": 1 }, "geometry": { "type": "MultiLineString", "coordinates": [ [ [ -68.885339742799999, -32.889380067094571 ], [ -68.885732709255052, -32.890082258438632 ], [ -68.886919684072382, -32.890496471010621 ], [ -68.887431545988875, -32.890611719124188 ], [ -68.888143098373916, -32.890417694640995 ], [ -68.888586248646973, -32.890239426220468 ], [ -68.891066199400001, -32.888862655894563 ] ] ] } },
{ "type": "Feature", "properties": { "LAYER": "1039_AUXILIAR", "GM_TYPE": "Unknown Line Type", "MAP_NAME": "Red_Cl.Civit_2026.dwg", "ELEVATION": 0.0, "LINE_STYLE": "Solid", "LINE_COLOR": "RGB(255,255,0)", "LINE_WIDTH": 1 }, "geometry": { "type": "MultiLineString", "coordinates": [ [ [ -68.883076789699999, -32.890691300594568 ], [ -68.885339742799999, -32.889380067094571 ] ] ] } },
{ "type": "Feature", "properties": { "LAYER": "1039_AUXILIAR", "GM_TYPE": "Unknown Line Type", "MAP_NAME": "Red_Cl.Civit_2026.dwg", "ELEVATION": 0.0, "LINE_STYLE": "Solid", "LINE_COLOR": "RGB(255,255,0)", "LINE_WIDTH": 1 }, "geometry": { "type": "MultiLineString", "coordinates": [ [ [ -68.883076789699999, -32.890691300594568 ], [ -68.883035006699998, -32.890567826094582 ] ] ] } },
{ "type": "Feature", "properties": { "LAYER": "1039_AUXILIAR", "GM_TYPE": "Unknown Line Type", "MAP_NAME": "Red_Cl.Civit_2026.dwg", "ELEVATION": 0.0, "LINE_STYLE": "Solid", "LINE_COLOR": "RGB(255,255,0)", "LINE_WIDTH": 1 }, "geometry": { "type": "MultiLineString", "coordinates": [ [ [ -68.885339742799999, -32.889380067094571 ], [ -68.885604306200008, -32.889227743694562 ] ] ] } },
{ "type": "Feature", "properties": { "LAYER": "1039_AUXILIAR", "GM_TYPE": "Unknown Line Type", "MAP_NAME": "Red_Cl.Civit_2026.dwg", "ELEVATION": 0.0, "LINE_STYLE": "Solid", "LINE_COLOR": "RGB(255,255,0)", "LINE_WIDTH": 1 }, "geometry": { "type": "MultiLineString", "coordinates": [ [ [ -68.885339742799999, -32.889380067094571 ], [ -68.885280317899998, -32.889260901494566 ], [ -68.884869276900019, -32.888636283294581 ], [ -68.88470945520001, -32.888494984594573 ], [ -68.884502465599994, -32.887787832594569 ], [ -68.884448860299997, -32.887529361294568 ], [ -68.884462491600019, -32.887098116194586 ], [ -68.884690417099989, -32.885718964494579 ], [ -68.884878308699996, -32.884885423194589 ], [ -68.885021059099998, -32.884456744894585 ], [ -68.885192028899979, -32.884259783294581 ], [ -68.885181851599995, -32.884005070194583 ] ] ] } },
{ "type": "Feature", "properties": { "LAYER": "1039_AUXILIAR", "GM_TYPE": "Unknown Line Type", "MAP_NAME": "Red_Cl.Civit_2026.dwg", "ELEVATION": 0.0, "LINE_STYLE": "Solid", "LINE_COLOR": "RGB(255,255,0)", "LINE_WIDTH": 1 }, "geometry": { "type": "MultiLineString", "coordinates": [ [ [ -68.885465301, -32.882271695194582 ], [ -68.886641509300006, -32.882578411494571 ], [ -68.887282000599996, -32.882844768394584 ] ] ] } },
{ "type": "Feature", "properties": { "LAYER": "1039_AUXILIAR", "GM_TYPE": "Unknown Line Type", "MAP_NAME": "Red_Cl.Civit_2026.dwg", "ELEVATION": 0.0, "LINE_STYLE": "Solid", "LINE_COLOR": "RGB(255,255,0)", "LINE_WIDTH": 1 }, "geometry": { "type": "MultiLineString", "coordinates": [ [ [ -68.887282000599996, -32.882844768394584 ], [ -68.887411923800002, -32.882897199694575 ], [ -68.888151601226369, -32.88322991041975 ] ] ] } },
{ "type": "Feature", "properties": { "LAYER": "1039_AUXILIAR", "GM_TYPE": "Unknown Line Type", "MAP_NAME": "Red_Cl.Civit_2026.dwg", "ELEVATION": 0.0, "LINE_STYLE": "Solid", "LINE_COLOR": "RGB(255,255,0)", "LINE_WIDTH": 1 }, "geometry": { "type": "MultiLineString", "coordinates": [ [ [ -68.887282000599996, -32.882844768394584 ], [ -68.887278278599993, -32.882788835794592 ] ] ] } },
{ "type": "Feature", "properties": { "LAYER": "1039_AUXILIAR", "GM_TYPE": "Unknown Line Type", "MAP_NAME": "Red_Cl.Civit_2026.dwg", "ELEVATION": 0.0, "LINE_STYLE": "Solid", "LINE_COLOR": "RGB(255,255,0)", "LINE_WIDTH": 1 }, "geometry": { "type": "MultiLineString", "coordinates": [ [ [ -68.885465301, -32.882271695194582 ], [ -68.885471840199997, -32.882169891094577 ] ] ] } },
{ "type": "Feature", "properties": { "LAYER": "1039_AUXILIAR", "GM_TYPE": "Unknown Line Type", "MAP_NAME": "Red_Cl.Civit_2026.dwg", "ELEVATION": 0.0, "LINE_STYLE": "Solid", "LINE_COLOR": "RGB(255,255,0)", "LINE_WIDTH": 1 }, "geometry": { "type": "MultiLineString", "coordinates": [ [ [ -68.885181851599995, -32.884005070194583 ], [ -68.884921171399995, -32.884012485194582 ] ] ] } },
{ "type": "Feature", "properties": { "LAYER": "1039_AUXILIAR", "GM_TYPE": "Unknown Line Type", "MAP_NAME": "Red_Cl.Civit_2026.dwg", "ELEVATION": 0.0, "LINE_STYLE": "Solid", "LINE_COLOR": "RGB(255,255,0)", "LINE_WIDTH": 1 }, "geometry": { "type": "MultiLineString", "coordinates": [ [ [ -68.885181851599995, -32.884005070194583 ], [ -68.885411636699999, -32.883107140394578 ], [ -68.885465301, -32.882271695194582 ] ] ] } },
{ "type": "Feature", "properties": { "LAYER": "1039", "GM_TYPE": "Unknown Line Type", "MAP_NAME": "Red_Cl.Civit_2026.dwg", "ELEVATION": 0.0, "LINE_STYLE": "Solid", "LINE_COLOR": "RGB(0,0,255)", "LINE_WIDTH": 1 }, "geometry": { "type": "MultiLineString", "coordinates": [ [ [ -68.879000693500004, -32.907614535394536 ], [ -68.87891304346681, -32.907335646027789 ] ] ] } },
{ "type": "Feature", "properties": { "LAYER": "1039", "GM_TYPE": "Unknown Line Type", "MAP_NAME": "Red_Cl.Civit_2026.dwg", "ELEVATION": 0.0, "LINE_STYLE": "Solid", "LINE_COLOR": "RGB(0,0,255)", "LINE_WIDTH": 1 }, "geometry": { "type": "MultiLineString", "coordinates": [ [ [ -68.87891304346681, -32.907335646027789 ], [ -68.878782904191993, -32.90708439814324 ], [ -68.878429369579862, -32.906489593490306 ], [ -68.878205973275413, -32.9061237033971 ], [ -68.878034630997305, -32.905835660360744 ] ] ] } }
]
}
