{
"type": "FeatureCollection",
"name": "red_1038_2026",
"crs": { "type": "name", "properties": { "name": "urn:ogc:def:crs:OGC:1.3:CRS84" } },
"features": [
{ "type": "Feature", "properties": { "LAYER": "1038_AUXILIAR", "GM_TYPE": "Unknown Line Type", "MAP_NAME": "red_del oeste_2026.DWG", "ELEVATION": 0.0, "LINE_STYLE": "Solid", "LINE_COLOR": "RGB(255,255,0)", "LINE_WIDTH": 1 }, "geometry": { "type": "MultiLineString", "coordinates": [ [ [ -68.86978888313962, -32.884790797759479 ], [ -68.869730408821283, -32.884584159065035 ] ] ] } },
{ "type": "Feature", "properties": { "LAYER": "1038_AUXILIAR", "GM_TYPE": "Unknown Line Type", "MAP_NAME": "red_del oeste_2026.DWG", "ELEVATION": 0.0, "LINE_STYLE": "Solid", "LINE_COLOR": "RGB(255,255,0)", "LINE_WIDTH": 1 }, "geometry": { "type": "MultiLineString", "coordinates": [ [ [ -68.874060018589276, -32.87742865527872 ], [ -68.87380685575252, -32.877475330989625 ] ] ] } },
{ "type": "Feature", "properties": { "LAYER": "1038_AUXILIAR", "GM_TYPE": "Unknown Line Type", "MAP_NAME": "red_del oeste_2026.DWG", "ELEVATION": 0.0, "LINE_STYLE": "Solid", "LINE_COLOR": "RGB(255,255,0)", "LINE_WIDTH": 1 }, "geometry": { "type": "MultiLineString", "coordinates": [ [ [ -68.87380685575252, -32.877475330989625 ], [ -68.873358103135942, -32.877590204082132 ] ] ] } },
{ "type": "Feature", "properties": { "LAYER": "1038_AUXILIAR", "GM_TYPE": "Unknown Line Type", "MAP_NAME": "red_del oeste_2026.DWG", "ELEVATION": 0.0, "LINE_STYLE": "Solid", "LINE_COLOR": "RGB(255,255,0)", "LINE_WIDTH": 1 }, "geometry": { "type": "MultiLineString", "coordinates": [ [ [ -68.8724676496538, -32.896544136268126 ], [ -68.872467865433705, -32.896393554081627 ] ] ] } },
{ "type": "Feature", "properties": { "LAYER": "1038_AUXILIAR", "GM_TYPE": "Unknown Line Type", "MAP_NAME": "red_del oeste_2026.DWG", "ELEVATION": 0.0, "LINE_STYLE": "Solid", "LINE_COLOR": "RGB(255,255,0)", "LINE_WIDTH": 1 }, "geometry": { "type": "MultiLineString", "coordinates": [ [ [ -68.872450997403462, -32.901831501450083 ], [ -68.872239731851749, -32.901863427651783 ] ] ] } },
{ "type": "Feature", "properties": { "LAYER": "1038_AUXILIAR", "GM_TYPE": "Unknown Line Type", "MAP_NAME": "red_del oeste_2026.DWG", "ELEVATION": 0.0, "LINE_STYLE": "Solid", "LINE_COLOR": "RGB(255,255,0)", "LINE_WIDTH": 1 }, "geometry": { "type": "MultiLineString", "coordinates": [ [ [ -68.866663662738489, -32.885370268898235 ], [ -68.866121475847095, -32.885473925343632 ] ] ] } },
{ "type": "Feature", "properties": { "LAYER": "1038_AUXILIAR", "GM_TYPE": "Unknown Line Type", "MAP_NAME": "red_del oeste_2026.DWG", "ELEVATION": 0.0, "LINE_STYLE": "Solid", "LINE_COLOR": "RGB(255,255,0)", "LINE_WIDTH": 1 }, "geometry": { "type": "MultiLineString", "coordinates": [ [ [ -68.864333200313922, -32.883060240821514 ], [ -68.864303683708187, -32.882934422644105 ] ] ] } },
{ "type": "Feature", "properties": { "LAYER": "1038_AUXILIAR", "GM_TYPE": "Unknown Line Type", "MAP_NAME": "red_del oeste_2026.DWG", "ELEVATION": 0.0, "LINE_STYLE": "Solid", "LINE_COLOR": "RGB(255,255,0)", "LINE_WIDTH": 1 }, "geometry": { "type": "MultiLineString", "coordinates": [ [ [ -68.865286300947858, -32.921113135484454 ], [ -68.865259222127932, -32.921081678198753 ], [ -68.864992768731696, -32.920942607232881 ] ] ] } },
{ "type": "Feature", "properties": { "LAYER": "1038_AUXILIAR", "GM_TYPE": "Unknown Line Type", "MAP_NAME": "red_del oeste_2026.DWG", "ELEVATION": 0.0, "LINE_STYLE": "Solid", "LINE_COLOR": "RGB(255,255,0)", "LINE_WIDTH": 1 }, "geometry": { "type": "MultiLineString", "coordinates": [ [ [ -68.865950107649098, -32.918522880637596 ], [ -68.866063339960078, -32.918437108228851 ] ] ] } },
{ "type": "Feature", "properties": { "LAYER": "1038_AUXILIAR", "GM_TYPE": "Unknown Line Type", "MAP_NAME": "red_del oeste_2026.DWG", "ELEVATION": 0.0, "LINE_STYLE": "Solid", "LINE_COLOR": "RGB(255,255,0)", "LINE_WIDTH": 1 }, "geometry": { "type": "MultiLineString", "coordinates": [ [ [ -68.867004289722274, -32.918563241169331 ], [ -68.866848818621477, -32.918483851780977 ] ] ] } },
{ "type": "Feature", "properties": { "LAYER": "1038_AUXILIAR", "GM_TYPE": "Unknown Line Type", "MAP_NAME": "red_del oeste_2026.DWG", "ELEVATION": 0.0, "LINE_STYLE": "Solid", "LINE_COLOR": "RGB(255,255,0)", "LINE_WIDTH": 1 }, "geometry": { "type": "MultiLineString", "coordinates": [ [ [ -68.866848818621477, -32.918483851780977 ], [ -68.866981732023973, -32.918298688239588 ] ] ] } },
{ "type": "Feature", "properties": { "LAYER": "1038_AUXILIAR", "GM_TYPE": "Unknown Line Type", "MAP_NAME": "red_del oeste_2026.DWG", "ELEVATION": 0.0, "LINE_STYLE": "Solid", "LINE_COLOR": "RGB(255,255,0)", "LINE_WIDTH": 1 }, "geometry": { "type": "MultiLineString", "coordinates": [ [ [ -68.867479200793142, -32.917425202538631 ], [ -68.866786064124724, -32.917035610526021 ], [ -68.866883377722175, -32.916896325136065 ] ] ] } },
{ "type": "Feature", "properties": { "LAYER": "1038_AUXILIAR", "GM_TYPE": "Unknown Line Type", "MAP_NAME": "red_del oeste_2026.DWG", "ELEVATION": 0.0, "LINE_STYLE": "Solid", "LINE_COLOR": "RGB(255,255,0)", "LINE_WIDTH": 1 }, "geometry": { "type": "MultiLineString", "coordinates": [ [ [ -68.866883377722175, -32.916896325136065 ], [ -68.866636415341745, -32.916771040990959 ] ] ] } },
{ "type": "Feature", "properties": { "LAYER": "1038_AUXILIAR", "GM_TYPE": "Unknown Line Type", "MAP_NAME": "red_del oeste_2026.DWG", "ELEVATION": 0.0, "LINE_STYLE": "Solid", "LINE_COLOR": "RGB(255,255,0)", "LINE_WIDTH": 1 }, "geometry": { "type": "MultiLineString", "coordinates": [ [ [ -68.866981732023973, -32.918298688239588 ], [ -68.866924873812792, -32.918268424390533 ] ] ] } },
{ "type": "Feature", "properties": { "LAYER": "1038_AUXILIAR", "GM_TYPE": "Unknown Line Type", "MAP_NAME": "red_del oeste_2026.DWG", "ELEVATION": 0.0, "LINE_STYLE": "Solid", "LINE_COLOR": "RGB(255,255,0)", "LINE_WIDTH": 1 }, "geometry": { "type": "MultiLineString", "coordinates": [ [ [ -68.864939406698895, -32.920631007379818 ], [ -68.864898920800755, -32.920526432093681 ] ] ] } },
{ "type": "Feature", "properties": { "LAYER": "1038_AUXILIAR", "GM_TYPE": "Unknown Line Type", "MAP_NAME": "red_del oeste_2026.DWG", "ELEVATION": 0.0, "LINE_STYLE": "Solid", "LINE_COLOR": "RGB(255,255,0)", "LINE_WIDTH": 1 }, "geometry": { "type": "MultiLineString", "coordinates": [ [ [ -68.864992768731696, -32.920942607232881 ], [ -68.864941869247374, -32.921020167537307 ] ] ] } },
{ "type": "Feature", "properties": { "LAYER": "1038_AUXILIAR", "GM_TYPE": "Unknown Line Type", "MAP_NAME": "red_del oeste_2026.DWG", "ELEVATION": 0.0, "LINE_STYLE": "Solid", "LINE_COLOR": "RGB(255,255,0)", "LINE_WIDTH": 1 }, "geometry": { "type": "MultiLineString", "coordinates": [ [ [ -68.873923914317373, -32.878958903515958 ], [ -68.873857450878546, -32.879055141619418 ], [ -68.873713344862452, -32.87927346162013 ] ] ] } },
{ "type": "Feature", "properties": { "LAYER": "1038_AUXILIAR", "GM_TYPE": "Unknown Line Type", "MAP_NAME": "red_del oeste_2026.DWG", "ELEVATION": 0.0, "LINE_STYLE": "Solid", "LINE_COLOR": "RGB(255,255,0)", "LINE_WIDTH": 1 }, "geometry": { "type": "MultiLineString", "coordinates": [ [ [ -68.869387593637626, -32.877743832478352 ], [ -68.865588405668348, -32.87776268309468 ], [ -68.861863566645667, -32.878457644041674 ], [ -68.861955810701204, -32.878774293662694 ] ] ] } },
{ "type": "Feature", "properties": { "LAYER": "1038_AUXILIAR", "GM_TYPE": "Unknown Line Type", "MAP_NAME": "red_del oeste_2026.DWG", "ELEVATION": 0.0, "LINE_STYLE": "Solid", "LINE_COLOR": "RGB(255,255,0)", "LINE_WIDTH": 1 }, "geometry": { "type": "MultiLineString", "coordinates": [ [ [ -68.873713344862452, -32.87927346162013 ], [ -68.873074526625899, -32.877449177305976 ], [ -68.872971801434744, -32.877471790358037 ] ] ] } },
{ "type": "Feature", "properties": { "LAYER": "1037_1054", "GM_TYPE": "Unknown Line Type", "MAP_NAME": "red_del oeste_2026.DWG", "ELEVATION": 0.0, "LINE_STYLE": "Solid", "LINE_COLOR": "RGB(255,0,255)", "LINE_WIDTH": 1 }, "geometry": { "type": "MultiLineString", "coordinates": [ [ [ -68.854320917218146, -32.960312207503733 ], [ -68.854627368032368, -32.960188183766633 ], [ -68.854435972615107, -32.959641928601975 ], [ -68.854307302175371, -32.959219598876089 ], [ -68.854244029428159, -32.959026710370935 ], [ -68.854225741896329, -32.958675964802005 ], [ -68.854245495462905, -32.958608692374845 ], [ -68.854266652254211, -32.958492842674012 ], [ -68.854577347184204, -32.957151251822047 ], [ -68.854961561120504, -32.955710701617612 ], [ -68.855059168133479, -32.955236574776102 ], [ -68.855182478159279, -32.954867699912711 ], [ -68.855302448317829, -32.95460945661064 ], [ -68.855389055500183, -32.95435673732473 ], [ -68.855490030711437, -32.954097138563441 ], [ -68.855714486452896, -32.953947971659474 ], [ -68.855839081274922, -32.953506099478624 ], [ -68.855694249318091, -32.953213467069226 ], [ -68.855653631403655, -32.953043752740903 ], [ -68.855907534753243, -32.952953808452421 ], [ -68.855934837984421, -32.952924593554165 ], [ -68.855849956155978, -32.952774681494162 ], [ -68.855722790155838, -32.952532461935434 ], [ -68.855612600897871, -32.952215304765957 ], [ -68.855549783178205, -32.95196443940322 ], [ -68.855561226531393, -32.951813745247392 ], [ -68.855594993582514, -32.951734613428563 ], [ -68.855715734732826, -32.95165795483156 ], [ -68.85587537536864, -32.951479806450266 ], [ -68.855906375523958, -32.951128510327557 ], [ -68.856122887178884, -32.949638775405923 ], [ -68.856214805768175, -32.948640109902726 ], [ -68.856258108819944, -32.948461781655809 ], [ -68.856293770157777, -32.948093827689014 ], [ -68.856369008583016, -32.947514429859439 ], [ -68.856410896467963, -32.947041373787698 ], [ -68.856476099272129, -32.946806042865482 ], [ -68.856571697890132, -32.946523491459757 ], [ -68.856735127269133, -32.946201276143256 ], [ -68.856877278229518, -32.945907520089058 ], [ -68.856888024798963, -32.945887592681459 ], [ -68.85705618724117, -32.945682676633211 ], [ -68.857155092450853, -32.94556960488724 ], [ -68.857946746528683, -32.944983156326018 ], [ -68.858020841336483, -32.944948003294783 ], [ -68.859499723655404, -32.943850430927014 ], [ -68.860304297425841, -32.943242359274286 ], [ -68.861042173470096, -32.942697071962556 ], [ -68.861681361364944, -32.942225261923554 ] ] ] } },
{ "type": "Feature", "properties": { "LAYER": "1037_1054", "GM_TYPE": "Unknown Line Type", "MAP_NAME": "red_del oeste_2026.DWG", "ELEVATION": 0.0, "LINE_STYLE": "Solid", "LINE_COLOR": "RGB(255,0,255)", "LINE_WIDTH": 1 }, "geometry": { "type": "MultiLineString", "coordinates": [ [ [ -68.873846527463101, -32.907911800004094 ], [ -68.873744764270441, -32.907835854582032 ], [ -68.873726714480767, -32.907764277537233 ], [ -68.873722234392631, -32.90770955409161 ], [ -68.873704609804392, -32.907591438748909 ], [ -68.873682193699537, -32.907490746022972 ], [ -68.873586966901968, -32.907490250454764 ], [ -68.873376969672321, -32.907487863293412 ], [ -68.872111457905561, -32.907513002658767 ], [ -68.871894310321935, -32.907501626422153 ], [ -68.87169572645432, -32.907459162838684 ], [ -68.871566747997917, -32.90742864577669 ], [ -68.871467703349154, -32.907392000174355 ], [ -68.871335315258179, -32.907309362240646 ], [ -68.871195142573157, -32.907181900464359 ], [ -68.871072745740889, -32.90706848835103 ], [ -68.870661217014643, -32.90662069248404 ], [ -68.870398593985044, -32.906272131885714 ], [ -68.869768605990089, -32.905654634656827 ], [ -68.869049622443029, -32.904984101995112 ], [ -68.86784240376582, -32.903794662553132 ], [ -68.86773056473973, -32.903705273894502 ], [ -68.867382221312639, -32.902859960492009 ], [ -68.867173364275502, -32.902522046434804 ], [ -68.866867629280435, -32.902545847379294 ], [ -68.866412277126997, -32.902592109799834 ], [ -68.866213660123023, -32.902618686642136 ], [ -68.865910067171896, -32.902606999079779 ], [ -68.865674219422587, -32.90255538698058 ], [ -68.865547717241185, -32.902522344977584 ], [ -68.865301127809573, -32.902400469967802 ], [ -68.865076390877419, -32.902285286210038 ], [ -68.864928061036409, -32.902158060982558 ], [ -68.864213894483115, -32.901548489414978 ], [ -68.863675518890034, -32.900902742129652 ], [ -68.863255220651723, -32.900416598635864 ], [ -68.863025262035833, -32.900121275490889 ], [ -68.862888003265709, -32.899498658211591 ], [ -68.862845213383039, -32.898965246283083 ], [ -68.862796454300678, -32.898280692413088 ], [ -68.862784514231535, -32.897775795595997 ], [ -68.862542161465512, -32.896867860780937 ], [ -68.862436304225525, -32.896487731950984 ], [ -68.862411845868735, -32.896033102877787 ], [ -68.862430277556825, -32.895743520021668 ], [ -68.862451032447865, -32.895584707394278 ], [ -68.862503477335437, -32.895460374886227 ], [ -68.862559346001945, -32.89532393710644 ], [ -68.862626816470751, -32.895197477270685 ], [ -68.862642342443564, -32.895069911621391 ], [ -68.86267271134129, -32.894945796426583 ], [ -68.862693152757188, -32.894756616264573 ], [ -68.862686194496064, -32.894598656833345 ], [ -68.862671604778598, -32.894420593031853 ], [ -68.862618166443369, -32.894225834582265 ], [ -68.862570889461793, -32.893817766567878 ], [ -68.862502003572217, -32.893553493196421 ], [ -68.862459463660741, -32.893300779329216 ], [ -68.862412983853531, -32.893106549472421 ], [ -68.86234548031122, -32.892710334263207 ], [ -68.862247582089552, -32.8922187362041 ], [ -68.86209232097039, -32.891457513900995 ], [ -68.861861190578267, -32.890613120616713 ], [ -68.861725392317723, -32.889954719626573 ], [ -68.861506723912058, -32.888860724308088 ], [ -68.861284572151121, -32.887779410919684 ], [ -68.860969880121701, -32.886180064003717 ], [ -68.860757800656017, -32.885211049461724 ], [ -68.860639970185161, -32.884481557040246 ], [ -68.860168080476157, -32.882136451792192 ], [ -68.85993104605673, -32.881046102252981 ], [ -68.859663304571811, -32.879647745782407 ], [ -68.859439529085066, -32.878457548765574 ], [ -68.859053206855791, -32.876570408089535 ], [ -68.858918774737589, -32.875633974886995 ], [ -68.858817102223966, -32.874806654450978 ], [ -68.858533156568598, -32.873174851867525 ], [ -68.858327375377172, -32.871972030563477 ], [ -68.85816861622385, -32.870807649016591 ], [ -68.857979923211303, -32.869811984911344 ], [ -68.857863849036022, -32.869112809959411 ], [ -68.857814509002466, -32.868637155605988 ], [ -68.85794055680995, -32.868018805167502 ] ] ] } },
{ "type": "Feature", "properties": { "LAYER": "1038", "GM_TYPE": "Unknown Line Type", "MAP_NAME": "red_del oeste_2026.DWG", "ELEVATION": 0.0, "LINE_STYLE": "Solid", "LINE_COLOR": "RGB(0,0,255)", "LINE_WIDTH": 1 }, "geometry": { "type": "MultiLineString", "coordinates": [ [ [ -68.873846527463101, -32.907911800004094 ], [ -68.873942971704864, -32.90777297231967 ], [ -68.873949470031306, -32.907706971629047 ], [ -68.873940966367812, -32.907648234858272 ], [ -68.87390869822633, -32.907505048837372 ], [ -68.873869298489467, -32.907410995507284 ], [ -68.873566718776289, -32.906762470143811 ], [ -68.873384668732086, -32.906378253569116 ] ] ] } },
{ "type": "Feature", "properties": { "LAYER": "1037_1054", "GM_TYPE": "Unknown Line Type", "MAP_NAME": "red_del oeste_2026.DWG", "ELEVATION": 0.0, "LINE_STYLE": "Solid", "LINE_COLOR": "RGB(255,0,255)", "LINE_WIDTH": 1 }, "geometry": { "type": "MultiLineString", "coordinates": [ [ [ -68.861681361364944, -32.942225261923554 ], [ -68.861756279255047, -32.941962253000519 ], [ -68.861953669000414, -32.94178929894035 ], [ -68.862273332985922, -32.941578002377412 ], [ -68.862401928284939, -32.941452810209341 ], [ -68.862474553167829, -32.94118147009398 ], [ -68.862433917632458, -32.940953732322129 ], [ -68.862422919560586, -32.940821298406675 ], [ -68.862452087278541, -32.940679516764213 ], [ -68.8624646893727, -32.940519822517068 ], [ -68.862476592818382, -32.940294052071316 ], [ -68.862549027118604, -32.939992399711855 ], [ -68.862593993770645, -32.939812947701007 ], [ -68.86259771681145, -32.939617470748281 ], [ -68.862619976809484, -32.939455847525963 ], [ -68.862658057965291, -32.939308431707929 ], [ -68.862720254485367, -32.939161556536476 ], [ -68.862790884928089, -32.938961031005626 ], [ -68.862958650352354, -32.9385744760107 ], [ -68.863006333328713, -32.938157950008751 ], [ -68.863077091064099, -32.937164452706206 ], [ -68.863244054993189, -32.936702438023396 ], [ -68.863268770621914, -32.936311472285283 ], [ -68.863266005543281, -32.935684507024533 ], [ -68.863272883057235, -32.935079200589932 ], [ -68.863239363408752, -32.934483509457031 ], [ -68.863217744153502, -32.934007004622991 ], [ -68.863183105929906, -32.933233635860695 ], [ -68.863098195933617, -32.932082740181421 ], [ -68.863103204095523, -32.931932814207968 ], [ -68.863425923847103, -32.931136552392431 ], [ -68.863570002678557, -32.93066834597014 ], [ -68.863953230615422, -32.929675196804929 ], [ -68.863915807893036, -32.929312043548279 ], [ -68.86372559713476, -32.928891828333185 ], [ -68.863686333506863, -32.92875296769023 ], [ -68.863729646832525, -32.928270399480695 ], [ -68.863561132086843, -32.927654514140649 ], [ -68.863577293014444, -32.927342500923203 ], [ -68.863581446380991, -32.927108186135435 ], [ -68.863430611121018, -32.926228841409412 ], [ -68.863561939335298, -32.925711922638818 ], [ -68.863395271777762, -32.925339974459604 ], [ -68.863591006522242, -32.924720049912466 ], [ -68.863762624728139, -32.924173041082092 ], [ -68.863895956689447, -32.923814178727163 ], [ -68.864058835121753, -32.923492286793362 ], [ -68.864241056350906, -32.923129105944156 ], [ -68.864348920992541, -32.922914121922844 ], [ -68.865286300947858, -32.921113135484454 ] ] ] } },
{ "type": "Feature", "properties": { "LAYER": "1037_1054", "GM_TYPE": "Unknown Line Type", "MAP_NAME": "red_del oeste_2026.DWG", "ELEVATION": 0.0, "LINE_STYLE": "Solid", "LINE_COLOR": "RGB(255,0,255)", "LINE_WIDTH": 1 }, "geometry": { "type": "MultiLineString", "coordinates": [ [ [ -68.865286300947858, -32.921113135484454 ], [ -68.865621571116861, -32.920511414737859 ], [ -68.866074318069252, -32.919780481186244 ], [ -68.866613797984186, -32.919075453897442 ], [ -68.867004289722274, -32.918563241169331 ] ] ] } },
{ "type": "Feature", "properties": { "LAYER": "1038_AUXILIAR", "GM_TYPE": "Unknown Line Type", "MAP_NAME": "red_del oeste_2026.DWG", "ELEVATION": 0.0, "LINE_STYLE": "Solid", "LINE_COLOR": "RGB(255,255,0)", "LINE_WIDTH": 1 }, "geometry": { "type": "MultiLineString", "coordinates": [ [ [ -68.864992768731696, -32.920942607232881 ], [ -68.864939406698895, -32.920631007379818 ] ] ] } },
{ "type": "Feature", "properties": { "LAYER": "1038_AUXILIAR", "GM_TYPE": "Unknown Line Type", "MAP_NAME": "red_del oeste_2026.DWG", "ELEVATION": 0.0, "LINE_STYLE": "Solid", "LINE_COLOR": "RGB(255,255,0)", "LINE_WIDTH": 1 }, "geometry": { "type": "MultiLineString", "coordinates": [ [ [ -68.864939406698895, -32.920631007379818 ], [ -68.865275290958309, -32.920240242224679 ], [ -68.865506367394033, -32.920204112050129 ], [ -68.866355333649409, -32.919072409326894 ], [ -68.866274325223586, -32.918920387040117 ], [ -68.866090441273911, -32.918694936979335 ], [ -68.865950107649098, -32.918522880637596 ] ] ] } },
{ "type": "Feature", "properties": { "LAYER": "1038_AUXILIAR", "GM_TYPE": "Unknown Line Type", "MAP_NAME": "red_del oeste_2026.DWG", "ELEVATION": 0.0, "LINE_STYLE": "Solid", "LINE_COLOR": "RGB(255,255,0)", "LINE_WIDTH": 1 }, "geometry": { "type": "MultiLineString", "coordinates": [ [ [ -68.865950107649098, -32.918522880637596 ], [ -68.865809774566742, -32.918350824134976 ], [ -68.865608659943874, -32.918167062329964 ], [ -68.865460960462983, -32.918107404821598 ] ] ] } },
{ "type": "Feature", "properties": { "LAYER": "1038_AUXILIAR", "GM_TYPE": "Unknown Line Type", "MAP_NAME": "red_del oeste_2026.DWG", "ELEVATION": 0.0, "LINE_STYLE": "Solid", "LINE_COLOR": "RGB(255,255,0)", "LINE_WIDTH": 1 }, "geometry": { "type": "MultiLineString", "coordinates": [ [ [ -68.865460960462983, -32.918107404821598 ], [ -68.865179428581271, -32.91810282752671 ] ] ] } },
{ "type": "Feature", "properties": { "LAYER": "1038_AUXILIAR", "GM_TYPE": "Unknown Line Type", "MAP_NAME": "red_del oeste_2026.DWG", "ELEVATION": 0.0, "LINE_STYLE": "Solid", "LINE_COLOR": "RGB(255,255,0)", "LINE_WIDTH": 1 }, "geometry": { "type": "MultiLineString", "coordinates": [ [ [ -68.865460960462983, -32.918107404821598 ], [ -68.865380716483116, -32.918074993254208 ] ] ] } },
{ "type": "Feature", "properties": { "LAYER": "1037_1054", "GM_TYPE": "Unknown Line Type", "MAP_NAME": "red_del oeste_2026.DWG", "ELEVATION": 0.0, "LINE_STYLE": "Solid", "LINE_COLOR": "RGB(255,0,255)", "LINE_WIDTH": 1 }, "geometry": { "type": "MultiLineString", "coordinates": [ [ [ -68.867004289722274, -32.918563241169331 ], [ -68.867458660881312, -32.917967227992371 ], [ -68.868272012979929, -32.916834665970967 ], [ -68.868657957148969, -32.916234197920865 ], [ -68.868748711074218, -32.91603733792217 ], [ -68.868795137771713, -32.91590610464754 ] ] ] } },
{ "type": "Feature", "properties": { "LAYER": "1038_AUXILIAR", "GM_TYPE": "Unknown Line Type", "MAP_NAME": "red_del oeste_2026.DWG", "ELEVATION": 0.0, "LINE_STYLE": "Solid", "LINE_COLOR": "RGB(255,255,0)", "LINE_WIDTH": 1 }, "geometry": { "type": "MultiLineString", "coordinates": [ [ [ -68.866848818621477, -32.918483851780977 ], [ -68.866816611935207, -32.918526740509073 ] ] ] } },
{ "type": "Feature", "properties": { "LAYER": "1038_AUXILIAR", "GM_TYPE": "Unknown Line Type", "MAP_NAME": "red_del oeste_2026.DWG", "ELEVATION": 0.0, "LINE_STYLE": "Solid", "LINE_COLOR": "RGB(255,255,0)", "LINE_WIDTH": 1 }, "geometry": { "type": "MultiLineString", "coordinates": [ [ [ -68.866981732023973, -32.918298688239588 ], [ -68.86759255246406, -32.917488261884543 ], [ -68.867479200793142, -32.917425202538631 ] ] ] } },
{ "type": "Feature", "properties": { "LAYER": "1038_AUXILIAR", "GM_TYPE": "Unknown Line Type", "MAP_NAME": "red_del oeste_2026.DWG", "ELEVATION": 0.0, "LINE_STYLE": "Solid", "LINE_COLOR": "RGB(255,255,0)", "LINE_WIDTH": 1 }, "geometry": { "type": "MultiLineString", "coordinates": [ [ [ -68.867479200793142, -32.917425202538631 ], [ -68.867615193206134, -32.91723289042806 ] ] ] } },
{ "type": "Feature", "properties": { "LAYER": "1038_AUXILIAR", "GM_TYPE": "Unknown Line Type", "MAP_NAME": "red_del oeste_2026.DWG", "ELEVATION": 0.0, "LINE_STYLE": "Solid", "LINE_COLOR": "RGB(255,255,0)", "LINE_WIDTH": 1 }, "geometry": { "type": "MultiLineString", "coordinates": [ [ [ -68.866883377722175, -32.916896325136065 ], [ -68.867079655479515, -32.916614971853498 ] ] ] } },
{ "type": "Feature", "properties": { "LAYER": "1037_1054", "GM_TYPE": "Unknown Line Type", "MAP_NAME": "red_del oeste_2026.DWG", "ELEVATION": 0.0, "LINE_STYLE": "Solid", "LINE_COLOR": "RGB(255,0,255)", "LINE_WIDTH": 1 }, "geometry": { "type": "MultiLineString", "coordinates": [ [ [ -68.868795137771713, -32.91590610464754 ], [ -68.86893436160247, -32.915616410882429 ], [ -68.868948611265765, -32.915567918861683 ] ] ] } },
{ "type": "Feature", "properties": { "LAYER": "1038_AUXILIAR", "GM_TYPE": "Unknown Line Type", "MAP_NAME": "red_del oeste_2026.DWG", "ELEVATION": 0.0, "LINE_STYLE": "Solid", "LINE_COLOR": "RGB(255,255,0)", "LINE_WIDTH": 1 }, "geometry": { "type": "MultiLineString", "coordinates": [ [ [ -68.868795137771713, -32.91590610464754 ], [ -68.868806570587282, -32.91582452166891 ], [ -68.868766734884659, -32.915777138730348 ], [ -68.868630503047356, -32.915746643775968 ] ] ] } },
{ "type": "Feature", "properties": { "LAYER": "1037_1054", "GM_TYPE": "Unknown Line Type", "MAP_NAME": "red_del oeste_2026.DWG", "ELEVATION": 0.0, "LINE_STYLE": "Solid", "LINE_COLOR": "RGB(255,0,255)", "LINE_WIDTH": 1 }, "geometry": { "type": "MultiLineString", "coordinates": [ [ [ -68.868948611265765, -32.915567918861683 ], [ -68.86908352133409, -32.915108813218744 ], [ -68.869450626730028, -32.913897717651153 ], [ -68.869711662623445, -32.913049113382925 ] ] ] } },
{ "type": "Feature", "properties": { "LAYER": "1037_1054", "GM_TYPE": "Unknown Line Type", "MAP_NAME": "red_del oeste_2026.DWG", "ELEVATION": 0.0, "LINE_STYLE": "Solid", "LINE_COLOR": "RGB(255,0,255)", "LINE_WIDTH": 1 }, "geometry": { "type": "MultiLineString", "coordinates": [ [ [ -68.869711662623445, -32.913049113382925 ], [ -68.86998429632429, -32.912162787584187 ], [ -68.87006521496474, -32.911951251243075 ], [ -68.870188895350267, -32.911734099019966 ], [ -68.870408580541692, -32.911401493607585 ], [ -68.870790995486743, -32.910847725879577 ], [ -68.871328819270161, -32.91005596435847 ] ] ] } },
{ "type": "Feature", "properties": { "LAYER": "1038_AUXILIAR", "GM_TYPE": "Unknown Line Type", "MAP_NAME": "red_del oeste_2026.DWG", "ELEVATION": 0.0, "LINE_STYLE": "Solid", "LINE_COLOR": "RGB(255,255,0)", "LINE_WIDTH": 1 }, "geometry": { "type": "MultiLineString", "coordinates": [ [ [ -68.868948611265765, -32.915567918861683 ], [ -68.868804198262353, -32.91553637783386 ] ] ] } },
{ "type": "Feature", "properties": { "LAYER": "1038_AUXILIAR", "GM_TYPE": "Unknown Line Type", "MAP_NAME": "red_del oeste_2026.DWG", "ELEVATION": 0.0, "LINE_STYLE": "Solid", "LINE_COLOR": "RGB(255,255,0)", "LINE_WIDTH": 1 }, "geometry": { "type": "MultiLineString", "coordinates": [ [ [ -68.869711662623445, -32.913049113382925 ], [ -68.869538901496128, -32.913020037327072 ] ] ] } },
{ "type": "Feature", "properties": { "LAYER": "1038_AUXILIAR", "GM_TYPE": "Unknown Line Type", "MAP_NAME": "red_del oeste_2026.DWG", "ELEVATION": 0.0, "LINE_STYLE": "Solid", "LINE_COLOR": "RGB(255,255,0)", "LINE_WIDTH": 1 }, "geometry": { "type": "MultiLineString", "coordinates": [ [ [ -68.869538901496128, -32.913020037327072 ], [ -68.86957044180761, -32.912933036846837 ] ] ] } },
{ "type": "Feature", "properties": { "LAYER": "1038_AUXILIAR", "GM_TYPE": "Unknown Line Type", "MAP_NAME": "red_del oeste_2026.DWG", "ELEVATION": 0.0, "LINE_STYLE": "Solid", "LINE_COLOR": "RGB(255,255,0)", "LINE_WIDTH": 1 }, "geometry": { "type": "MultiLineString", "coordinates": [ [ [ -68.869538901496128, -32.913020037327072 ], [ -68.86919822856936, -32.912934381597807 ], [ -68.869018530710136, -32.91322354532381 ], [ -68.868751620724098, -32.913498911577776 ], [ -68.868573784809499, -32.913611435809777 ], [ -68.868292180030551, -32.913773984382168 ], [ -68.86802540101796, -32.913886414087834 ], [ -68.867580983102172, -32.914048879227835 ], [ -68.867003388366811, -32.914123376714926 ], [ -68.866307332676371, -32.914135167722748 ], [ -68.865892925453053, -32.913959345448589 ], [ -68.865375084178396, -32.9136832328645 ], [ -68.865138666217135, -32.913369731461749 ], [ -68.864931975392253, -32.912981151063818 ], [ -68.864828967408684, -32.912530105262896 ], [ -68.864770449591461, -32.912066574006808 ], [ -68.865067776691532, -32.911265113636397 ], [ -68.865781376204794, -32.909730364961327 ], [ -68.866211316314434, -32.908675068760168 ], [ -68.866279461063797, -32.908497959734397 ], [ -68.865480869189255, -32.908271770884568 ] ] ] } },
{ "type": "Feature", "properties": { "LAYER": "1037_1054", "GM_TYPE": "Unknown Line Type", "MAP_NAME": "red_del oeste_2026.DWG", "ELEVATION": 0.0, "LINE_STYLE": "Solid", "LINE_COLOR": "RGB(255,0,255)", "LINE_WIDTH": 1 }, "geometry": { "type": "MultiLineString", "coordinates": [ [ [ -68.871328819270161, -32.91005596435847 ], [ -68.871381783699007, -32.909977991461581 ], [ -68.871798854528521, -32.909334279421728 ], [ -68.872350251213106, -32.90856662602522 ], [ -68.872443704866896, -32.908484738732085 ], [ -68.872573547010518, -32.908420479108493 ], [ -68.87280527893931, -32.908326849424768 ], [ -68.873373130974315, -32.908165370746353 ], [ -68.873694539879921, -32.908055143969428 ], [ -68.873819884791246, -32.907964468128903 ], [ -68.873846527463101, -32.907911800004094 ] ] ] } },
{ "type": "Feature", "properties": { "LAYER": "1038_AUXILIAR", "GM_TYPE": "Unknown Line Type", "MAP_NAME": "red_del oeste_2026.DWG", "ELEVATION": 0.0, "LINE_STYLE": "Solid", "LINE_COLOR": "RGB(255,255,0)", "LINE_WIDTH": 1 }, "geometry": { "type": "MultiLineString", "coordinates": [ [ [ -68.871328819270161, -32.91005596435847 ], [ -68.871228278809028, -32.910047027188455 ], [ -68.87075377390525, -32.907504005385789 ] ] ] } },
{ "type": "Feature", "properties": { "LAYER": "1038", "GM_TYPE": "Unknown Line Type", "MAP_NAME": "red_del oeste_2026.DWG", "ELEVATION": 0.0, "LINE_STYLE": "Solid", "LINE_COLOR": "RGB(0,0,255)", "LINE_WIDTH": 1 }, "geometry": { "type": "MultiLineString", "coordinates": [ [ [ -68.873384668732086, -32.906378253569116 ], [ -68.873088675250671, -32.905753551726235 ], [ -68.872653588467273, -32.904938161021619 ], [ -68.872598977998493, -32.904703221256142 ], [ -68.872560176957748, -32.90453231414596 ], [ -68.872587816418488, -32.904365355382339 ], [ -68.872575094708978, -32.904238785771582 ] ] ] } },
{ "type": "Feature", "properties": { "LAYER": "1038_AUXILIAR", "GM_TYPE": "Unknown Line Type", "MAP_NAME": "red_del oeste_2026.DWG", "ELEVATION": 0.0, "LINE_STYLE": "Solid", "LINE_COLOR": "RGB(255,255,0)", "LINE_WIDTH": 1 }, "geometry": { "type": "MultiLineString", "coordinates": [ [ [ -68.873384668732086, -32.906378253569116 ], [ -68.871498016380713, -32.906388648417746 ], [ -68.871199047716956, -32.906344596505214 ], [ -68.870987005257106, -32.906275860268764 ], [ -68.870790856148631, -32.906113281861479 ], [ -68.870801594309299, -32.905977939762607 ] ] ] } },
{ "type": "Feature", "properties": { "LAYER": "1038", "GM_TYPE": "Unknown Line Type", "MAP_NAME": "red_del oeste_2026.DWG", "ELEVATION": 0.0, "LINE_STYLE": "Solid", "LINE_COLOR": "RGB(0,0,255)", "LINE_WIDTH": 1 }, "geometry": { "type": "MultiLineString", "coordinates": [ [ [ -68.872575094708978, -32.904238785771582 ], [ -68.872562769958506, -32.904116165206361 ], [ -68.872505731472287, -32.902919213749662 ], [ -68.872459100750618, -32.902038684807124 ] ] ] } },
{ "type": "Feature", "properties": { "LAYER": "1038_AUXILIAR", "GM_TYPE": "Unknown Line Type", "MAP_NAME": "red_del oeste_2026.DWG", "ELEVATION": 0.0, "LINE_STYLE": "Solid", "LINE_COLOR": "RGB(255,255,0)", "LINE_WIDTH": 1 }, "geometry": { "type": "MultiLineString", "coordinates": [ [ [ -68.872575099400393, -32.904238832447 ], [ -68.872517757880601, -32.904241919089031 ], [ -68.87247237622924, -32.904209411971117 ] ] ] } },
{ "type": "Feature", "properties": { "LAYER": "1038_AUXILIAR", "GM_TYPE": "Unknown Line Type", "MAP_NAME": "red_del oeste_2026.DWG", "ELEVATION": 0.0, "LINE_STYLE": "Solid", "LINE_COLOR": "RGB(255,255,0)", "LINE_WIDTH": 1 }, "geometry": { "type": "MultiLineString", "coordinates": [ [ [ -68.87247237622924, -32.904209411971117 ], [ -68.872379395274166, -32.904213540047351 ] ] ] } },
{ "type": "Feature", "properties": { "LAYER": "1038_AUXILIAR", "GM_TYPE": "Unknown Line Type", "MAP_NAME": "red_del oeste_2026.DWG", "ELEVATION": 0.0, "LINE_STYLE": "Solid", "LINE_COLOR": "RGB(255,255,0)", "LINE_WIDTH": 1 }, "geometry": { "type": "MultiLineString", "coordinates": [ [ [ -68.87247237622924, -32.904209411971117 ], [ -68.872422839551149, -32.903125959747264 ] ] ] } },
{ "type": "Feature", "properties": { "LAYER": "1038_AUXILIAR", "GM_TYPE": "Unknown Line Type", "MAP_NAME": "red_del oeste_2026.DWG", "ELEVATION": 0.0, "LINE_STYLE": "Solid", "LINE_COLOR": "RGB(255,255,0)", "LINE_WIDTH": 1 }, "geometry": { "type": "MultiLineString", "coordinates": [ [ [ -68.872422839551149, -32.903125959747264 ], [ -68.872365443403694, -32.903125901169453 ] ] ] } },
{ "type": "Feature", "properties": { "LAYER": "1038_AUXILIAR", "GM_TYPE": "Unknown Line Type", "MAP_NAME": "red_del oeste_2026.DWG", "ELEVATION": 0.0, "LINE_STYLE": "Solid", "LINE_COLOR": "RGB(255,255,0)", "LINE_WIDTH": 1 }, "geometry": { "type": "MultiLineString", "coordinates": [ [ [ -68.872422839551149, -32.903125959747264 ], [ -68.872376449237677, -32.902259687285145 ] ] ] } },
{ "type": "Feature", "properties": { "LAYER": "1038_AUXILIAR", "GM_TYPE": "Unknown Line Type", "MAP_NAME": "red_del oeste_2026.DWG", "ELEVATION": 0.0, "LINE_STYLE": "Solid", "LINE_COLOR": "RGB(255,255,0)", "LINE_WIDTH": 1 }, "geometry": { "type": "MultiLineString", "coordinates": [ [ [ -68.872379395274166, -32.904213540047351 ], [ -68.872296546102135, -32.904348613123339 ], [ -68.869330601729956, -32.90481096072012 ], [ -68.869251736422058, -32.904508439255473 ], [ -68.869090835731043, -32.90440025690625 ] ] ] } },
{ "type": "Feature", "properties": { "LAYER": "1038_AUXILIAR", "GM_TYPE": "Unknown Line Type", "MAP_NAME": "red_del oeste_2026.DWG", "ELEVATION": 0.0, "LINE_STYLE": "Solid", "LINE_COLOR": "RGB(255,255,0)", "LINE_WIDTH": 1 }, "geometry": { "type": "MultiLineString", "coordinates": [ [ [ -68.872379395274166, -32.904213540047351 ], [ -68.872323976227918, -32.904214986895298 ] ] ] } },
{ "type": "Feature", "properties": { "LAYER": "1038", "GM_TYPE": "Unknown Line Type", "MAP_NAME": "red_del oeste_2026.DWG", "ELEVATION": 0.0, "LINE_STYLE": "Solid", "LINE_COLOR": "RGB(0,0,255)", "LINE_WIDTH": 1 }, "geometry": { "type": "MultiLineString", "coordinates": [ [ [ -68.872459100750618, -32.902038684807124 ], [ -68.872458266082134, -32.902022923589001 ], [ -68.872450997403462, -32.901831501450083 ] ] ] } },
{ "type": "Feature", "properties": { "LAYER": "1038_AUXILIAR", "GM_TYPE": "Unknown Line Type", "MAP_NAME": "red_del oeste_2026.DWG", "ELEVATION": 0.0, "LINE_STYLE": "Solid", "LINE_COLOR": "RGB(255,255,0)", "LINE_WIDTH": 1 }, "geometry": { "type": "MultiLineString", "coordinates": [ [ [ -68.872459100750618, -32.902038684807124 ], [ -68.872447055468371, -32.902038657404283 ], [ -68.872415973793707, -32.902022936282094 ], [ -68.872383395839321, -32.902007123455974 ], [ -68.872022257524733, -32.902057880173516 ] ] ] } },
{ "type": "Feature", "properties": { "LAYER": "1038", "GM_TYPE": "Unknown Line Type", "MAP_NAME": "red_del oeste_2026.DWG", "ELEVATION": 0.0, "LINE_STYLE": "Solid", "LINE_COLOR": "RGB(0,0,255)", "LINE_WIDTH": 1 }, "geometry": { "type": "MultiLineString", "coordinates": [ [ [ -68.872450997403462, -32.901831501450083 ], [ -68.872414960289774, -32.900882444986955 ], [ -68.872381365686948, -32.900566668459483 ], [ -68.872326175502067, -32.899720904818118 ], [ -68.872379801188103, -32.899130320665734 ] ] ] } },
{ "type": "Feature", "properties": { "LAYER": "1038", "GM_TYPE": "Unknown Line Type", "MAP_NAME": "red_del oeste_2026.DWG", "ELEVATION": 0.0, "LINE_STYLE": "Solid", "LINE_COLOR": "RGB(0,0,255)", "LINE_WIDTH": 1 }, "geometry": { "type": "MultiLineString", "coordinates": [ [ [ -68.872379801188103, -32.899130320665734 ], [ -68.872442218164778, -32.898624662973432 ], [ -68.872517137526359, -32.898094193448387 ] ] ] } },
{ "type": "Feature", "properties": { "LAYER": "1038_AUXILIAR", "GM_TYPE": "Unknown Line Type", "MAP_NAME": "red_del oeste_2026.DWG", "ELEVATION": 0.0, "LINE_STYLE": "Solid", "LINE_COLOR": "RGB(255,255,0)", "LINE_WIDTH": 1 }, "geometry": { "type": "MultiLineString", "coordinates": [ [ [ -68.872379801188103, -32.899130320665734 ], [ -68.872130680065354, -32.899130021850311 ], [ -68.871922357394368, -32.899134226923721 ], [ -68.87171724710258, -32.899208496309775 ], [ -68.871501000495471, -32.899296639949803 ], [ -68.871278332334796, -32.89939036708531 ], [ -68.871016386551958, -32.899445280615659 ], [ -68.87077417115735, -32.899456121318671 ], [ -68.870417732722885, -32.899442046739701 ], [ -68.870305778812394, -32.899400362731107 ], [ -68.870057197333679, -32.89959865691452 ], [ -68.86980807161811, -32.899802901186618 ], [ -68.869395338198245, -32.900056657315794 ], [ -68.869028422505295, -32.900260686756326 ], [ -68.868602561444376, -32.900426060830746 ], [ -68.868386448234418, -32.90049219795241 ], [ -68.868059099903761, -32.900536035787667 ], [ -68.86763568701933, -32.900562458652175 ], [ -68.867138160297657, -32.900545339875563 ], [ -68.866771634475285, -32.900484175942253 ], [ -68.866359412120758, -32.900389779895534 ], [ -68.865790121014754, -32.900190257232957 ], [ -68.864956584315578, -32.899798386798416 ], [ -68.864766943319736, -32.899605580753409 ] ] ] } },
{ "type": "Feature", "properties": { "LAYER": "1038_AUXILIAR", "GM_TYPE": "Unknown Line Type", "MAP_NAME": "red_del oeste_2026.DWG", "ELEVATION": 0.0, "LINE_STYLE": "Solid", "LINE_COLOR": "RGB(255,255,0)", "LINE_WIDTH": 1 }, "geometry": { "type": "MultiLineString", "coordinates": [ [ [ -68.864766943319736, -32.899605580753409 ], [ -68.864677967511909, -32.899637133827738 ] ] ] } },
{ "type": "Feature", "properties": { "LAYER": "1038_AUXILIAR", "GM_TYPE": "Unknown Line Type", "MAP_NAME": "red_del oeste_2026.DWG", "ELEVATION": 0.0, "LINE_STYLE": "Solid", "LINE_COLOR": "RGB(255,255,0)", "LINE_WIDTH": 1 }, "geometry": { "type": "MultiLineString", "coordinates": [ [ [ -68.864089512717953, -32.898632092189885 ], [ -68.864165249213741, -32.898792685717424 ], [ -68.864401802592283, -32.899168957196956 ], [ -68.864490052731668, -32.899294017417816 ], [ -68.864766943319736, -32.899605580753409 ] ] ] } },
{ "type": "Feature", "properties": { "LAYER": "1038_AUXILIAR", "GM_TYPE": "Unknown Line Type", "MAP_NAME": "red_del oeste_2026.DWG", "ELEVATION": 0.0, "LINE_STYLE": "Solid", "LINE_COLOR": "RGB(255,255,0)", "LINE_WIDTH": 1 }, "geometry": { "type": "MultiLineString", "coordinates": [ [ [ -68.864089512717953, -32.898632092189885 ], [ -68.863426169996615, -32.898632397073854 ] ] ] } },
{ "type": "Feature", "properties": { "LAYER": "1038_AUXILIAR", "GM_TYPE": "Unknown Line Type", "MAP_NAME": "red_del oeste_2026.DWG", "ELEVATION": 0.0, "LINE_STYLE": "Solid", "LINE_COLOR": "RGB(255,255,0)", "LINE_WIDTH": 1 }, "geometry": { "type": "MultiLineString", "coordinates": [ [ [ -68.864089512717953, -32.898632092189885 ], [ -68.864073945826803, -32.898599083693604 ], [ -68.863741733733718, -32.897634273758449 ], [ -68.863703217898106, -32.897170762715291 ], [ -68.863703988862341, -32.89659755867207 ], [ -68.863770489193357, -32.895885926463947 ], [ -68.863935029612591, -32.89494293674062 ], [ -68.864027859699604, -32.893994638890227 ], [ -68.864028585692296, -32.893869214420185 ] ] ] } },
{ "type": "Feature", "properties": { "LAYER": "1038_AUXILIAR", "GM_TYPE": "Unknown Line Type", "MAP_NAME": "red_del oeste_2026.DWG", "ELEVATION": 0.0, "LINE_STYLE": "Solid", "LINE_COLOR": "RGB(255,255,0)", "LINE_WIDTH": 1 }, "geometry": { "type": "MultiLineString", "coordinates": [ [ [ -68.864028585692296, -32.893869214420185 ], [ -68.863871425257116, -32.893902225674701 ] ] ] } },
{ "type": "Feature", "properties": { "LAYER": "1038_AUXILIAR", "GM_TYPE": "Unknown Line Type", "MAP_NAME": "red_del oeste_2026.DWG", "ELEVATION": 0.0, "LINE_STYLE": "Solid", "LINE_COLOR": "RGB(255,255,0)", "LINE_WIDTH": 1 }, "geometry": { "type": "MultiLineString", "coordinates": [ [ [ -68.864028585692296, -32.893869214420185 ], [ -68.864035710010668, -32.893543260750796 ], [ -68.864060348958247, -32.893295863425351 ] ] ] } },
{ "type": "Feature", "properties": { "LAYER": "1038_AUXILIAR", "GM_TYPE": "Unknown Line Type", "MAP_NAME": "red_del oeste_2026.DWG", "ELEVATION": 0.0, "LINE_STYLE": "Solid", "LINE_COLOR": "RGB(255,255,0)", "LINE_WIDTH": 1 }, "geometry": { "type": "MultiLineString", "coordinates": [ [ [ -68.864060348958247, -32.893295863425351 ], [ -68.864025846671623, -32.893283472741977 ], [ -68.864034830185503, -32.893039100178541 ], [ -68.864042672712316, -32.892848982370467 ], [ -68.864035410656527, -32.892554540158564 ], [ -68.864009860089922, -32.892554512375796 ] ] ] } },
{ "type": "Feature", "properties": { "LAYER": "1038_AUXILIAR", "GM_TYPE": "Unknown Line Type", "MAP_NAME": "red_del oeste_2026.DWG", "ELEVATION": 0.0, "LINE_STYLE": "Solid", "LINE_COLOR": "RGB(255,255,0)", "LINE_WIDTH": 1 }, "geometry": { "type": "MultiLineString", "coordinates": [ [ [ -68.864009860089922, -32.892554512375796 ], [ -68.863959709029828, -32.89255440825935 ] ] ] } },
{ "type": "Feature", "properties": { "LAYER": "1038_AUXILIAR", "GM_TYPE": "Unknown Line Type", "MAP_NAME": "red_del oeste_2026.DWG", "ELEVATION": 0.0, "LINE_STYLE": "Solid", "LINE_COLOR": "RGB(255,255,0)", "LINE_WIDTH": 1 }, "geometry": { "type": "MultiLineString", "coordinates": [ [ [ -68.864009860089922, -32.892554512375796 ], [ -68.864009994930882, -32.89246625254394 ], [ -68.864001532005958, -32.892391729808082 ] ] ] } },
{ "type": "Feature", "properties": { "LAYER": "1038_AUXILIAR", "GM_TYPE": "Unknown Line Type", "MAP_NAME": "red_del oeste_2026.DWG", "ELEVATION": 0.0, "LINE_STYLE": "Solid", "LINE_COLOR": "RGB(255,255,0)", "LINE_WIDTH": 1 }, "geometry": { "type": "MultiLineString", "coordinates": [ [ [ -68.864060348958247, -32.893295863425351 ], [ -68.864078572918075, -32.892560012848328 ], [ -68.864011912784733, -32.891980423225903 ], [ -68.863961184833926, -32.891536104595851 ] ] ] } },
{ "type": "Feature", "properties": { "LAYER": "1038_AUXILIAR", "GM_TYPE": "Unknown Line Type", "MAP_NAME": "red_del oeste_2026.DWG", "ELEVATION": 0.0, "LINE_STYLE": "Solid", "LINE_COLOR": "RGB(255,255,0)", "LINE_WIDTH": 1 }, "geometry": { "type": "MultiLineString", "coordinates": [ [ [ -68.863961184833926, -32.891536104595851 ], [ -68.863810243982684, -32.891568258645975 ] ] ] } },
{ "type": "Feature", "properties": { "LAYER": "1038_AUXILIAR", "GM_TYPE": "Unknown Line Type", "MAP_NAME": "red_del oeste_2026.DWG", "ELEVATION": 0.0, "LINE_STYLE": "Solid", "LINE_COLOR": "RGB(255,255,0)", "LINE_WIDTH": 1 }, "geometry": { "type": "MultiLineString", "coordinates": [ [ [ -68.863961184833926, -32.891536104595851 ], [ -68.863928788267671, -32.891265291343657 ], [ -68.863838015925737, -32.890729858169195 ], [ -68.86362281941652, -32.889637398651111 ], [ -68.863338894683025, -32.888306828203618 ], [ -68.863247136647956, -32.887999882072386 ], [ -68.863142709544221, -32.887800854549873 ], [ -68.863077509068674, -32.887668144263515 ], [ -68.863025270315518, -32.887585221547212 ], [ -68.862875939998091, -32.886773985721042 ], [ -68.862594946843046, -32.886519400078654 ], [ -68.861889433289292, -32.886635572451532 ], [ -68.861476752083036, -32.886811937897868 ], [ -68.861286890381891, -32.886303172990822 ], [ -68.861141155817634, -32.885527645964366 ], [ -68.860810961625845, -32.884143541516913 ], [ -68.860656516589785, -32.883271072002223 ], [ -68.860137681284044, -32.880689937795985 ], [ -68.859359744225287, -32.876755067252446 ], [ -68.858876606203779, -32.873676500736465 ], [ -68.858519921775027, -32.871460499501225 ], [ -68.858249542836106, -32.871506512049379 ] ] ] } },
{ "type": "Feature", "properties": { "LAYER": "1038_AUXILIAR", "GM_TYPE": "Unknown Line Type", "MAP_NAME": "red_del oeste_2026.DWG", "ELEVATION": 0.0, "LINE_STYLE": "Solid", "LINE_COLOR": "RGB(255,255,0)", "LINE_WIDTH": 1 }, "geometry": { "type": "MultiLineString", "coordinates": [ [ [ -68.858249542836106, -32.871506512049379 ], [ -68.858076625909362, -32.871535938375132 ] ] ] } },
{ "type": "Feature", "properties": { "LAYER": "1038_AUXILIAR", "GM_TYPE": "Unknown Line Type", "MAP_NAME": "red_del oeste_2026.DWG", "ELEVATION": 0.0, "LINE_STYLE": "Solid", "LINE_COLOR": "RGB(255,255,0)", "LINE_WIDTH": 1 }, "geometry": { "type": "MultiLineString", "coordinates": [ [ [ -68.858249608960421, -32.871506788759547 ], [ -68.858220083915299, -32.871312989361151 ], [ -68.858192829234497, -32.871317515508956 ] ] ] } },
{ "type": "Feature", "properties": { "LAYER": "1038", "GM_TYPE": "Unknown Line Type", "MAP_NAME": "red_del oeste_2026.DWG", "ELEVATION": 0.0, "LINE_STYLE": "Solid", "LINE_COLOR": "RGB(0,0,255)", "LINE_WIDTH": 1 }, "geometry": { "type": "MultiLineString", "coordinates": [ [ [ -68.872517137526359, -32.898094193448387 ], [ -68.872528485416581, -32.898013843693434 ], [ -68.872648315352222, -32.896928343883324 ], [ -68.872697519166366, -32.896545272190721 ] ] ] } },
{ "type": "Feature", "properties": { "LAYER": "1038_AUXILIAR", "GM_TYPE": "Unknown Line Type", "MAP_NAME": "red_del oeste_2026.DWG", "ELEVATION": 0.0, "LINE_STYLE": "Solid", "LINE_COLOR": "RGB(255,255,0)", "LINE_WIDTH": 1 }, "geometry": { "type": "MultiLineString", "coordinates": [ [ [ -68.872517137526359, -32.898094193448387 ], [ -68.872298691830764, -32.89809397054691 ] ] ] } },
{ "type": "Feature", "properties": { "LAYER": "1038", "GM_TYPE": "Unknown Line Type", "MAP_NAME": "red_del oeste_2026.DWG", "ELEVATION": 0.0, "LINE_STYLE": "Solid", "LINE_COLOR": "RGB(0,0,255)", "LINE_WIDTH": 1 }, "geometry": { "type": "MultiLineString", "coordinates": [ [ [ -68.872697519166366, -32.896545272190721 ], [ -68.872719043423984, -32.896377696032118 ], [ -68.872761833298171, -32.896122191264837 ], [ -68.872802828771185, -32.895970796356124 ], [ -68.872885744500948, -32.895796490242326 ], [ -68.873192807022448, -32.89519045391404 ] ] ] } },
{ "type": "Feature", "properties": { "LAYER": "1038_AUXILIAR", "GM_TYPE": "Unknown Line Type", "MAP_NAME": "red_del oeste_2026.DWG", "ELEVATION": 0.0, "LINE_STYLE": "Solid", "LINE_COLOR": "RGB(255,255,0)", "LINE_WIDTH": 1 }, "geometry": { "type": "MultiLineString", "coordinates": [ [ [ -68.872697519166366, -32.896545272190721 ], [ -68.8724676496538, -32.896544136268126 ] ] ] } },
{ "type": "Feature", "properties": { "LAYER": "1038_AUXILIAR", "GM_TYPE": "Unknown Line Type", "MAP_NAME": "red_del oeste_2026.DWG", "ELEVATION": 0.0, "LINE_STYLE": "Solid", "LINE_COLOR": "RGB(255,255,0)", "LINE_WIDTH": 1 }, "geometry": { "type": "MultiLineString", "coordinates": [ [ [ -68.8724676496538, -32.896544136268126 ], [ -68.87093016354271, -32.896475022083088 ] ] ] } },
{ "type": "Feature", "properties": { "LAYER": "1038_AUXILIAR", "GM_TYPE": "Unknown Line Type", "MAP_NAME": "red_del oeste_2026.DWG", "ELEVATION": 0.0, "LINE_STYLE": "Solid", "LINE_COLOR": "RGB(255,255,0)", "LINE_WIDTH": 1 }, "geometry": { "type": "MultiLineString", "coordinates": [ [ [ -68.87093016354271, -32.896475022083088 ], [ -68.867241538296085, -32.89651994179934 ] ] ] } },
{ "type": "Feature", "properties": { "LAYER": "1038_AUXILIAR", "GM_TYPE": "Unknown Line Type", "MAP_NAME": "red_del oeste_2026.DWG", "ELEVATION": 0.0, "LINE_STYLE": "Solid", "LINE_COLOR": "RGB(255,255,0)", "LINE_WIDTH": 1 }, "geometry": { "type": "MultiLineString", "coordinates": [ [ [ -68.87093016354271, -32.896475022083088 ], [ -68.87095072840242, -32.89637808063523 ] ] ] } },
{ "type": "Feature", "properties": { "LAYER": "1038_AUXILIAR", "GM_TYPE": "Unknown Line Type", "MAP_NAME": "red_del oeste_2026.DWG", "ELEVATION": 0.0, "LINE_STYLE": "Solid", "LINE_COLOR": "RGB(255,255,0)", "LINE_WIDTH": 1 }, "geometry": { "type": "MultiLineString", "coordinates": [ [ [ -68.87093016354271, -32.896475022083088 ], [ -68.87088040622406, -32.896678555914548 ], [ -68.870818454286905, -32.896677813606964 ] ] ] } },
{ "type": "Feature", "properties": { "LAYER": "1038_AUXILIAR", "GM_TYPE": "Unknown Line Type", "MAP_NAME": "red_del oeste_2026.DWG", "ELEVATION": 0.0, "LINE_STYLE": "Solid", "LINE_COLOR": "RGB(255,255,0)", "LINE_WIDTH": 1 }, "geometry": { "type": "MultiLineString", "coordinates": [ [ [ -68.867241538296085, -32.89651994179934 ], [ -68.867239991206361, -32.896429412987857 ] ] ] } },
{ "type": "Feature", "properties": { "LAYER": "1038_AUXILIAR", "GM_TYPE": "Unknown Line Type", "MAP_NAME": "red_del oeste_2026.DWG", "ELEVATION": 0.0, "LINE_STYLE": "Solid", "LINE_COLOR": "RGB(255,255,0)", "LINE_WIDTH": 1 }, "geometry": { "type": "MultiLineString", "coordinates": [ [ [ -68.867241538296085, -32.89651994179934 ], [ -68.867242270500313, -32.89653831383346 ], [ -68.867252725107051, -32.896600181042643 ] ] ] } },
{ "type": "Feature", "properties": { "LAYER": "1038_AUXILIAR", "GM_TYPE": "Unknown Line Type", "MAP_NAME": "red_del oeste_2026.DWG", "ELEVATION": 0.0, "LINE_STYLE": "Solid", "LINE_COLOR": "RGB(255,255,0)", "LINE_WIDTH": 1 }, "geometry": { "type": "MultiLineString", "coordinates": [ [ [ -68.867241538296085, -32.89651994179934 ], [ -68.865430947247063, -32.896791777905662 ] ] ] } },
{ "type": "Feature", "properties": { "LAYER": "1038_AUXILIAR", "GM_TYPE": "Unknown Line Type", "MAP_NAME": "red_del oeste_2026.DWG", "ELEVATION": 0.0, "LINE_STYLE": "Solid", "LINE_COLOR": "RGB(255,255,0)", "LINE_WIDTH": 1 }, "geometry": { "type": "MultiLineString", "coordinates": [ [ [ -68.865430947247063, -32.896791777905662 ], [ -68.86542297992689, -32.896682264543891 ] ] ] } },
{ "type": "Feature", "properties": { "LAYER": "1038_AUXILIAR", "GM_TYPE": "Unknown Line Type", "MAP_NAME": "red_del oeste_2026.DWG", "ELEVATION": 0.0, "LINE_STYLE": "Solid", "LINE_COLOR": "RGB(255,255,0)", "LINE_WIDTH": 1 }, "geometry": { "type": "MultiLineString", "coordinates": [ [ [ -68.865430947247063, -32.896791777905662 ], [ -68.865443166709824, -32.896901389075573 ], [ -68.865437125530676, -32.896948006084308 ] ] ] } },
{ "type": "Feature", "properties": { "LAYER": "1038_AUXILIAR", "GM_TYPE": "Unknown Line Type", "MAP_NAME": "red_del oeste_2026.DWG", "ELEVATION": 0.0, "LINE_STYLE": "Solid", "LINE_COLOR": "RGB(255,255,0)", "LINE_WIDTH": 1 }, "geometry": { "type": "MultiLineString", "coordinates": [ [ [ -68.865430947247063, -32.896791777905662 ], [ -68.865135622796103, -32.89683611428768 ] ] ] } },
{ "type": "Feature", "properties": { "LAYER": "1038", "GM_TYPE": "Unknown Line Type", "MAP_NAME": "red_del oeste_2026.DWG", "ELEVATION": 0.0, "LINE_STYLE": "Solid", "LINE_COLOR": "RGB(0,0,255)", "LINE_WIDTH": 1 }, "geometry": { "type": "MultiLineString", "coordinates": [ [ [ -68.873192807022448, -32.89519045391404 ], [ -68.873257040476815, -32.895063677907594 ], [ -68.873525429496894, -32.894501320707505 ] ] ] } },
{ "type": "Feature", "properties": { "LAYER": "1038_AUXILIAR", "GM_TYPE": "Unknown Line Type", "MAP_NAME": "red_del oeste_2026.DWG", "ELEVATION": 0.0, "LINE_STYLE": "Solid", "LINE_COLOR": "RGB(255,255,0)", "LINE_WIDTH": 1 }, "geometry": { "type": "MultiLineString", "coordinates": [ [ [ -68.873192807022448, -32.89519045391404 ], [ -68.872980201607916, -32.895113783006877 ] ] ] } },
{ "type": "Feature", "properties": { "LAYER": "1038", "GM_TYPE": "Unknown Line Type", "MAP_NAME": "red_del oeste_2026.DWG", "ELEVATION": 0.0, "LINE_STYLE": "Solid", "LINE_COLOR": "RGB(0,0,255)", "LINE_WIDTH": 1 }, "geometry": { "type": "MultiLineString", "coordinates": [ [ [ -68.873525429496894, -32.894501320707505 ], [ -68.873708175732347, -32.894118406929941 ] ] ] } },
{ "type": "Feature", "properties": { "LAYER": "1038_AUXILIAR", "GM_TYPE": "Unknown Line Type", "MAP_NAME": "red_del oeste_2026.DWG", "ELEVATION": 0.0, "LINE_STYLE": "Solid", "LINE_COLOR": "RGB(255,255,0)", "LINE_WIDTH": 1 }, "geometry": { "type": "MultiLineString", "coordinates": [ [ [ -68.873525429496894, -32.894501320707505 ], [ -68.8732735024373, -32.894392077379443 ] ] ] } },
{ "type": "Feature", "properties": { "LAYER": "1038", "GM_TYPE": "Unknown Line Type", "MAP_NAME": "red_del oeste_2026.DWG", "ELEVATION": 0.0, "LINE_STYLE": "Solid", "LINE_COLOR": "RGB(0,0,255)", "LINE_WIDTH": 1 }, "geometry": { "type": "MultiLineString", "coordinates": [ [ [ -68.873708175732347, -32.894118406929941 ], [ -68.874077577900792, -32.89342365336789 ], [ -68.874316277788594, -32.892953317595357 ], [ -68.87437937205128, -32.892721776960578 ] ] ] } },
{ "type": "Feature", "properties": { "LAYER": "1038_AUXILIAR", "GM_TYPE": "Unknown Line Type", "MAP_NAME": "red_del oeste_2026.DWG", "ELEVATION": 0.0, "LINE_STYLE": "Solid", "LINE_COLOR": "RGB(255,255,0)", "LINE_WIDTH": 1 }, "geometry": { "type": "MultiLineString", "coordinates": [ [ [ -68.873708175732347, -32.894118406929941 ], [ -68.873416280078558, -32.89401937283499 ], [ -68.873213493506185, -32.893897078376298 ], [ -68.872952870828001, -32.893636225032004 ], [ -68.872750318574617, -32.893351084570092 ], [ -68.87259594759476, -32.893155530836296 ], [ -68.872380249586712, -32.892949833370004 ], [ -68.872459490280747, -32.89279880490357 ], [ -68.872403823523953, -32.892754713388051 ], [ -68.872207708177143, -32.892604110969934 ], [ -68.872036219879291, -32.892422244744658 ], [ -68.871840303868822, -32.892134133969506 ], [ -68.871604176855726, -32.892087184125032 ] ] ] } },
{ "type": "Feature", "properties": { "LAYER": "1038_AUXILIAR", "GM_TYPE": "Unknown Line Type", "MAP_NAME": "red_del oeste_2026.DWG", "ELEVATION": 0.0, "LINE_STYLE": "Solid", "LINE_COLOR": "RGB(255,255,0)", "LINE_WIDTH": 1 }, "geometry": { "type": "MultiLineString", "coordinates": [ [ [ -68.871604176855726, -32.892087184125032 ], [ -68.871548677394017, -32.892330944554359 ], [ -68.871345919189125, -32.892711069642793 ], [ -68.871210730545869, -32.892925983925494 ], [ -68.870967964236726, -32.893255392088307 ], [ -68.870753826396452, -32.893446419713328 ], [ -68.870400751106615, -32.893708175996395 ], [ -68.870032484663739, -32.893905264208492 ] ] ] } },
{ "type": "Feature", "properties": { "LAYER": "1038_AUXILIAR", "GM_TYPE": "Unknown Line Type", "MAP_NAME": "red_del oeste_2026.DWG", "ELEVATION": 0.0, "LINE_STYLE": "Solid", "LINE_COLOR": "RGB(255,255,0)", "LINE_WIDTH": 1 }, "geometry": { "type": "MultiLineString", "coordinates": [ [ [ -68.870032484663739, -32.893905264208492 ], [ -68.869599482163281, -32.894079471046503 ] ] ] } },
{ "type": "Feature", "properties": { "LAYER": "1038_AUXILIAR", "GM_TYPE": "Unknown Line Type", "MAP_NAME": "red_del oeste_2026.DWG", "ELEVATION": 0.0, "LINE_STYLE": "Solid", "LINE_COLOR": "RGB(255,255,0)", "LINE_WIDTH": 1 }, "geometry": { "type": "MultiLineString", "coordinates": [ [ [ -68.868423859858794, -32.890080319235274 ], [ -68.868516771084472, -32.890054177720337 ], [ -68.868604439902555, -32.890176629456441 ], [ -68.869516727062063, -32.89030986285961 ], [ -68.869789221493946, -32.891793249554006 ], [ -68.870032484663739, -32.893905264208492 ] ] ] } },
{ "type": "Feature", "properties": { "LAYER": "1038_AUXILIAR", "GM_TYPE": "Unknown Line Type", "MAP_NAME": "red_del oeste_2026.DWG", "ELEVATION": 0.0, "LINE_STYLE": "Solid", "LINE_COLOR": "RGB(255,255,0)", "LINE_WIDTH": 1 }, "geometry": { "type": "MultiLineString", "coordinates": [ [ [ -68.871604176855726, -32.892087184125032 ], [ -68.871638132768268, -32.891960080456101 ], [ -68.871667755590138, -32.891799068720069 ], [ -68.871558962914648, -32.89142448444619 ], [ -68.87147037038774, -32.891419975133481 ], [ -68.871376666920014, -32.891402295801484 ], [ -68.871319471525666, -32.891340471074123 ], [ -68.871288284726148, -32.89125234369164 ], [ -68.871278026148786, -32.891177492713382 ], [ -68.871330175776151, -32.891107034081813 ], [ -68.87138754937817, -32.891045417380141 ], [ -68.871434543369418, -32.890992626560902 ], [ -68.871471019271894, -32.890970572605312 ], [ -68.871455682869183, -32.890785529674474 ], [ -68.871150419943987, -32.889773427007121 ], [ -68.871082840722138, -32.889634904377161 ] ] ] } },
{ "type": "Feature", "properties": { "LAYER": "1038_AUXILIAR", "GM_TYPE": "Unknown Line Type", "MAP_NAME": "red_del oeste_2026.DWG", "ELEVATION": 0.0, "LINE_STYLE": "Solid", "LINE_COLOR": "RGB(255,255,0)", "LINE_WIDTH": 1 }, "geometry": { "type": "MultiLineString", "coordinates": [ [ [ -68.87075377390525, -32.907504005385789 ], [ -68.867054930712968, -32.90692896244682 ], [ -68.867069610481309, -32.906861780152141 ] ] ] } },
{ "type": "Feature", "properties": { "LAYER": "1038_AUXILIAR", "GM_TYPE": "Unknown Line Type", "MAP_NAME": "red_del oeste_2026.DWG", "ELEVATION": 0.0, "LINE_STYLE": "Solid", "LINE_COLOR": "RGB(255,255,0)", "LINE_WIDTH": 1 }, "geometry": { "type": "MultiLineString", "coordinates": [ [ [ -68.87075377390525, -32.907504005385789 ], [ -68.870829343856329, -32.907445381370678 ] ] ] } },
{ "type": "Feature", "properties": { "LAYER": "1038_AUXILIAR", "GM_TYPE": "Unknown Line Type", "MAP_NAME": "red_del oeste_2026.DWG", "ELEVATION": 0.0, "LINE_STYLE": "Solid", "LINE_COLOR": "RGB(255,255,0)", "LINE_WIDTH": 1 }, "geometry": { "type": "MultiLineString", "coordinates": [ [ [ -68.870801594309299, -32.905977939762607 ], [ -68.870804350992628, -32.905899513677952 ] ] ] } },
{ "type": "Feature", "properties": { "LAYER": "1038_AUXILIAR", "GM_TYPE": "Unknown Line Type", "MAP_NAME": "red_del oeste_2026.DWG", "ELEVATION": 0.0, "LINE_STYLE": "Solid", "LINE_COLOR": "RGB(255,255,0)", "LINE_WIDTH": 1 }, "geometry": { "type": "MultiLineString", "coordinates": [ [ [ -68.870801594309299, -32.905977939762607 ], [ -68.870757222921313, -32.905968749907856 ], [ -68.870757263320442, -32.905940940582092 ], [ -68.870499652250217, -32.905873654259118 ], [ -68.870402890474807, -32.905855342673867 ], [ -68.870274543480846, -32.905846804257912 ], [ -68.870225140543099, -32.905826440171957 ], [ -68.870150037371701, -32.905768576313989 ], [ -68.87015136639269, -32.905711842229898 ] ] ] } },
{ "type": "Feature", "properties": { "LAYER": "1038", "GM_TYPE": "Unknown Line Type", "MAP_NAME": "red_del oeste_2026.DWG", "ELEVATION": 0.0, "LINE_STYLE": "Solid", "LINE_COLOR": "RGB(0,0,255)", "LINE_WIDTH": 1 }, "geometry": { "type": "MultiLineString", "coordinates": [ [ [ -68.87437937205128, -32.892721776960578 ], [ -68.874666755627359, -32.89210256614313 ] ] ] } },
{ "type": "Feature", "properties": { "LAYER": "1038_AUXILIAR", "GM_TYPE": "Unknown Line Type", "MAP_NAME": "red_del oeste_2026.DWG", "ELEVATION": 0.0, "LINE_STYLE": "Solid", "LINE_COLOR": "RGB(255,255,0)", "LINE_WIDTH": 1 }, "geometry": { "type": "MultiLineString", "coordinates": [ [ [ -68.87437937205128, -32.892721776960578 ], [ -68.874291314679652, -32.892714092870669 ] ] ] } },
{ "type": "Feature", "properties": { "LAYER": "1038_AUXILIAR", "GM_TYPE": "Unknown Line Type", "MAP_NAME": "red_del oeste_2026.DWG", "ELEVATION": 0.0, "LINE_STYLE": "Solid", "LINE_COLOR": "RGB(255,255,0)", "LINE_WIDTH": 1 }, "geometry": { "type": "MultiLineString", "coordinates": [ [ [ -68.874308268960576, -32.892575798004962 ], [ -68.874291314679652, -32.89271409287069 ] ] ] } },
{ "type": "Feature", "properties": { "LAYER": "1038_AUXILIAR", "GM_TYPE": "Unknown Line Type", "MAP_NAME": "red_del oeste_2026.DWG", "ELEVATION": 0.0, "LINE_STYLE": "Solid", "LINE_COLOR": "RGB(255,255,0)", "LINE_WIDTH": 1 }, "geometry": { "type": "MultiLineString", "coordinates": [ [ [ -68.874291314679652, -32.892714092870669 ], [ -68.872511271003191, -32.892558748564134 ] ] ] } },
{ "type": "Feature", "properties": { "LAYER": "1038_AUXILIAR", "GM_TYPE": "Unknown Line Type", "MAP_NAME": "red_del oeste_2026.DWG", "ELEVATION": 0.0, "LINE_STYLE": "Solid", "LINE_COLOR": "RGB(255,255,0)", "LINE_WIDTH": 1 }, "geometry": { "type": "MultiLineString", "coordinates": [ [ [ -68.873376941075918, -32.891245919921289 ], [ -68.873304427096201, -32.891644337539788 ], [ -68.874547336235153, -32.892064779580203 ] ] ] } },
{ "type": "Feature", "properties": { "LAYER": "1038_AUXILIAR", "GM_TYPE": "Unknown Line Type", "MAP_NAME": "red_del oeste_2026.DWG", "ELEVATION": 0.0, "LINE_STYLE": "Solid", "LINE_COLOR": "RGB(255,255,0)", "LINE_WIDTH": 1 }, "geometry": { "type": "MultiLineString", "coordinates": [ [ [ -68.874589950293313, -32.891980585075331 ], [ -68.874547336235153, -32.892064779580203 ] ] ] } },
{ "type": "Feature", "properties": { "LAYER": "1038_AUXILIAR", "GM_TYPE": "Unknown Line Type", "MAP_NAME": "red_del oeste_2026.DWG", "ELEVATION": 0.0, "LINE_STYLE": "Solid", "LINE_COLOR": "RGB(255,255,0)", "LINE_WIDTH": 1 }, "geometry": { "type": "MultiLineString", "coordinates": [ [ [ -68.874547336235153, -32.892064779580203 ], [ -68.874666755627345, -32.89210256614313 ] ] ] } },
{ "type": "Feature", "properties": { "LAYER": "1038", "GM_TYPE": "Unknown Line Type", "MAP_NAME": "red_del oeste_2026.DWG", "ELEVATION": 0.0, "LINE_STYLE": "Solid", "LINE_COLOR": "RGB(0,0,255)", "LINE_WIDTH": 1 }, "geometry": { "type": "MultiLineString", "coordinates": [ [ [ -68.874666755627359, -32.89210256614313 ], [ -68.874714119608882, -32.892000512474397 ], [ -68.874823311827384, -32.891858486334954 ], [ -68.874859632635918, -32.891796355732623 ], [ -68.875087862713613, -32.891648966423958 ], [ -68.875090997719695, -32.891646821833305 ] ] ] } },
{ "type": "Feature", "properties": { "LAYER": "1038_AUXILIAR", "GM_TYPE": "Unknown Line Type", "MAP_NAME": "red_del oeste_2026.DWG", "ELEVATION": 0.0, "LINE_STYLE": "Solid", "LINE_COLOR": "RGB(255,255,0)", "LINE_WIDTH": 1 }, "geometry": { "type": "MultiLineString", "coordinates": [ [ [ -68.875090997719695, -32.891646821833305 ], [ -68.874898461918704, -32.891584764164676 ] ] ] } },
{ "type": "Feature", "properties": { "LAYER": "1038_AUXILIAR", "GM_TYPE": "Unknown Line Type", "MAP_NAME": "red_del oeste_2026.DWG", "ELEVATION": 0.0, "LINE_STYLE": "Solid", "LINE_COLOR": "RGB(255,255,0)", "LINE_WIDTH": 1 }, "geometry": { "type": "MultiLineString", "coordinates": [ [ [ -68.875704768705845, -32.891226950691994 ], [ -68.875512405113696, -32.891164776485027 ] ] ] } },
{ "type": "Feature", "properties": { "LAYER": "1038", "GM_TYPE": "Unknown Line Type", "MAP_NAME": "red_del oeste_2026.DWG", "ELEVATION": 0.0, "LINE_STYLE": "Solid", "LINE_COLOR": "RGB(0,0,255)", "LINE_WIDTH": 1 }, "geometry": { "type": "MultiLineString", "coordinates": [ [ [ -68.875704768705845, -32.891226950691994 ], [ -68.877635718187733, -32.889905972585332 ], [ -68.877705482392329, -32.889774776893852 ], [ -68.877729533575263, -32.889550123224339 ], [ -68.877759338685863, -32.889326457945664 ], [ -68.877754384394265, -32.889257841106193 ] ] ] } },
{ "type": "Feature", "properties": { "LAYER": "1038", "GM_TYPE": "Unknown Line Type", "MAP_NAME": "red_del oeste_2026.DWG", "ELEVATION": 0.0, "LINE_STYLE": "Solid", "LINE_COLOR": "RGB(0,0,255)", "LINE_WIDTH": 1 }, "geometry": { "type": "MultiLineString", "coordinates": [ [ [ -68.875090997719695, -32.891646821833305 ], [ -68.875704768705845, -32.891226950691994 ] ] ] } },
{ "type": "Feature", "properties": { "LAYER": "1038_AUXILIAR", "GM_TYPE": "Unknown Line Type", "MAP_NAME": "red_del oeste_2026.DWG", "ELEVATION": 0.0, "LINE_STYLE": "Solid", "LINE_COLOR": "RGB(255,255,0)", "LINE_WIDTH": 1 }, "geometry": { "type": "MultiLineString", "coordinates": [ [ [ -68.877754384394265, -32.889257841106193 ], [ -68.877638030958735, -32.889295463865857 ] ] ] } },
{ "type": "Feature", "properties": { "LAYER": "1038", "GM_TYPE": "Unknown Line Type", "MAP_NAME": "red_del oeste_2026.DWG", "ELEVATION": 0.0, "LINE_STYLE": "Solid", "LINE_COLOR": "RGB(0,0,255)", "LINE_WIDTH": 1 }, "geometry": { "type": "MultiLineString", "coordinates": [ [ [ -68.877754384394265, -32.889257841106193 ], [ -68.877697656059496, -32.889186662686932 ], [ -68.87753694540072, -32.889043149318823 ], [ -68.877397856171399, -32.888887300161294 ], [ -68.87747579442356, -32.888404941117976 ], [ -68.877300783616619, -32.888198581437088 ] ] ] } },
{ "type": "Feature", "properties": { "LAYER": "1038", "GM_TYPE": "Unknown Line Type", "MAP_NAME": "red_del oeste_2026.DWG", "ELEVATION": 0.0, "LINE_STYLE": "Solid", "LINE_COLOR": "RGB(0,0,255)", "LINE_WIDTH": 1 }, "geometry": { "type": "MultiLineString", "coordinates": [ [ [ -68.877300783616619, -32.888198581437088 ], [ -68.875979714753726, -32.886640836740646 ], [ -68.875446839685722, -32.886578832629652 ], [ -68.875248197634036, -32.886373226537401 ], [ -68.874818115980588, -32.885918117569176 ], [ -68.874693461657159, -32.885789034766091 ], [ -68.874349645571698, -32.885099680453649 ], [ -68.874114040579883, -32.884442459481377 ] ] ] } },
{ "type": "Feature", "properties": { "LAYER": "1038_AUXILIAR", "GM_TYPE": "Unknown Line Type", "MAP_NAME": "red_del oeste_2026.DWG", "ELEVATION": 0.0, "LINE_STYLE": "Solid", "LINE_COLOR": "RGB(255,255,0)", "LINE_WIDTH": 1 }, "geometry": { "type": "MultiLineString", "coordinates": [ [ [ -68.877300783616604, -32.888198581437102 ], [ -68.877104508542459, -32.888349488343636 ] ] ] } },
{ "type": "Feature", "properties": { "LAYER": "1038_AUXILIAR", "GM_TYPE": "Unknown Line Type", "MAP_NAME": "red_del oeste_2026.DWG", "ELEVATION": 0.0, "LINE_STYLE": "Solid", "LINE_COLOR": "RGB(255,255,0)", "LINE_WIDTH": 1 }, "geometry": { "type": "MultiLineString", "coordinates": [ [ [ -68.874114040579883, -32.884442459481377 ], [ -68.8736304603229, -32.884556327196627 ], [ -68.873516054215116, -32.884683537478288 ], [ -68.873152336662088, -32.884707527260531 ], [ -68.873137166507505, -32.8846862697361 ], [ -68.873024675266549, -32.88460575177232 ], [ -68.872880910463408, -32.884552927451246 ], [ -68.87279545927494, -32.884531353451166 ], [ -68.872691082198912, -32.88452431597581 ], [ -68.872627167132663, -32.884529211091838 ], [ -68.867509689348609, -32.885466045321543 ], [ -68.863458458400288, -32.886227120666106 ] ] ] } },
{ "type": "Feature", "properties": { "LAYER": "1038", "GM_TYPE": "Unknown Line Type", "MAP_NAME": "red_del oeste_2026.DWG", "ELEVATION": 0.0, "LINE_STYLE": "Solid", "LINE_COLOR": "RGB(0,0,255)", "LINE_WIDTH": 1 }, "geometry": { "type": "MultiLineString", "coordinates": [ [ [ -68.874114040579883, -32.884442459481377 ], [ -68.874013842063093, -32.884162952277549 ] ] ] } },
{ "type": "Feature", "properties": { "LAYER": "1038", "GM_TYPE": "Unknown Line Type", "MAP_NAME": "red_del oeste_2026.DWG", "ELEVATION": 0.0, "LINE_STYLE": "Solid", "LINE_COLOR": "RGB(0,0,255)", "LINE_WIDTH": 1 }, "geometry": { "type": "MultiLineString", "coordinates": [ [ [ -68.874013842063093, -32.884162952277549 ], [ -68.873999516065851, -32.88412298926599 ], [ -68.873611791670754, -32.883185425986809 ], [ -68.873531762907135, -32.882812693305688 ], [ -68.873577516085319, -32.882586438868451 ] ] ] } },
{ "type": "Feature", "properties": { "LAYER": "1038_AUXILIAR", "GM_TYPE": "Unknown Line Type", "MAP_NAME": "red_del oeste_2026.DWG", "ELEVATION": 0.0, "LINE_STYLE": "Solid", "LINE_COLOR": "RGB(255,255,0)", "LINE_WIDTH": 1 }, "geometry": { "type": "MultiLineString", "coordinates": [ [ [ -68.874013842063093, -32.884162952277549 ], [ -68.873656735632906, -32.883866922958056 ], [ -68.873435775027374, -32.88391869894771 ], [ -68.872997700348435, -32.884013682258107 ], [ -68.872219174587997, -32.884243452132743 ], [ -68.87125740750804, -32.88452063803436 ], [ -68.869788874355748, -32.884790766718801 ] ] ] } },
{ "type": "Feature", "properties": { "LAYER": "1038_AUXILIAR", "GM_TYPE": "Unknown Line Type", "MAP_NAME": "red_del oeste_2026.DWG", "ELEVATION": 0.0, "LINE_STYLE": "Solid", "LINE_COLOR": "RGB(255,255,0)", "LINE_WIDTH": 1 }, "geometry": { "type": "MultiLineString", "coordinates": [ [ [ -68.869788874355748, -32.884790766718801 ], [ -68.867309004617496, -32.885246882347786 ], [ -68.866999639389618, -32.885308229513363 ], [ -68.866670545984164, -32.885341061397007 ] ] ] } },
{ "type": "Feature", "properties": { "LAYER": "1038_AUXILIAR", "GM_TYPE": "Unknown Line Type", "MAP_NAME": "red_del oeste_2026.DWG", "ELEVATION": 0.0, "LINE_STYLE": "Solid", "LINE_COLOR": "RGB(255,255,0)", "LINE_WIDTH": 1 }, "geometry": { "type": "MultiLineString", "coordinates": [ [ [ -68.866670545984164, -32.885341061397007 ], [ -68.865595697474191, -32.885546533735649 ] ] ] } },
{ "type": "Feature", "properties": { "LAYER": "1038_AUXILIAR", "GM_TYPE": "Unknown Line Type", "MAP_NAME": "red_del oeste_2026.DWG", "ELEVATION": 0.0, "LINE_STYLE": "Solid", "LINE_COLOR": "RGB(255,255,0)", "LINE_WIDTH": 1 }, "geometry": { "type": "MultiLineString", "coordinates": [ [ [ -68.866670545984164, -32.885341061397007 ], [ -68.866663662738489, -32.885370268898235 ] ] ] } },
{ "type": "Feature", "properties": { "LAYER": "1038_AUXILIAR", "GM_TYPE": "Unknown Line Type", "MAP_NAME": "red_del oeste_2026.DWG", "ELEVATION": 0.0, "LINE_STYLE": "Solid", "LINE_COLOR": "RGB(255,255,0)", "LINE_WIDTH": 1 }, "geometry": { "type": "MultiLineString", "coordinates": [ [ [ -68.865595697474191, -32.885546533735649 ], [ -68.863885732675911, -32.885873396423364 ] ] ] } },
{ "type": "Feature", "properties": { "LAYER": "1038_AUXILIAR", "GM_TYPE": "Unknown Line Type", "MAP_NAME": "red_del oeste_2026.DWG", "ELEVATION": 0.0, "LINE_STYLE": "Solid", "LINE_COLOR": "RGB(255,255,0)", "LINE_WIDTH": 1 }, "geometry": { "type": "MultiLineString", "coordinates": [ [ [ -68.865595685371844, -32.885546488664396 ], [ -68.865390673296886, -32.884867566693373 ], [ -68.865331741254536, -32.884878173405909 ] ] ] } },
{ "type": "Feature", "properties": { "LAYER": "1038_AUXILIAR", "GM_TYPE": "Unknown Line Type", "MAP_NAME": "red_del oeste_2026.DWG", "ELEVATION": 0.0, "LINE_STYLE": "Solid", "LINE_COLOR": "RGB(255,255,0)", "LINE_WIDTH": 1 }, "geometry": { "type": "MultiLineString", "coordinates": [ [ [ -68.865331741254536, -32.884878173405909 ], [ -68.863361780699364, -32.885232713582191 ], [ -68.863180161486738, -32.885266508835635 ], [ -68.86312996892687, -32.885104690273408 ] ] ] } },
{ "type": "Feature", "properties": { "LAYER": "1038_AUXILIAR", "GM_TYPE": "Unknown Line Type", "MAP_NAME": "red_del oeste_2026.DWG", "ELEVATION": 0.0, "LINE_STYLE": "Solid", "LINE_COLOR": "RGB(255,255,0)", "LINE_WIDTH": 1 }, "geometry": { "type": "MultiLineString", "coordinates": [ [ [ -68.865331741254536, -32.884878173405909 ], [ -68.865286625809745, -32.884719218348273 ] ] ] } },
{ "type": "Feature", "properties": { "LAYER": "1038", "GM_TYPE": "Unknown Line Type", "MAP_NAME": "red_del oeste_2026.DWG", "ELEVATION": 0.0, "LINE_STYLE": "Solid", "LINE_COLOR": "RGB(0,0,255)", "LINE_WIDTH": 1 }, "geometry": { "type": "MultiLineString", "coordinates": [ [ [ -68.873577516085319, -32.882586438868451 ], [ -68.873636432603334, -32.882295088540523 ], [ -68.873671719957983, -32.882052428042591 ] ] ] } },
{ "type": "Feature", "properties": { "LAYER": "1038", "GM_TYPE": "Unknown Line Type", "MAP_NAME": "red_del oeste_2026.DWG", "ELEVATION": 0.0, "LINE_STYLE": "Solid", "LINE_COLOR": "RGB(0,0,255)", "LINE_WIDTH": 1 }, "geometry": { "type": "MultiLineString", "coordinates": [ [ [ -68.873671719957983, -32.882052428042591 ], [ -68.87370719268803, -32.881808491405408 ], [ -68.873812221668004, -32.88116499807397 ], [ -68.873869813138811, -32.880833882779754 ] ] ] } },
{ "type": "Feature", "properties": { "LAYER": "1038", "GM_TYPE": "Unknown Line Type", "MAP_NAME": "red_del oeste_2026.DWG", "ELEVATION": 0.0, "LINE_STYLE": "Solid", "LINE_COLOR": "RGB(0,0,255)", "LINE_WIDTH": 1 }, "geometry": { "type": "MultiLineString", "coordinates": [ [ [ -68.873869813138811, -32.880833882779754 ], [ -68.873942127428407, -32.880418116810176 ], [ -68.87397443578179, -32.88014018740904 ], [ -68.873988036859529, -32.87990032907031 ], [ -68.873993542388831, -32.879713908247311 ] ] ] } },
{ "type": "Feature", "properties": { "LAYER": "1038_AUXILIAR", "GM_TYPE": "Unknown Line Type", "MAP_NAME": "red_del oeste_2026.DWG", "ELEVATION": 0.0, "LINE_STYLE": "Solid", "LINE_COLOR": "RGB(255,255,0)", "LINE_WIDTH": 1 }, "geometry": { "type": "MultiLineString", "coordinates": [ [ [ -68.873577516085348, -32.882586438868451 ], [ -68.873296818291337, -32.882586154824295 ] ] ] } },
{ "type": "Feature", "properties": { "LAYER": "1038_AUXILIAR", "GM_TYPE": "Unknown Line Type", "MAP_NAME": "red_del oeste_2026.DWG", "ELEVATION": 0.0, "LINE_STYLE": "Solid", "LINE_COLOR": "RGB(255,255,0)", "LINE_WIDTH": 1 }, "geometry": { "type": "MultiLineString", "coordinates": [ [ [ -68.873671719957983, -32.882052428042591 ], [ -68.873270603387525, -32.88208388520308 ] ] ] } },
{ "type": "Feature", "properties": { "LAYER": "1038_AUXILIAR", "GM_TYPE": "Unknown Line Type", "MAP_NAME": "red_del oeste_2026.DWG", "ELEVATION": 0.0, "LINE_STYLE": "Solid", "LINE_COLOR": "RGB(255,255,0)", "LINE_WIDTH": 1 }, "geometry": { "type": "MultiLineString", "coordinates": [ [ [ -68.873869813138811, -32.880833882779754 ], [ -68.873810685960279, -32.880836319531056 ] ] ] } },
{ "type": "Feature", "properties": { "LAYER": "1038_AUXILIAR", "GM_TYPE": "Unknown Line Type", "MAP_NAME": "red_del oeste_2026.DWG", "ELEVATION": 0.0, "LINE_STYLE": "Solid", "LINE_COLOR": "RGB(255,255,0)", "LINE_WIDTH": 1 }, "geometry": { "type": "MultiLineString", "coordinates": [ [ [ -68.873687102584739, -32.880841412562646 ], [ -68.873692358689524, -32.880752060060964 ] ] ] } },
{ "type": "Feature", "properties": { "LAYER": "1038_AUXILIAR", "GM_TYPE": "Unknown Line Type", "MAP_NAME": "red_del oeste_2026.DWG", "ELEVATION": 0.0, "LINE_STYLE": "Solid", "LINE_COLOR": "RGB(255,255,0)", "LINE_WIDTH": 1 }, "geometry": { "type": "MultiLineString", "coordinates": [ [ [ -68.873810667699402, -32.880836320283635 ], [ -68.873803558829692, -32.881008613889229 ], [ -68.873565992006291, -32.881393667503602 ], [ -68.873430419117526, -32.8813685534802 ], [ -68.873330066756481, -32.881374493232471 ], [ -68.873254902847606, -32.881402279408277 ], [ -68.873134702529271, -32.881463202176455 ], [ -68.869969435841512, -32.882045511052489 ], [ -68.864333194369394, -32.883060215482203 ] ] ] } },
{ "type": "Feature", "properties": { "LAYER": "1038_AUXILIAR", "GM_TYPE": "Unknown Line Type", "MAP_NAME": "red_del oeste_2026.DWG", "ELEVATION": 0.0, "LINE_STYLE": "Solid", "LINE_COLOR": "RGB(255,255,0)", "LINE_WIDTH": 1 }, "geometry": { "type": "MultiLineString", "coordinates": [ [ [ -68.873810685960279, -32.880836319531056 ], [ -68.873687102584739, -32.880841412562646 ] ] ] } },
{ "type": "Feature", "properties": { "LAYER": "1038_AUXILIAR", "GM_TYPE": "Unknown Line Type", "MAP_NAME": "red_del oeste_2026.DWG", "ELEVATION": 0.0, "LINE_STYLE": "Solid", "LINE_COLOR": "RGB(255,255,0)", "LINE_WIDTH": 1 }, "geometry": { "type": "MultiLineString", "coordinates": [ [ [ -68.864333194369394, -32.883060215482203 ], [ -68.864099530273904, -32.883102276532036 ], [ -68.861588041140962, -32.883556229757751 ], [ -68.861393342753729, -32.883549882627193 ], [ -68.860931976285116, -32.883500498727173 ], [ -68.860677384378178, -32.883389036664646 ] ] ] } },
{ "type": "Feature", "properties": { "LAYER": "1038", "GM_TYPE": "Unknown Line Type", "MAP_NAME": "red_del oeste_2026.DWG", "ELEVATION": 0.0, "LINE_STYLE": "Solid", "LINE_COLOR": "RGB(0,0,255)", "LINE_WIDTH": 1 }, "geometry": { "type": "MultiLineString", "coordinates": [ [ [ -68.873993542388831, -32.879713908247311 ], [ -68.874003201922577, -32.879386828108146 ], [ -68.874005727112603, -32.879231573552673 ], [ -68.874008802702647, -32.879077871649173 ], [ -68.873923914317373, -32.878958903515944 ] ] ] } },
{ "type": "Feature", "properties": { "LAYER": "1038_AUXILIAR", "GM_TYPE": "Unknown Line Type", "MAP_NAME": "red_del oeste_2026.DWG", "ELEVATION": 0.0, "LINE_STYLE": "Solid", "LINE_COLOR": "RGB(255,255,0)", "LINE_WIDTH": 1 }, "geometry": { "type": "MultiLineString", "coordinates": [ [ [ -68.873993542388845, -32.879713908247311 ], [ -68.873960657251345, -32.879717186666873 ], [ -68.873969953661472, -32.879383041268945 ], [ -68.871537519414829, -32.879852554477132 ], [ -68.871574637789891, -32.880048678082204 ] ] ] } },
{ "type": "Feature", "properties": { "LAYER": "1038", "GM_TYPE": "Unknown Line Type", "MAP_NAME": "red_del oeste_2026.DWG", "ELEVATION": 0.0, "LINE_STYLE": "Solid", "LINE_COLOR": "RGB(0,0,255)", "LINE_WIDTH": 1 }, "geometry": { "type": "MultiLineString", "coordinates": [ [ [ -68.873923914317373, -32.878958903515944 ], [ -68.873918950618219, -32.878951947051746 ], [ -68.873999363551377, -32.8778032005564 ], [ -68.874060018589276, -32.87742865527872 ] ] ] } },
{ "type": "Feature", "properties": { "LAYER": "1038_AUXILIAR", "GM_TYPE": "Unknown Line Type", "MAP_NAME": "red_del oeste_2026.DWG", "ELEVATION": 0.0, "LINE_STYLE": "Solid", "LINE_COLOR": "RGB(255,255,0)", "LINE_WIDTH": 1 }, "geometry": { "type": "MultiLineString", "coordinates": [ [ [ -68.873713344862452, -32.87927346162013 ], [ -68.873667672364945, -32.879342654998972 ], [ -68.870313462291492, -32.879965476599558 ], [ -68.870094853438644, -32.87928448719672 ], [ -68.870032483807094, -32.879251034101891 ], [ -68.869817794757083, -32.878600041821493 ], [ -68.869686685121053, -32.878512580709952 ], [ -68.869429633260992, -32.877871102202882 ], [ -68.869387593637626, -32.877743832478352 ] ] ] } },
{ "type": "Feature", "properties": { "LAYER": "1038_AUXILIAR", "GM_TYPE": "Unknown Line Type", "MAP_NAME": "red_del oeste_2026.DWG", "ELEVATION": 0.0, "LINE_STYLE": "Solid", "LINE_COLOR": "RGB(255,255,0)", "LINE_WIDTH": 1 }, "geometry": { "type": "MultiLineString", "coordinates": [ [ [ -68.869387593637626, -32.877743832478352 ], [ -68.869335899039058, -32.877587333 ], [ -68.869167849937369, -32.87706876872285 ], [ -68.864184667699632, -32.877799150360644 ] ] ] } },
{ "type": "Feature", "properties": { "LAYER": "1038", "GM_TYPE": "Unknown Line Type", "MAP_NAME": "red_del oeste_2026.DWG", "ELEVATION": 0.0, "LINE_STYLE": "Solid", "LINE_COLOR": "RGB(0,0,255)", "LINE_WIDTH": 1 }, "geometry": { "type": "MultiLineString", "coordinates": [ [ [ -68.874060018589276, -32.87742865527872 ], [ -68.874098805776541, -32.877189142433373 ], [ -68.874158291329408, -32.87699335438586 ], [ -68.874335743481993, -32.876682447665857 ], [ -68.873526452017146, -32.87613778611766 ], [ -68.872735461706171, -32.875675346130627 ], [ -68.872419701961888, -32.875650998255978 ], [ -68.87225363525539, -32.875552403502248 ], [ -68.87212538074192, -32.875493570774047 ], [ -68.872023087052668, -32.875478621810394 ], [ -68.871881087716702, -32.875513050059553 ], [ -68.871682484655565, -32.875558286739015 ], [ -68.871643853357313, -32.875568208486982 ], [ -68.870890171270915, -32.874892908420406 ], [ -68.870769521246487, -32.874799617435023 ], [ -68.868580363421884, -32.875183647077144 ], [ -68.868481980235472, -32.874331119037009 ], [ -68.868403608163291, -32.873738092913285 ] ] ] } },
{ "type": "Feature", "properties": { "LAYER": "1038", "GM_TYPE": "Unknown Line Type", "MAP_NAME": "red_del oeste_2026.DWG", "ELEVATION": 0.0, "LINE_STYLE": "Solid", "LINE_COLOR": "RGB(0,0,255)", "LINE_WIDTH": 1 }, "geometry": { "type": "MultiLineString", "coordinates": [ [ [ -68.868403608163291, -32.873738092913285 ], [ -68.868403604754818, -32.873738093231722 ], [ -68.868308270159488, -32.872510463764918 ] ] ] } },
{ "type": "Feature", "properties": { "LAYER": "1038_AUXILIAR", "GM_TYPE": "Unknown Line Type", "MAP_NAME": "red_del oeste_2026.DWG", "ELEVATION": 0.0, "LINE_STYLE": "Solid", "LINE_COLOR": "RGB(255,255,0)", "LINE_WIDTH": 1 }, "geometry": { "type": "MultiLineString", "coordinates": [ [ [ -68.868403608163291, -32.873738092913285 ], [ -68.868323984172449, -32.873745531596839 ] ] ] } },
{ "type": "Feature", "properties": { "LAYER": "1038_AUXILIAR", "GM_TYPE": "Unknown Line Type", "MAP_NAME": "red_del oeste_2026.DWG", "ELEVATION": 0.0, "LINE_STYLE": "Solid", "LINE_COLOR": "RGB(255,255,0)", "LINE_WIDTH": 1 }, "geometry": { "type": "MultiLineString", "coordinates": [ [ [ -68.868323984172449, -32.873745531596853 ], [ -68.866102041391002, -32.873096809497532 ], [ -68.865615118332471, -32.872952376925831 ], [ -68.863621792366843, -32.873227761117597 ], [ -68.863516419062279, -32.872471395155102 ], [ -68.863024687197665, -32.872262746608691 ], [ -68.862935177054098, -32.871756166794221 ] ] ] } },
{ "type": "Feature", "properties": { "LAYER": "1038_AUXILIAR", "GM_TYPE": "Unknown Line Type", "MAP_NAME": "red_del oeste_2026.DWG", "ELEVATION": 0.0, "LINE_STYLE": "Solid", "LINE_COLOR": "RGB(255,255,0)", "LINE_WIDTH": 1 }, "geometry": { "type": "MultiLineString", "coordinates": [ [ [ -68.868323984172449, -32.873745531596839 ], [ -68.868107635738923, -32.873765743176634 ] ] ] } }
]
}
