{
"type": "FeatureCollection",
"name": "canal civit derechos",
"crs": { "type": "name", "properties": { "name": "urn:ogc:def:crs:OGC:1.3:CRS84" } },
"features": [
{ "type": "Feature", "properties": { "LAYER": "PARCELARIO_2026", "ccpp1": "1039 20", "LAYER_2": "PADRONES" }, "geometry": { "type": "MultiPolygon", "coordinates": [ [ [ [ -68.870346521673582, -32.922606828139877, 0.0 ], [ -68.870373018305997, -32.922617404460638, 0.0 ], [ -68.870402399333585, -32.922629515733078, 0.0 ], [ -68.870452080351242, -32.922650032829594, 0.0 ], [ -68.870538194443156, -32.922685554753649, 0.0 ], [ -68.87081234856042, -32.922798625053993, 0.0 ], [ -68.870817155654834, -32.922800613734189, 0.0 ], [ -68.870833074931895, -32.922807211601125, 0.0 ], [ -68.870910641592388, -32.922839116784417, 0.0 ], [ -68.870974853591775, -32.922865329308635, 0.0 ], [ -68.871039172411898, -32.922891631177052, 0.0 ], [ -68.871165566052085, -32.922943512053394, 0.0 ], [ -68.871230205461259, -32.922969994491233, 0.0 ], [ -68.871286292987264, -32.922996468991101, 0.0 ], [ -68.871375925269945, -32.923038574473097, 0.0 ], [ -68.871786626733865, -32.923206868946814, 0.0 ], [ -68.871851694039691, -32.923233442571991, 0.0 ], [ -68.871900093428195, -32.923253506934365, 0.0 ], [ -68.871940693954471, -32.923270318115847, 0.0 ], [ -68.871984071341416, -32.923288393588521, 0.0 ], [ -68.87199475518338, -32.923292822797499, 0.0 ], [ -68.872021038942989, -32.923303758323492, 0.0 ], [ -68.872070399974334, -32.923324274447999, 0.0 ], [ -68.87233440621155, -32.923433905507672, 0.0 ], [ -68.87235085989127, -32.923440774232915, 0.0 ], [ -68.872389963385658, -32.923457132895756, 0.0 ], [ -68.872781432806761, -32.923620987093265, 0.0 ], [ -68.872901288498724, -32.923685661710635, 0.0 ], [ -68.873676787343101, -32.922782259385627, 0.0 ], [ -68.87132685829846, -32.921337613457332, 0.0 ], [ -68.87074083998067, -32.921981814500384, 0.0 ], [ -68.870733345341179, -32.921990011203029, 0.0 ], [ -68.870708720267075, -32.92201513920417, 0.0 ], [ -68.870691909005998, -32.922033875107289, 0.0 ], [ -68.870639120661721, -32.922092513118265, 0.0 ], [ -68.870627437553196, -32.922112966623843, 0.0 ], [ -68.870410829320775, -32.922493837672697, 0.0 ], [ -68.870364635249416, -32.922574931707004, 0.0 ], [ -68.870346521673582, -32.922606828139877, 0.0 ] ] ] ] } },
{ "type": "Feature", "properties": { "LAYER": "PARCELARIO_2026", "ccpp1": "1039 1443", "LAYER_2": "PADRONES" }, "geometry": { "type": "MultiPolygon", "coordinates": [ [ [ [ -68.860436684183412, -32.926755950139288, 0.0 ], [ -68.859906696165993, -32.926743249366702, 0.0 ], [ -68.859889811756034, -32.92701124502338, 0.0 ], [ -68.859680286864815, -32.927011280473366, 0.0 ], [ -68.859677954709568, -32.927676588070966, 0.0 ], [ -68.860439081954226, -32.92768032568307, 0.0 ], [ -68.860436684183412, -32.926755950139288, 0.0 ] ] ] ] } },
{ "type": "Feature", "properties": { "LAYER": "PARCELARIO_2026", "ccpp1": "1039 1467", "LAYER_2": "PADRONES" }, "geometry": { "type": "MultiPolygon", "coordinates": [ [ [ [ -68.86539813837139, -32.933484473308646, 0.0 ], [ -68.865373454659107, -32.93358191081883, 0.0 ], [ -68.865165484181006, -32.933535966641692, 0.0 ], [ -68.865125208179151, -32.933694812804525, 0.0 ], [ -68.865143388289596, -32.933697903564919, 0.0 ], [ -68.865166426906256, -32.93370182100022, 0.0 ], [ -68.865183155347111, -32.933704664930126, 0.0 ], [ -68.865183527847492, -32.933702286685424, 0.0 ], [ -68.865183188485716, -32.933704670375974, 0.0 ], [ -68.865686862686488, -32.933790296664085, 0.0 ], [ -68.865689112992953, -32.933782828617638, 0.0 ], [ -68.86569476346952, -32.933764079630357, 0.0 ], [ -68.865697498990215, -32.933764544233156, 0.0 ], [ -68.865697402563953, -32.933764672168877, 0.0 ], [ -68.865697120779473, -32.933765049672317, 0.0 ], [ -68.865800572025648, -32.933787852623773, 0.0 ], [ -68.865796292853631, -32.933800606879366, 0.0 ], [ -68.865837145804932, -32.933811284321344, 0.0 ], [ -68.866028545141873, -32.933321530824216, 0.0 ], [ -68.866028622913348, -32.933321009733291, 0.0 ], [ -68.866030294769558, -32.933317052223863, 0.0 ], [ -68.865472081638359, -32.933192569086721, 0.0 ], [ -68.865447502424729, -32.933289598265226, 0.0 ], [ -68.865422820959935, -32.93338703579078, 0.0 ], [ -68.86539813837139, -32.933484473308646, 0.0 ] ] ] ] } },
{ "type": "Feature", "properties": { "LAYER": "PARCELARIO_2026", "ccpp1": "1039 1497", "LAYER_2": "PADRONES" }, "geometry": { "type": "MultiPolygon", "coordinates": [ [ [ [ -68.865875954328871, -32.927459168834716, 0.0 ], [ -68.866899062434953, -32.927737551903085, 0.0 ], [ -68.866925893459864, -32.926812720602435, 0.0 ], [ -68.866927673837097, -32.926747587363167, 0.0 ], [ -68.8658837322116, -32.926485015765287, 0.0 ], [ -68.865875954328871, -32.927459168834716, 0.0 ] ] ] ] } },
{ "type": "Feature", "properties": { "LAYER": "PARCELARIO_2026", "ccpp1": "1039 296", "LAYER_2": "PADRONES" }, "geometry": { "type": "MultiPolygon", "coordinates": [ [ [ [ -68.872436013651367, -32.92422638933396, 0.0 ], [ -68.872450220869794, -32.924229032250615, 0.0 ], [ -68.872522683728036, -32.92424262967846, 0.0 ], [ -68.872595147806933, -32.92425613689683, 0.0 ], [ -68.872668038365319, -32.924269734676372, 0.0 ], [ -68.872739646237221, -32.924283150770023, 0.0 ], [ -68.872812430995339, -32.924296748357641, 0.0 ], [ -68.872837012485604, -32.924301371972717, 0.0 ], [ -68.872885107791461, -32.92431034669476, 0.0 ], [ -68.872959923573319, -32.924324216768142, 0.0 ], [ -68.873034738438292, -32.924337996627081, 0.0 ], [ -68.873110407995185, -32.924352228152472, 0.0 ], [ -68.873180199917698, -32.924365371644079, 0.0 ], [ -68.87325031153398, -32.924378515420884, 0.0 ], [ -68.873326409885649, -32.92439274725033, 0.0 ], [ -68.873398124871272, -32.924406163075325, 0.0 ], [ -68.873540380177062, -32.924432813977646, 0.0 ], [ -68.87375585685254, -32.924467020894461, 0.0 ], [ -68.87382874814746, -32.92448034749178, 0.0 ], [ -68.873899823248237, -32.924493491876873, 0.0 ], [ -68.873931993967304, -32.924499385294851, 0.0 ], [ -68.873973783345235, -32.924507089974007, 0.0 ], [ -68.874047636549491, -32.92452068882136, 0.0 ], [ -68.874120742702644, -32.924534105633612, 0.0 ], [ -68.874193420151883, -32.924547521971604, 0.0 ], [ -68.874265884991303, -32.924560847884777, 0.0 ], [ -68.874339310757065, -32.924574355059413, 0.0 ], [ -68.874412843332209, -32.924587952466936, 0.0 ], [ -68.874485856661224, -32.924601312166089, 0.0 ], [ -68.874529770060036, -32.92460934700636, 0.0 ], [ -68.873828381299845, -32.924211497404983, 0.0 ], [ -68.87322708936388, -32.923870455222541, 0.0 ], [ -68.872901288498724, -32.923685661710635, 0.0 ], [ -68.872781432806761, -32.923620987093265, 0.0 ], [ -68.872436013651367, -32.92422638933396, 0.0 ] ] ] ] } },
{ "type": "Feature", "properties": { "LAYER": "PARCELARIO_2026", "ccpp1": "1039 642", "LAYER_2": "PADRONES" }, "geometry": { "type": "MultiPolygon", "coordinates": [ [ [ [ -68.871185827794662, -32.924259402823132, 0.0 ], [ -68.871206410241385, -32.924267966616398, 0.0 ], [ -68.871412616547644, -32.924353648036131, 0.0 ], [ -68.871446165199259, -32.9243676568911, 0.0 ], [ -68.87147928225464, -32.924310441035715, 0.0 ], [ -68.871483247167319, -32.924303412855458, 0.0 ], [ -68.871524403170326, -32.924232050569856, 0.0 ], [ -68.871530173885859, -32.924233138525786, 0.0 ], [ -68.871623626682407, -32.924074467292925, 0.0 ], [ -68.871702181805176, -32.924089153478015, 0.0 ], [ -68.871755513151484, -32.92409912586492, 0.0 ], [ -68.871782447053164, -32.924104202042862, 0.0 ], [ -68.871861429753707, -32.924118978735208, 0.0 ], [ -68.871941588272051, -32.924133936919723, 0.0 ], [ -68.872015227025344, -32.924147535846508, 0.0 ], [ -68.872048786724065, -32.924153881113256, 0.0 ], [ -68.872094209673818, -32.924162402560405, 0.0 ], [ -68.872182062920785, -32.924178811163962, 0.0 ], [ -68.872229197067895, -32.92418769498677, 0.0 ], [ -68.87230358391848, -32.924201565014521, 0.0 ], [ -68.872376474904726, -32.924214802289704, 0.0 ], [ -68.87240490356676, -32.924220601209385, 0.0 ], [ -68.872436013651367, -32.92422638933396, 0.0 ], [ -68.872781432806761, -32.923620987093265, 0.0 ], [ -68.872389963385658, -32.923457132895756, 0.0 ], [ -68.87235085989127, -32.923440774232915, 0.0 ], [ -68.87233440621155, -32.923433905507672, 0.0 ], [ -68.872070399974334, -32.923324274447999, 0.0 ], [ -68.872021038942989, -32.923303758323492, 0.0 ], [ -68.87199475518338, -32.923292822797499, 0.0 ], [ -68.871984071341416, -32.923288393588521, 0.0 ], [ -68.871940693954471, -32.923270318115847, 0.0 ], [ -68.871900093428195, -32.923253506934365, 0.0 ], [ -68.871851694039691, -32.923233442571991, 0.0 ], [ -68.871786626733865, -32.923206868946814, 0.0 ], [ -68.871185827794662, -32.924259402823132, 0.0 ] ] ] ] } },
{ "type": "Feature", "properties": { "LAYER": "PARCELARIO_2026", "ccpp1": "1039 1419", "LAYER_2": "PADRONES" }, "geometry": { "type": "MultiPolygon", "coordinates": [ [ [ [ -68.871185827794662, -32.924259402823132, 0.0 ], [ -68.871786626733865, -32.923206868946814, 0.0 ], [ -68.871375925269945, -32.923038574473097, 0.0 ], [ -68.871286292987264, -32.922996468991101, 0.0 ], [ -68.871230205461259, -32.922969994491233, 0.0 ], [ -68.871165566052085, -32.922943512053394, 0.0 ], [ -68.871039172411898, -32.922891631177052, 0.0 ], [ -68.870974853591775, -32.922865329308635, 0.0 ], [ -68.870910641592388, -32.922839116784417, 0.0 ], [ -68.870833074931895, -32.922807211601125, 0.0 ], [ -68.870817155654834, -32.922800613734189, 0.0 ], [ -68.87081234856042, -32.922798625053993, 0.0 ], [ -68.870538194443156, -32.922685554753649, 0.0 ], [ -68.870452080351242, -32.922650032829594, 0.0 ], [ -68.870402399333585, -32.922629515733078, 0.0 ], [ -68.870373018305997, -32.922617404460638, 0.0 ], [ -68.870346521673582, -32.922606828139877, 0.0 ], [ -68.870326272737941, -32.922636739544394, 0.0 ], [ -68.870113632295613, -32.923006885884668, 0.0 ], [ -68.870103986881915, -32.923023555270923, 0.0 ], [ -68.870069904051576, -32.923082932916756, 0.0 ], [ -68.870065723792663, -32.92309023133577, 0.0 ], [ -68.870055542348751, -32.923107892016688, 0.0 ], [ -68.870000667425643, -32.923203582411197, 0.0 ], [ -68.869972478484428, -32.923252778896916, 0.0 ], [ -68.869929178572605, -32.923328195141018, 0.0 ], [ -68.869915888557017, -32.923351351964783, 0.0 ], [ -68.869834325110503, -32.923493445078343, 0.0 ], [ -68.869739900003182, -32.92365797493725, 0.0 ], [ -68.870390777496553, -32.92392867257103, 0.0 ], [ -68.870544949890714, -32.923992753841823, 0.0 ], [ -68.870614183748458, -32.924021585739396, 0.0 ], [ -68.870664720245188, -32.924042554477104, 0.0 ], [ -68.870792716908042, -32.924095880080941, 0.0 ], [ -68.870930756659135, -32.924153272614681, 0.0 ], [ -68.871185827794662, -32.924259402823132, 0.0 ] ] ] ] } },
{ "type": "Feature", "properties": { "LAYER": "PARCELARIO_2026", "ccpp1": "1039 35", "LAYER_2": "PADRONES" }, "geometry": { "type": "MultiPolygon", "coordinates": [ [ [ [ -68.851970183312716, -32.927841367804838, 0.0 ], [ -68.852138048063381, -32.927845356297262, 0.0 ], [ -68.852128202765442, -32.927915568872692, 0.0 ], [ -68.852281578954674, -32.92793125563864, 0.0 ], [ -68.852251663767504, -32.92811358721103, 0.0 ], [ -68.852980407806925, -32.928175386127812, 0.0 ], [ -68.852957247171631, -32.928347900135535, 0.0 ], [ -68.853004276472987, -32.928352462084327, 0.0 ], [ -68.853090103834617, -32.928360676370943, 0.0 ], [ -68.85308545626728, -32.92839096034902, 0.0 ], [ -68.853239051454565, -32.928404122378311, 0.0 ], [ -68.853243833694236, -32.928356349447988, 0.0 ], [ -68.853248579762521, -32.928330482939913, 0.0 ], [ -68.853342960000404, -32.92833843658935, 0.0 ], [ -68.853355128294297, -32.928219276809862, 0.0 ], [ -68.85339424637246, -32.928224641748514, 0.0 ], [ -68.853493673795086, -32.928218537605076, 0.0 ], [ -68.853534253923613, -32.928178199544554, 0.0 ], [ -68.853578551690376, -32.928153371221669, 0.0 ], [ -68.853607996022617, -32.928125459752991, 0.0 ], [ -68.853621293159733, -32.928099693413742, 0.0 ], [ -68.853620266129141, -32.9280098157368, 0.0 ], [ -68.853621462240042, -32.927997016800191, 0.0 ], [ -68.853528570134714, -32.92799456358771, 0.0 ], [ -68.85344491860549, -32.927963816310104, 0.0 ], [ -68.853405602885928, -32.927949346829728, 0.0 ], [ -68.853374191952852, -32.927808950800589, 0.0 ], [ -68.85337632805448, -32.927551043085508, 0.0 ], [ -68.853376444487878, -32.927545274233317, 0.0 ], [ -68.853379779244079, -32.92714403405239, 0.0 ], [ -68.853380045684858, -32.927111491603469, 0.0 ], [ -68.853380441671945, -32.927065877559428, 0.0 ], [ -68.853380981449462, -32.926997907272359, 0.0 ], [ -68.853381131336377, -32.926971855024327, 0.0 ], [ -68.85338139022079, -32.926944541444833, 0.0 ], [ -68.853381839002637, -32.926931740730019, 0.0 ], [ -68.853393263178717, -32.926486969364433, 0.0 ], [ -68.853373197162895, -32.926468105087814, 0.0 ], [ -68.852705763411421, -32.926444243449708, 0.0 ], [ -68.852538370867606, -32.926438186008312, 0.0 ], [ -68.852414483150142, -32.926433802756947, 0.0 ], [ -68.852160080603625, -32.926424668274315, 0.0 ], [ -68.852140378224632, -32.926573026482529, 0.0 ], [ -68.852120461945361, -32.926721384430948, 0.0 ], [ -68.85209188396793, -32.926935449728468, 0.0 ], [ -68.852071533873726, -32.92708804417083, 0.0 ], [ -68.852051183089657, -32.927240368099341, 0.0 ], [ -68.852032130400346, -32.927383589231191, 0.0 ], [ -68.851983750890042, -32.927741414824474, 0.0 ], [ -68.851970515604009, -32.927838934547317, 0.0 ], [ -68.851970183312716, -32.927841367804838, 0.0 ] ] ] ] } },
{ "type": "Feature", "properties": { "LAYER": "PARCELARIO_2026", "ccpp1": "1039 1499", "LAYER_2": "PADRONES" }, "geometry": { "type": "MultiPolygon", "coordinates": [ [ [ [ -68.851966787408912, -32.928941248637116, 0.0 ], [ -68.852919646652694, -32.929041445464676, 0.0 ], [ -68.853004276472987, -32.928352462084327, 0.0 ], [ -68.852957247171631, -32.928347900135535, 0.0 ], [ -68.852980407806925, -32.928175386127812, 0.0 ], [ -68.852251663767504, -32.92811358721103, 0.0 ], [ -68.852281578954674, -32.92793125563864, 0.0 ], [ -68.852128202765442, -32.927915568872692, 0.0 ], [ -68.852138048063381, -32.927845356297262, 0.0 ], [ -68.851970183312716, -32.927841367804838, 0.0 ], [ -68.851938405223279, -32.928074273576811, 0.0 ], [ -68.851898147628063, -32.928369186354651, 0.0 ], [ -68.851872626898498, -32.928544491681031, 0.0 ], [ -68.851867111254847, -32.928582796884612, 0.0 ], [ -68.851856946570521, -32.928652649278618, 0.0 ], [ -68.85185153933368, -32.928690053824923, 0.0 ], [ -68.851845915382711, -32.928728539235465, 0.0 ], [ -68.851840291743031, -32.928767476390618, 0.0 ], [ -68.851830774844544, -32.928833542466798, 0.0 ], [ -68.851825151792653, -32.928872118946863, 0.0 ], [ -68.851819418811601, -32.928912497766504, 0.0 ], [ -68.851871893693144, -32.928920312667437, 0.0 ], [ -68.851937729138982, -32.928930126182578, 0.0 ], [ -68.851967867712446, -32.928934579243283, 0.0 ], [ -68.851966787408912, -32.928941248637116, 0.0 ] ] ] ] } },
{ "type": "Feature", "properties": { "LAYER": "PARCELARIO_2026", "ccpp1": "1039 1486", "LAYER_2": "PADRONES" }, "geometry": { "type": "MultiPolygon", "coordinates": [ [ [ [ -68.866759627098148, -32.924865709838144, 0.0 ], [ -68.86731647358198, -32.92498595605143, 0.0 ], [ -68.86765250629044, -32.925058357099019, 0.0 ], [ -68.867798505425753, -32.925089800142239, 0.0 ], [ -68.868390406975138, -32.925220808717349, 0.0 ], [ -68.868397033571455, -32.925222258393752, 0.0 ], [ -68.86842376606667, -32.925219761814859, 0.0 ], [ -68.868542577199818, -32.925200590732842, 0.0 ], [ -68.868557441985573, -32.925198171811552, 0.0 ], [ -68.868566874634823, -32.925181861198851, 0.0 ], [ -68.868590778120463, -32.925140318568339, 0.0 ], [ -68.868730124490924, -32.924898722742256, 0.0 ], [ -68.868624196061376, -32.924882381082064, 0.0 ], [ -68.868579408963342, -32.924875481178084, 0.0 ], [ -68.868519015939953, -32.92486613028796, 0.0 ], [ -68.868461936347913, -32.924857414036559, 0.0 ], [ -68.868416828664962, -32.924850423568273, 0.0 ], [ -68.868277871231882, -32.92482899739219, 0.0 ], [ -68.868248952319036, -32.924864042532533, 0.0 ], [ -68.868240598146315, -32.924874042450675, 0.0 ], [ -68.868027212004307, -32.924791403142052, 0.0 ], [ -68.86803321286952, -32.924782212271623, 0.0 ], [ -68.867967928282141, -32.924755092718506, 0.0 ], [ -68.867913435662373, -32.924732312633587, 0.0 ], [ -68.867898477287213, -32.924725804679234, 0.0 ], [ -68.867850395144657, -32.92470600690865, 0.0 ], [ -68.867771966369901, -32.924674725595366, 0.0 ], [ -68.867733072478046, -32.92465926559678, 0.0 ], [ -68.867714052993321, -32.924651671298399, 0.0 ], [ -68.867681677137867, -32.924638742905536, 0.0 ], [ -68.867656673949966, -32.924628797877716, 0.0 ], [ -68.867584122239649, -32.924599776886389, 0.0 ], [ -68.867465731249354, -32.924552673516629, 0.0 ], [ -68.867270302386927, -32.924473929207387, 0.0 ], [ -68.867179045947637, -32.924441551874573, 0.0 ], [ -68.86707422065821, -32.924403028574247, 0.0 ], [ -68.867009573001695, -32.924379335607526, 0.0 ], [ -68.86687280110651, -32.924327072501008, 0.0 ], [ -68.866805173863426, -32.924436825922754, 0.0 ], [ -68.866581380142023, -32.924736578473642, 0.0 ], [ -68.866759627098148, -32.924865709838144, 0.0 ] ] ] ] } },
{ "type": "Feature", "properties": { "LAYER": "PARCELARIO_2026", "ccpp1": "1039 1524", "LAYER_2": "PADRONES" }, "geometry": { "type": "MultiPolygon", "coordinates": [ [ [ [ -68.853004276472987, -32.928352462084327, 0.0 ], [ -68.852919646652694, -32.929041445464676, 0.0 ], [ -68.851966787408912, -32.928941248637116, 0.0 ], [ -68.851959538846145, -32.928992894939853, 0.0 ], [ -68.851958458240915, -32.928999744670421, 0.0 ], [ -68.851937368604339, -32.929146568274504, 0.0 ], [ -68.851919414545151, -32.929271761434443, 0.0 ], [ -68.851911292697281, -32.929334133153453, 0.0 ], [ -68.851895160693118, -32.929455992226849, 0.0 ], [ -68.851892129396944, -32.929479156554017, 0.0 ], [ -68.85180374712985, -32.930104941740446, 0.0 ], [ -68.851760669702855, -32.93042292787765, 0.0 ], [ -68.851757313797748, -32.930447714847311, 0.0 ], [ -68.851748330056139, -32.930514502880079, 0.0 ], [ -68.851723329320507, -32.930698012268408, 0.0 ], [ -68.851708506335271, -32.930804006780441, 0.0 ], [ -68.85170753125584, -32.930811668149182, 0.0 ], [ -68.851704022263306, -32.930836550512844, 0.0 ], [ -68.854733441830689, -32.931103059858721, 0.0 ], [ -68.854732072602403, -32.931056993845459, 0.0 ], [ -68.854727223722364, -32.930884267588887, 0.0 ], [ -68.85472217427953, -32.930703426823371, 0.0 ], [ -68.854720461082223, -32.930639510634165, 0.0 ], [ -68.854719042423042, -32.930591641188173, 0.0 ], [ -68.854708648199463, -32.930214454801693, 0.0 ], [ -68.854685125540485, -32.929497670069168, 0.0 ], [ -68.854682919681963, -32.92940878290328, 0.0 ], [ -68.854670670977114, -32.928923508273286, 0.0 ], [ -68.854669465617562, -32.928875999736142, 0.0 ], [ -68.854666754191314, -32.928768721183253, 0.0 ], [ -68.854658977681282, -32.928490970267383, 0.0 ], [ -68.854653826881787, -32.928306884143787, 0.0 ], [ -68.854650692972285, -32.928196450991173, 0.0 ], [ -68.854647460701813, -32.928080788843779, 0.0 ], [ -68.854647159257127, -32.928068979108801, 0.0 ], [ -68.854613533079018, -32.928039732577666, 0.0 ], [ -68.854426573801902, -32.928034105742199, 0.0 ], [ -68.853620266129141, -32.9280098157368, 0.0 ], [ -68.853621293159733, -32.928099693413742, 0.0 ], [ -68.853607996022617, -32.928125459752991, 0.0 ], [ -68.853578551690376, -32.928153371221669, 0.0 ], [ -68.853534253923613, -32.928178199544554, 0.0 ], [ -68.853493673795086, -32.928218537605076, 0.0 ], [ -68.85339424637246, -32.928224641748514, 0.0 ], [ -68.853355128294297, -32.928219276809862, 0.0 ], [ -68.853342960000404, -32.92833843658935, 0.0 ], [ -68.853248579762521, -32.928330482939913, 0.0 ], [ -68.853243833694236, -32.928356349447988, 0.0 ], [ -68.853239051454565, -32.928404122378311, 0.0 ], [ -68.85308545626728, -32.92839096034902, 0.0 ], [ -68.853090103834617, -32.928360676370943, 0.0 ], [ -68.853004276472987, -32.928352462084327, 0.0 ] ] ] ] } },
{ "type": "Feature", "properties": { "LAYER": "PARCELARIO_2026", "ccpp1": "1039 1454", "LAYER_2": "PADRONES" }, "geometry": { "type": "MultiPolygon", "coordinates": [ [ [ [ -68.89125327272221, -32.888186918434727, 0.0 ], [ -68.891238796369862, -32.888139386650799, 0.0 ], [ -68.891222685355658, -32.888117732018266, 0.0 ], [ -68.891202617826167, -32.888097967495959, 0.0 ], [ -68.891172604405597, -32.888083874978776, 0.0 ], [ -68.891148241349171, -32.888081058529032, 0.0 ], [ -68.891105811556045, -32.888082824976465, 0.0 ], [ -68.891066795769774, -32.888089373353601, 0.0 ], [ -68.891046689106773, -32.888101618856496, 0.0 ], [ -68.891034485119036, -32.888118560043033, 0.0 ], [ -68.891029501197465, -32.888174009789665, 0.0 ], [ -68.89102734082816, -32.888192763111306, 0.0 ], [ -68.891024105680799, -32.888216474805027, 0.0 ], [ -68.891017649840776, -32.8882520860329, 0.0 ], [ -68.891013358123757, -32.888265878187994, 0.0 ], [ -68.890999425296897, -32.888298236805504, 0.0 ], [ -68.890989781976202, -32.888318606650316, 0.0 ], [ -68.890973701777739, -32.888359078625172, 0.0 ], [ -68.890958710373724, -32.888383140744011, 0.0 ], [ -68.890940498917004, -32.888418561378046, 0.0 ], [ -68.89092016140637, -32.888444692722473, 0.0 ], [ -68.890901965723046, -32.888467219162081, 0.0 ], [ -68.890869877133824, -32.888489462968792, 0.0 ], [ -68.890840992889977, -32.888513152272047, 0.0 ], [ -68.890804628100156, -32.888536474360166, 0.0 ], [ -68.890773608614865, -32.888558358398356, 0.0 ], [ -68.890730825325463, -32.888586724336463, 0.0 ], [ -68.890694458483978, -32.888611669436791, 0.0 ], [ -68.890667714345483, -32.888633106338858, 0.0 ], [ -68.890640965320472, -32.888658510677523, 0.0 ], [ -68.890621700921386, -32.888680945971672, 0.0 ], [ -68.890612064674229, -32.888695454791403, 0.0 ], [ -68.890609913178494, -32.888706904403271, 0.0 ], [ -68.890608819536695, -32.888727191526122, 0.0 ], [ -68.890612012047171, -32.888738285135339, 0.0 ], [ -68.890621612183352, -32.888753171456941, 0.0 ], [ -68.890638688773691, -32.888771761254837, 0.0 ], [ -68.890670716175507, -32.888799471214838, 0.0 ], [ -68.890697420065806, -32.888810855881324, 0.0 ], [ -68.890745484296971, -32.888833620529034, 0.0 ], [ -68.890804222865867, -32.888866854110837, 0.0 ], [ -68.890853352000079, -32.888892775570163, 0.0 ], [ -68.890901402392274, -32.888926901469851, 0.0 ], [ -68.890929162913551, -32.888948205624793, 0.0 ], [ -68.890930233286014, -32.888946854019729, 0.0 ], [ -68.890951581858104, -32.888967882069615, 0.0 ], [ -68.890985736701495, -32.889003889373249, 0.0 ], [ -68.891035885457455, -32.8890700271293, 0.0 ], [ -68.891045479409911, -32.889090053058844, 0.0 ], [ -68.891066816899695, -32.889120188171901, 0.0 ], [ -68.891078526897161, -32.889157708773787, 0.0 ], [ -68.89110405656416, -32.889255474457876, 0.0 ], [ -68.891132796086538, -32.889350267344909, 0.0 ], [ -68.891138118516963, -32.889367584470946, 0.0 ], [ -68.891147710098707, -32.889389594112806, 0.0 ], [ -68.891161581419539, -32.88940764003236, 0.0 ], [ -68.891180806050968, -32.889417755716146, 0.0 ], [ -68.891198954912696, -32.889433641291923, 0.0 ], [ -68.891229943861646, -32.889436914340855, 0.0 ], [ -68.891248112563517, -32.88943656946492, 0.0 ], [ -68.89126628677198, -32.889431716129486, 0.0 ], [ -68.891280193031491, -32.889421178419461, 0.0 ], [ -68.891299442782298, -32.889410735521778, 0.0 ], [ -68.891318698913295, -32.889395062811154, 0.0 ], [ -68.89133581935738, -32.889377945534058, 0.0 ], [ -68.891356162022177, -32.88934766634577, 0.0 ], [ -68.891376504893145, -32.889317206815711, 0.0 ], [ -68.891395782110791, -32.889284221618198, 0.0 ], [ -68.891412912417366, -32.889258989107603, 0.0 ], [ -68.891422549035354, -32.889244119550774, 0.0 ], [ -68.891443982349188, -32.889195807447173, 0.0 ], [ -68.891458994757855, -32.889154522967324, 0.0 ], [ -68.891470793305615, -32.889119547542968, 0.0 ], [ -68.891478318954483, -32.889082945363235, 0.0 ], [ -68.891504094648042, -32.888979182934129, 0.0 ], [ -68.891564189409635, -32.888776714940185, 0.0 ], [ -68.891567422786565, -32.888754355771582, 0.0 ], [ -68.891571745411355, -32.888715135898728, 0.0 ], [ -68.891572865190511, -32.888673208171333, 0.0 ], [ -68.891569694527249, -32.888644080756485, 0.0 ], [ -68.891551565421452, -32.888612054954976, 0.0 ], [ -68.891534501963605, -32.888582554813809, 0.0 ], [ -68.89151316993761, -32.888547911320352, 0.0 ], [ -68.891489692155162, -32.888520118824033, 0.0 ], [ -68.891459806305321, -32.888488894330401, 0.0 ], [ -68.89142992014655, -32.888457940336977, 0.0 ], [ -68.891403236506235, -32.888429964702411, 0.0 ], [ -68.891378682929286, -32.888408032251711, 0.0 ], [ -68.891359472027332, -32.888386825791422, 0.0 ], [ -68.891329595403306, -32.888348117226521, 0.0 ], [ -68.891306132152437, -32.888308512536035, 0.0 ], [ -68.891283736528521, -32.888269810461495, 0.0 ], [ -68.891267750852009, -32.888233007510188, 0.0 ], [ -68.89125327272221, -32.888186918434727, 0.0 ] ] ] ] } },
{ "type": "Feature", "properties": { "LAYER": "PARCELARIO_2026", "ccpp1": "1039 1455", "LAYER_2": "PADRONES" }, "geometry": { "type": "MultiPolygon", "coordinates": [ [ [ [ -68.885284152173625, -32.884323439003225, 0.0 ], [ -68.885234682237453, -32.884621519461568, 0.0 ], [ -68.885204742598262, -32.884822060051107, 0.0 ], [ -68.885179403441569, -32.88497951024236, 0.0 ], [ -68.885167175375543, -32.885048562378699, 0.0 ], [ -68.885172489797625, -32.885093365163662, 0.0 ], [ -68.885172461234006, -32.885115513419464, 0.0 ], [ -68.885169445931112, -32.885139167465098, 0.0 ], [ -68.885165842747199, -32.885156278287361, 0.0 ], [ -68.885157452219502, -32.885181438634255, 0.0 ], [ -68.885149049121679, -32.88521716861257, 0.0 ], [ -68.885143012700993, -32.885262340586067, 0.0 ], [ -68.885133340786396, -32.885355451326554, 0.0 ], [ -68.885130893628059, -32.88540175821943, 0.0 ], [ -68.88513444075295, -32.885428942105882, 0.0 ], [ -68.885135003954247, -32.885454613817828, 0.0 ], [ -68.885124800632497, -32.885497388868863, 0.0 ], [ -68.885118182555459, -32.885534483842349, 0.0 ], [ -68.885111541278235, -32.885592866859312, 0.0 ], [ -68.88510186734473, -32.885687487925921, 0.0 ], [ -68.885093999433948, -32.885770533816114, 0.0 ], [ -68.885083075845245, -32.885874518711383, 0.0 ], [ -68.885067975668434, -32.886010912914841, 0.0 ], [ -68.885062519602755, -32.886070036401875, 0.0 ], [ -68.885049252713657, -32.886173714363409, 0.0 ], [ -68.885035352534416, -32.886290269714777, 0.0 ], [ -68.885028673026753, -32.886377343644661, 0.0 ], [ -68.885014154590237, -32.886524072664862, 0.0 ], [ -68.885002670474591, -32.886633289547433, 0.0 ], [ -68.885002498610561, -32.886744835982704, 0.0 ], [ -68.884988101776756, -32.886798177700094, 0.0 ], [ -68.884975460050143, -32.88688021288862, 0.0 ], [ -68.884962138332966, -32.887019532881681, 0.0 ], [ -68.884939754203344, -32.887248034551419, 0.0 ], [ -68.884939710619008, -32.887281758714664, 0.0 ], [ -68.884943821793769, -32.887327318709772, 0.0 ], [ -68.884950882487772, -32.887406855389308, 0.0 ], [ -68.884956168737773, -32.887474308657012, 0.0 ], [ -68.88497517686416, -32.887561794824052, 0.0 ], [ -68.884978634514042, -32.887657435118356, 0.0 ], [ -68.884998133707143, -32.887840526381559, 0.0 ], [ -68.885028200581701, -32.888137629229043, 0.0 ], [ -68.885032797079248, -32.888186463706461, 0.0 ], [ -68.885042094763008, -32.88822707185642, 0.0 ], [ -68.885059325290442, -32.888286862687437, 0.0 ], [ -68.885109355387172, -32.888440392034518, 0.0 ], [ -68.885223308007241, -32.888788302858515, 0.0 ], [ -68.885298867227149, -32.889032141095306, 0.0 ], [ -68.885346643947798, -32.889187543783386, 0.0 ], [ -68.885387545697384, -32.889303143059195, 0.0 ], [ -68.885439983459634, -32.889439410657211, 0.0 ], [ -68.885596466358891, -32.889818179881168, 0.0 ], [ -68.885637088942232, -32.889918626773657, 0.0 ], [ -68.885725446437732, -32.8900923166496, 0.0 ], [ -68.885799309390734, -32.890149118592646, 0.0 ], [ -68.885880611377019, -32.890198808420827, 0.0 ], [ -68.886072467026509, -32.890289687267135, 0.0 ], [ -68.886262180036056, -32.890364009703859, 0.0 ], [ -68.886693132947045, -32.890500838649082, 0.0 ], [ -68.887357435102984, -32.890681635629278, 0.0 ], [ -68.887739830274924, -32.890637641477909, 0.0 ], [ -68.888019684398856, -32.890531393527702, 0.0 ], [ -68.888064114004294, -32.890530436934, 0.0 ], [ -68.888160287186508, -32.890539090858674, 0.0 ], [ -68.888357050706119, -32.890572578786333, 0.0 ], [ -68.888566612064238, -32.890568843334208, 0.0 ], [ -68.888720480381068, -32.890576324628789, 0.0 ], [ -68.888877249422308, -32.890586255504068, 0.0 ], [ -68.888990753188537, -32.890602769811821, 0.0 ], [ -68.889005483565342, -32.890602782886738, 0.0 ], [ -68.889065502001074, -32.89053819022633, 0.0 ], [ -68.889095941819818, -32.890478925556529, 0.0 ], [ -68.889126470901147, -32.890401160939859, 0.0 ], [ -68.889800237228187, -32.889783786228485, 0.0 ], [ -68.889922416628096, -32.889747125526839, 0.0 ], [ -68.88995501870393, -32.889724172788625, 0.0 ], [ -68.890073047657296, -32.889703447501354, 0.0 ], [ -68.890214981267036, -32.889624228671217, 0.0 ], [ -68.89029548909123, -32.889574148097459, 0.0 ], [ -68.890316298817496, -32.889538096855397, 0.0 ], [ -68.890352744667382, -32.889364364591721, 0.0 ], [ -68.890382934871013, -32.889194338195068, 0.0 ], [ -68.890356928245481, -32.889148678041956, 0.0 ], [ -68.890333665692111, -32.889132858191338, 0.0 ], [ -68.890277472726027, -32.889112700260931, 0.0 ], [ -68.890195751563667, -32.889072410350522, 0.0 ], [ -68.890006148649377, -32.888950059005637, 0.0 ], [ -68.889907619159388, -32.888922597827936, 0.0 ], [ -68.889804259766407, -32.888733172131992, 0.0 ], [ -68.889837927760198, -32.888699247664398, 0.0 ], [ -68.889884538549737, -32.888650928244552, 0.0 ], [ -68.889926966005532, -32.888623630788963, 0.0 ], [ -68.889979356657506, -32.888606155202979, 0.0 ], [ -68.890028146974245, -32.888565177422556, 0.0 ], [ -68.890062872002147, -32.888377887658805, 0.0 ], [ -68.890170791485801, -32.888276440186935, 0.0 ], [ -68.890158984185049, -32.888178730534641, 0.0 ], [ -68.8900229004728, -32.888129315409621, 0.0 ], [ -68.889825466829805, -32.888071216906901, 0.0 ], [ -68.889813078615219, -32.888031315116201, 0.0 ], [ -68.889835702072986, -32.887974288568302, 0.0 ], [ -68.889858313739438, -32.887926769451347, 0.0 ], [ -68.889885840871585, -32.887857227211079, 0.0 ], [ -68.889918231653795, -32.887803219997487, 0.0 ], [ -68.88995991959149, -32.887737523298291, 0.0 ], [ -68.889985881171043, -32.887703251164133, 0.0 ], [ -68.89000282262549, -32.887638921284655, 0.0 ], [ -68.890005490760359, -32.887618493982821, 0.0 ], [ -68.8899768909165, -32.887590238634331, 0.0 ], [ -68.889945204839194, -32.887562723558062, 0.0 ], [ -68.889869520202524, -32.887477501986666, 0.0 ], [ -68.889795091068478, -32.887421063502622, 0.0 ], [ -68.889748000141466, -32.887398473370439, 0.0 ], [ -68.889565940697068, -32.887359120669871, 0.0 ], [ -68.889445672404349, -32.887332675970484, 0.0 ], [ -68.889414580764196, -32.887091796463736, 0.0 ], [ -68.88946672130804, -32.886966102419187, 0.0 ], [ -68.889682536091854, -32.88695076041634, 0.0 ], [ -68.889734673054804, -32.886925954843548, 0.0 ], [ -68.889823711866413, -32.886853695922106, 0.0 ], [ -68.889847943906574, -32.88683685381077, 0.0 ], [ -68.889847471371027, -32.886793805684079, 0.0 ], [ -68.889831068425792, -32.886661354219065, 0.0 ], [ -68.889771486462209, -32.886590905667362, 0.0 ], [ -68.88980586756567, -32.886438666212641, 0.0 ], [ -68.889766959703081, -32.886381857743018, 0.0 ], [ -68.8896990886917, -32.88632566752873, 0.0 ], [ -68.88963707390073, -32.886233473344603, 0.0 ], [ -68.889592813495639, -32.886179012612196, 0.0 ], [ -68.889543652709975, -32.886171491465227, 0.0 ], [ -68.889490851206403, -32.886164608185567, 0.0 ], [ -68.889433936628279, -32.88615147702496, 0.0 ], [ -68.889402653695981, -32.886071826285402, 0.0 ], [ -68.889383704881766, -32.886041731760805, 0.0 ], [ -68.889348089606457, -32.885995612933009, 0.0 ], [ -68.889308428283684, -32.885965014958785, 0.0 ], [ -68.889259559575962, -32.885935864151612, 0.0 ], [ -68.88922985037226, -32.885909147734672, 0.0 ], [ -68.889224184743057, -32.885867507050953, 0.0 ], [ -68.889229184383993, -32.885818257410754, 0.0 ], [ -68.889240825076271, -32.885772211054302, 0.0 ], [ -68.88926295202873, -32.885726697865223, 0.0 ], [ -68.889295870545496, -32.885687133675432, 0.0 ], [ -68.889340340877993, -32.885631676541635, 0.0 ], [ -68.889289539483087, -32.885549796643247, 0.0 ], [ -68.889269189568822, -32.885405588920499, 0.0 ], [ -68.889241931548312, -32.885286515173377, 0.0 ], [ -68.889180154655236, -32.885040205408664, 0.0 ], [ -68.889176685217706, -32.884979676195968, 0.0 ], [ -68.889220424385101, -32.884864025937084, 0.0 ], [ -68.889243816683134, -32.884800261796272, 0.0 ], [ -68.889254666808327, -32.884765932230934, 0.0 ], [ -68.889253246900765, -32.884730424107602, 0.0 ], [ -68.889203660009926, -32.884691557797545, 0.0 ], [ -68.889133602740202, -32.88467769800878, 0.0 ], [ -68.889069101719386, -32.884650781184519, 0.0 ], [ -68.889012629763769, -32.884612599388198, 0.0 ], [ -68.888973097382532, -32.884561455439531, 0.0 ], [ -68.88895639060641, -32.884514610279474, 0.0 ], [ -68.888922431540024, -32.884405940542734, 0.0 ], [ -68.888904913563607, -32.884214459484113, 0.0 ], [ -68.888880166047443, -32.884150687800258, 0.0 ], [ -68.888746055284216, -32.884021071023696, 0.0 ], [ -68.888439747763414, -32.883785128965172, 0.0 ], [ -68.888287246476011, -32.883674409200019, 0.0 ], [ -68.888103961213488, -32.883550695362523, 0.0 ], [ -68.888030830610475, -32.883504456011408, 0.0 ], [ -68.887964539754478, -32.883462219048397, 0.0 ], [ -68.887903852909517, -32.883433606246186, 0.0 ], [ -68.887817012472553, -32.883402894260819, 0.0 ], [ -68.887586181976559, -32.883328387486166, 0.0 ], [ -68.887502812184408, -32.883304868503046, 0.0 ], [ -68.88741611220496, -32.883284985700271, 0.0 ], [ -68.887355441868493, -32.883273969188529, 0.0 ], [ -68.887278743157992, -32.883261054565594, 0.0 ], [ -68.887209090460345, -32.883257109080134, 0.0 ], [ -68.887087864955333, -32.883253050281908, 0.0 ], [ -68.887021733917976, -32.883257172615018, 0.0 ], [ -68.886960831210061, -32.883265945161824, 0.0 ], [ -68.886927335784378, -32.883272453061146, 0.0 ], [ -68.88688131183072, -32.883281239921445, 0.0 ], [ -68.886823984884174, -32.883295824342852, 0.0 ], [ -68.886787880094289, -32.883304620144138, 0.0 ], [ -68.886738818334365, -32.883318979370863, 0.0 ], [ -68.886693062659006, -32.883333574210283, 0.0 ], [ -68.886650484204978, -32.883348057397384, 0.0 ], [ -68.88661271582373, -32.883364983109061, 0.0 ], [ -68.886571358808283, -32.883387016351435, 0.0 ], [ -68.886499361688465, -32.883432329643796, 0.0 ], [ -68.886389172516274, -32.883502353371654, 0.0 ], [ -68.88631740290684, -32.883547609056514, 0.0 ], [ -68.886264353487519, -32.883581453666459, 0.0 ], [ -68.886179213436094, -32.883638728402801, 0.0 ], [ -68.886107133203495, -32.883691056563642, 0.0 ], [ -68.886061685585148, -32.883726912472589, 0.0 ], [ -68.885876705702216, -32.883884647407811, 0.0 ], [ -68.885767564303535, -32.883981792661075, 0.0 ], [ -68.88570155147886, -32.884025725052169, 0.0 ], [ -68.885640966583722, -32.884060285665477, 0.0 ], [ -68.885576126193911, -32.884100706967388, 0.0 ], [ -68.885515988531822, -32.884143086508914, 0.0 ], [ -68.885452761560984, -32.884191092461243, 0.0 ], [ -68.885366408008366, -32.884252933502559, 0.0 ], [ -68.885321688204684, -32.884285801595155, 0.0 ], [ -68.885284152173625, -32.884323439003225, 0.0 ] ] ] ] } },
{ "type": "Feature", "properties": { "LAYER": "PARCELARIO_2026", "ccpp1": "1039 1456", "LAYER_2": "PADRONES" }, "geometry": { "type": "MultiPolygon", "coordinates": [ [ [ [ -68.884921678258578, -32.890200412038624, 0.0 ], [ -68.884916467653596, -32.889436132944503, 0.0 ], [ -68.884626163831996, -32.888641474544883, 0.0 ], [ -68.884495546814421, -32.888492394397709, 0.0 ], [ -68.884402344493068, -32.888336044991973, 0.0 ], [ -68.884389770274623, -32.888307900565749, 0.0 ], [ -68.884374411804373, -32.88828408168753, 0.0 ], [ -68.884351575908184, -32.888257550815695, 0.0 ], [ -68.884329586555666, -32.888237512907921, 0.0 ], [ -68.884297021824807, -32.888213768273708, 0.0 ], [ -68.884271071953364, -32.888198595830346, 0.0 ], [ -68.884234117702576, -32.888180888456802, 0.0 ], [ -68.88420517054962, -32.888169500333319, 0.0 ], [ -68.884165218434404, -32.888156028117947, 0.0 ], [ -68.884108170682794, -32.888139744802238, 0.0 ], [ -68.884076653500699, -32.888132321713989, 0.0 ], [ -68.884034341226439, -32.888125790300705, 0.0 ], [ -68.883991807697626, -32.888125029499349, 0.0 ], [ -68.883863010132018, -32.888139156698962, 0.0 ], [ -68.88350467728668, -32.888299054161998, 0.0 ], [ -68.883452704233221, -32.888324884309256, 0.0 ], [ -68.88339410079071, -32.888354044514614, 0.0 ], [ -68.882978849717844, -32.88856041470504, 0.0 ], [ -68.882067184025203, -32.889004994315741, 0.0 ], [ -68.882085514341398, -32.889043964706069, 0.0 ], [ -68.88216206359327, -32.889102737024693, 0.0 ], [ -68.88229469379641, -32.889181850167475, 0.0 ], [ -68.8823575634691, -32.889240789827973, 0.0 ], [ -68.88275180279615, -32.889492912535552, 0.0 ], [ -68.882806184938602, -32.889504956015941, 0.0 ], [ -68.882852708950779, -32.889803549888086, 0.0 ], [ -68.882939558697785, -32.889994789950066, 0.0 ], [ -68.882939436214002, -32.89008793463249, 0.0 ], [ -68.882939262150899, -32.890220302871924, 0.0 ], [ -68.882939120219831, -32.890328235283064, 0.0 ], [ -68.882927419460628, -32.890367447935617, 0.0 ], [ -68.882892430518353, -32.89048012668492, 0.0 ], [ -68.882892327318231, -32.890558573797577, 0.0 ], [ -68.882921313049764, -32.890622350565636, 0.0 ], [ -68.882932668387866, -32.890764558030199, 0.0 ], [ -68.882920939007988, -32.8909067438804, 0.0 ], [ -68.882868613147167, -32.890955746925982, 0.0 ], [ -68.882854989847488, -32.890993965905736, 0.0 ], [ -68.88283080042703, -32.891102416789735, 0.0 ], [ -68.882826472171345, -32.891142898703926, 0.0 ], [ -68.882824216945195, -32.891232344433583, 0.0 ], [ -68.88283479423275, -32.891316031357057, 0.0 ], [ -68.88285607381772, -32.891388457155124, 0.0 ], [ -68.882882708315037, -32.891452412059827, 0.0 ], [ -68.882931751413267, -32.891543078018508, 0.0 ], [ -68.882971185961708, -32.891626070584067, 0.0 ], [ -68.883045934328294, -32.891720822701494, 0.0 ], [ -68.883886718261607, -32.891102049125394, 0.0 ], [ -68.884339765774044, -32.890767129695433, 0.0 ], [ -68.884574035703906, -32.890600352775522, 0.0 ], [ -68.884921678258578, -32.890200412038624, 0.0 ] ] ] ] } },
{ "type": "Feature", "properties": { "LAYER": "PARCELARIO_2026", "ccpp1": "1039 1447", "LAYER_2": "PADRONES" }, "geometry": { "type": "MultiPolygon", "coordinates": [ [ [ [ -68.874301732249023, -32.884439949117443, 0.0 ], [ -68.875160882318383, -32.886078509938045, 0.0 ], [ -68.875559215551306, -32.886405582924901, 0.0 ], [ -68.875681492681196, -32.88643908428925, 0.0 ], [ -68.875808422134014, -32.886450963058124, 0.0 ], [ -68.875935253346526, -32.886449005128533, 0.0 ], [ -68.877851671488031, -32.886084707868598, 0.0 ], [ -68.878913615051459, -32.88604645649437, 0.0 ], [ -68.87895660773674, -32.886411466317909, 0.0 ], [ -68.880031723375808, -32.886219926849947, 0.0 ], [ -68.879367776879036, -32.883719577506206, 0.0 ], [ -68.879100621200706, -32.883539167593291, 0.0 ], [ -68.874301671430842, -32.884439881429351, 0.0 ], [ -68.874301732249023, -32.884439949117443, 0.0 ] ] ] ] } },
{ "type": "Feature", "properties": { "LAYER": "PARCELARIO_2026", "ccpp1": "1039 1502", "LAYER_2": "PADRONES" }, "geometry": { "type": "MultiPolygon", "coordinates": [ [ [ [ -68.885070267774665, -32.883880855816258, 0.0 ], [ -68.885083255048926, -32.883837045467679, 0.0 ], [ -68.885090259015598, -32.883792327927246, 0.0 ], [ -68.885100157942901, -32.883657353568985, 0.0 ], [ -68.885111756155737, -32.883613361601078, 0.0 ], [ -68.885128268753903, -32.883570456177246, 0.0 ], [ -68.885166862045025, -32.883393128583627, 0.0 ], [ -68.885179528605534, -32.883349317927021, 0.0 ], [ -68.885195400165742, -32.883306231565271, 0.0 ], [ -68.885214750079967, -32.883217612889879, 0.0 ], [ -68.885233078555231, -32.883175250131757, 0.0 ], [ -68.885247347555051, -32.883131801614361, 0.0 ], [ -68.885250184016584, -32.883086809728034, 0.0 ], [ -68.885240056411149, -32.883067774709957, 0.0 ], [ -68.885228329795041, -32.883045672466899, 0.0 ], [ -68.885182086679521, -32.883022997524627, 0.0 ], [ -68.88502336835684, -32.883041967612179, 0.0 ], [ -68.88486507416043, -32.883063462629458, 0.0 ], [ -68.884812062043963, -32.883069094484455, 0.0 ], [ -68.884758740297016, -32.883066250115938, 0.0 ], [ -68.884599639808627, -32.883050143449417, 0.0 ], [ -68.884333573838802, -32.883029519407394, 0.0 ], [ -68.884227686450359, -32.883017699426127, 0.0 ], [ -68.88412115215425, -32.883010297052373, 0.0 ], [ -68.884068154697914, -32.883004657441163, 0.0 ], [ -68.883963021183121, -32.882988419638174, 0.0 ], [ -68.883911957065351, -32.882975297701201, 0.0 ], [ -68.88385992789074, -32.882964699588094, 0.0 ], [ -68.883807145501336, -32.882958068203529, 0.0 ], [ -68.883753715224259, -32.882956575845554, 0.0 ], [ -68.883700386749325, -32.882958960840014, 0.0 ], [ -68.883647586819961, -32.88296576459993, 0.0 ], [ -68.88359553021796, -32.882976175801979, 0.0 ], [ -68.883566450854914, -32.882985526343084, 0.0 ], [ -68.883495783551751, -32.883008363542274, 0.0 ], [ -68.883447135709545, -32.883027073434654, 0.0 ], [ -68.883401367282843, -32.883050294458158, 0.0 ], [ -68.883316018218324, -32.883104586957877, 0.0 ], [ -68.883278466702706, -32.883136652194374, 0.0 ], [ -68.883178257386504, -32.883195439195603, 0.0 ], [ -68.883038864490061, -32.883226868177623, 0.0 ], [ -68.882943312684347, -32.883238049948694, 0.0 ], [ -68.882845519662752, -32.883246975314599, 0.0 ], [ -68.882736296376478, -32.883252643792538, 0.0 ], [ -68.882715722420556, -32.883295094246321, 0.0 ], [ -68.882736292569788, -32.883336681586044, 0.0 ], [ -68.882784810281535, -32.883417067920313, 0.0 ], [ -68.882836856878811, -32.883495744323838, 0.0 ], [ -68.882865125800507, -32.883534002588647, 0.0 ], [ -68.882895854421491, -32.883570910610331, 0.0 ], [ -68.882954317382357, -32.883646346875857, 0.0 ], [ -68.882981944737068, -32.883684965190277, 0.0 ], [ -68.883012031793186, -32.883722233259604, 0.0 ], [ -68.883046504022403, -32.88375671017377, 0.0 ], [ -68.883144679968751, -32.883863562395391, 0.0 ], [ -68.88317893845479, -32.883898129242027, 0.0 ], [ -68.883252803985101, -32.883963300450191, 0.0 ], [ -68.883295835809861, -32.883990030724448, 0.0 ], [ -68.883389821409253, -32.884032948806592, 0.0 ], [ -68.883537226603138, -32.884086105703936, 0.0 ], [ -68.8835872189903, -32.884102022043066, 0.0 ], [ -68.883638069267008, -32.884115684927863, 0.0 ], [ -68.883741163713651, -32.884139495328483, 0.0 ], [ -68.88384511690586, -32.88416042102407, 0.0 ], [ -68.88395003652262, -32.884177830927314, 0.0 ], [ -68.883989572281564, -32.884181384208553, 0.0 ], [ -68.884003142592363, -32.884182659165468, 0.0 ], [ -68.884056471322936, -32.884180634720757, 0.0 ], [ -68.884109484030816, -32.884175093357797, 0.0 ], [ -68.88426957706082, -32.884169019918232, 0.0 ], [ -68.884429874672435, -32.884169979668151, 0.0 ], [ -68.884483308848274, -32.884169037170444, 0.0 ], [ -68.884536744776966, -32.884166742112022, 0.0 ], [ -68.884589862793746, -32.884162372843512, 0.0 ], [ -68.884642557197353, -32.884155027574806, 0.0 ], [ -68.884694401337015, -32.884144074727963, 0.0 ], [ -68.884745713469599, -32.884131317983325, 0.0 ], [ -68.88479585368124, -32.884115764889799, 0.0 ], [ -68.884941371207915, -32.884059182354385, 0.0 ], [ -68.884989166357485, -32.884038938221956, 0.0 ], [ -68.885017421848062, -32.884005691729229, 0.0 ], [ -68.885051022922809, -32.883970646757021, 0.0 ], [ -68.885062514452102, -32.883926564528615, 0.0 ], [ -68.885070267774665, -32.883880855816258, 0.0 ] ] ] ] } },
{ "type": "Feature", "properties": { "LAYER": "PARCELARIO_2026", "ccpp1": "1039 1504", "LAYER_2": "PADRONES" }, "geometry": { "type": "MultiPolygon", "coordinates": [ [ [ [ -68.882880848172178, -32.891839775371281, 0.0 ], [ -68.882998937962668, -32.891754685942082, 0.0 ], [ -68.882917769948378, -32.891609790130367, 0.0 ], [ -68.882849546836596, -32.891475464311966, 0.0 ], [ -68.882817580147005, -32.891402757992303, 0.0 ], [ -68.882790958058905, -32.891329425488742, 0.0 ], [ -68.882775019048808, -32.891259439253588, 0.0 ], [ -68.88277403865149, -32.89119235245294, 0.0 ], [ -68.882782510169449, -32.89109493265439, 0.0 ], [ -68.882806678661197, -32.890997076563124, 0.0 ], [ -68.880999763483146, -32.891112316032682, 0.0 ], [ -68.880885792356182, -32.891123030536328, 0.0 ], [ -68.88083371501051, -32.891110404122877, 0.0 ], [ -68.880781637679675, -32.891097777687754, 0.0 ], [ -68.88063291491153, -32.891122346685812, 0.0 ], [ -68.880523917853111, -32.891191042595402, 0.0 ], [ -68.880499832753529, -32.891188580505791, 0.0 ], [ -68.880482824407096, -32.891276413391004, 0.0 ], [ -68.880626371010706, -32.891408447286452, 0.0 ], [ -68.880746897528525, -32.891580138016089, 0.0 ], [ -68.880698113706998, -32.891587130092596, 0.0 ], [ -68.880732479749014, -32.891627475713449, 0.0 ], [ -68.880765496022761, -32.891650245161507, 0.0 ], [ -68.880940031734227, -32.891720200600162, 0.0 ], [ -68.880983990832235, -32.891791874648995, 0.0 ], [ -68.88091459054931, -32.892137711089944, 0.0 ], [ -68.880861247937673, -32.892157672429335, 0.0 ], [ -68.880074675656971, -32.892216929073982, 0.0 ], [ -68.879948320434949, -32.892543799136547, 0.0 ], [ -68.879781971092811, -32.892579715352738, 0.0 ], [ -68.880656105020662, -32.892528108204537, 0.0 ], [ -68.880801593546565, -32.892538143935582, 0.0 ], [ -68.880947517642056, -32.892541374844498, 0.0 ], [ -68.881093430544837, -32.892537791487989, 0.0 ], [ -68.881238884398627, -32.89252740335931, 0.0 ], [ -68.881383434522462, -32.892510243400793, 0.0 ], [ -68.881526638347466, -32.892486364396035, 0.0 ], [ -68.881668057554734, -32.892455838971749, 0.0 ], [ -68.881807258075852, -32.892418759597909, 0.0 ], [ -68.881943815433502, -32.892375241297543, 0.0 ], [ -68.88207730940411, -32.892325417133307, 0.0 ], [ -68.882207332565969, -32.892269440018644, 0.0 ], [ -68.882333487096687, -32.892207480009624, 0.0 ], [ -68.882455385838924, -32.892139727010822, 0.0 ], [ -68.882572656576627, -32.892066389877435, 0.0 ], [ -68.882684938835141, -32.891987691903722, 0.0 ], [ -68.882791889220172, -32.891903874434462, 0.0 ], [ -68.882880848172178, -32.891839775371281, 0.0 ] ] ] ] } },
{ "type": "Feature", "properties": { "LAYER": "PARCELARIO_2026", "ccpp1": "1039 1484", "LAYER_2": "PADRONES" }, "geometry": { "type": "MultiPolygon", "coordinates": [ [ [ [ -68.880479649119067, -32.898566889138358, 0.0 ], [ -68.880425652714905, -32.898997296603511, 0.0 ], [ -68.880419280001817, -32.899466018225517, 0.0 ], [ -68.881116897338416, -32.899486994028592, 0.0 ], [ -68.881144478066659, -32.89993715039838, 0.0 ], [ -68.881475535442505, -32.899951113704908, 0.0 ], [ -68.882109513400636, -32.899903444646, 0.0 ], [ -68.885965840605792, -32.899093822197827, 0.0 ], [ -68.888620373190236, -32.89932950578693, 0.0 ], [ -68.887545877542308, -32.891941734957456, 0.0 ], [ -68.887341014313151, -32.891885547383559, 0.0 ], [ -68.886595772017472, -32.891471643697074, 0.0 ], [ -68.885982713353727, -32.891347228036338, 0.0 ], [ -68.885557243849803, -32.891283961708446, 0.0 ], [ -68.885444655984273, -32.891332889928876, 0.0 ], [ -68.885101064634085, -32.89209253959671, 0.0 ], [ -68.884757467402181, -32.892852188215123, 0.0 ], [ -68.884437241207067, -32.893396422515387, 0.0 ], [ -68.883922661292416, -32.893893351479761, 0.0 ], [ -68.881777424136459, -32.896128671209155, 0.0 ], [ -68.881392818358663, -32.896563633138804, 0.0 ], [ -68.881129101820619, -32.89693330601829, 0.0 ], [ -68.880903872203305, -32.897322178619206, 0.0 ], [ -68.88071967276916, -32.897726131041246, 0.0 ], [ -68.880577906131776, -32.898142090037005, 0.0 ], [ -68.880479649119067, -32.898566889138358, 0.0 ] ] ] ] } },
{ "type": "Feature", "properties": { "LAYER": "PARCELARIO_2026", "ccpp1": "1039 1507", "LAYER_2": "PADRONES" }, "geometry": { "type": "MultiPolygon", "coordinates": [ [ [ [ -68.888600963580046, -32.882713382185614, 0.0 ], [ -68.887936813438927, -32.883281149700665, 0.0 ], [ -68.889183623738859, -32.884143624477147, 0.0 ], [ -68.889543174491209, -32.884014008565586, 0.0 ], [ -68.889658650067176, -32.884051350420869, 0.0 ], [ -68.889724430727398, -32.884176924114009, 0.0 ], [ -68.889669322936129, -32.884321146400794, 0.0 ], [ -68.889554986847145, -32.884484883109046, 0.0 ], [ -68.890367023410064, -32.884691273741495, 0.0 ], [ -68.890339921691108, -32.884483319572695, 0.0 ], [ -68.890167190801989, -32.884078488159368, 0.0 ], [ -68.889928413515094, -32.883764308703554, 0.0 ], [ -68.889264684630177, -32.883238847219488, 0.0 ], [ -68.888600963580046, -32.882713382185614, 0.0 ] ] ] ] } },
{ "type": "Feature", "properties": { "LAYER": "PARCELARIO_2026", "ccpp1": "1039 1508", "LAYER_2": "PADRONES" }, "geometry": { "type": "MultiPolygon", "coordinates": [ [ [ [ -68.887212077483483, -32.881510540885067, 0.0 ], [ -68.88723515660304, -32.882863184920261, 0.0 ], [ -68.887399320143032, -32.88293204877094, 0.0 ], [ -68.887836150480055, -32.883211515328838, 0.0 ], [ -68.887936813438927, -32.883281149700665, 0.0 ], [ -68.888600963580046, -32.882713382185614, 0.0 ], [ -68.888191973654074, -32.882389489688002, 0.0 ], [ -68.887212077483483, -32.881510540885067, 0.0 ] ] ] ] } },
{ "type": "Feature", "properties": { "LAYER": "PARCELARIO_2026", "ccpp1": "1039 1506", "LAYER_2": "PADRONES" }, "geometry": { "type": "MultiPolygon", "coordinates": [ [ [ [ -68.884661356157977, -32.88209666405794, 0.0 ], [ -68.885593639058342, -32.882344309492183, 0.0 ], [ -68.886632656754401, -32.882610443579559, 0.0 ], [ -68.88723515660304, -32.882863184920261, 0.0 ], [ -68.887212077483483, -32.881510540885067, 0.0 ], [ -68.887063707149636, -32.881377407220896, 0.0 ], [ -68.883820272110981, -32.881849835805035, 0.0 ], [ -68.884661356157977, -32.88209666405794, 0.0 ] ] ] ] } },
{ "type": "Feature", "properties": { "LAYER": "PARCELARIO_2026", "ccpp1": "1039 1519", "LAYER_2": "PADRONES" }, "geometry": { "type": "MultiPolygon", "coordinates": [ [ [ [ -68.866389224073302, -32.925817543483632, 0.0 ], [ -68.866440924456356, -32.925667303790796, 0.0 ], [ -68.866466397124483, -32.925593281786064, 0.0 ], [ -68.8664915701507, -32.925520128681157, 0.0 ], [ -68.866514128331616, -32.92545457580065, 0.0 ], [ -68.866540676864858, -32.925377426073887, 0.0 ], [ -68.865988062130498, -32.925208706264229, 0.0 ], [ -68.865945859686647, -32.925195820987781, 0.0 ], [ -68.865945370078052, -32.925197197338434, 0.0 ], [ -68.865778468035899, -32.925666682515271, 0.0 ], [ -68.866389224073302, -32.925817543483632, 0.0 ] ] ] ] } },
{ "type": "Feature", "properties": { "LAYER": "PARCELARIO_2026", "ccpp1": "1039 1510", "LAYER_2": "PADRONES" }, "geometry": { "type": "MultiPolygon", "coordinates": [ [ [ [ -68.879177363894883, -32.892830737762544, 0.0 ], [ -68.877758683066958, -32.89893744507161, 0.0 ], [ -68.877783946970112, -32.898926680135681, 0.0 ], [ -68.877976680818733, -32.898836078024672, 0.0 ], [ -68.879147049179451, -32.898110920723312, 0.0 ], [ -68.879616266702669, -32.897610315400108, 0.0 ], [ -68.88132920286543, -32.895950340602582, 0.0 ], [ -68.881918579173686, -32.895379167747329, 0.0 ], [ -68.882433518340321, -32.894880124028404, 0.0 ], [ -68.883444846919346, -32.89390150737038, 0.0 ], [ -68.883960903106129, -32.893364616968462, 0.0 ], [ -68.884270517437528, -32.892894137863145, 0.0 ], [ -68.884360712595139, -32.892673631431471, 0.0 ], [ -68.884378617233253, -32.892588305565624, 0.0 ], [ -68.884378687961842, -32.892500120174127, 0.0 ], [ -68.884355245232328, -32.892414181695685, 0.0 ], [ -68.884309396173037, -32.892334732699787, 0.0 ], [ -68.884257112968228, -32.892280184262845, 0.0 ], [ -68.883862519523248, -32.891946812805642, 0.0 ], [ -68.883789387062123, -32.891896777610995, 0.0 ], [ -68.883704787480156, -32.891861904479079, 0.0 ], [ -68.883613058608844, -32.891843980970641, 0.0 ], [ -68.883518901701947, -32.891843926666397, 0.0 ], [ -68.883427246878711, -32.891861721810983, 0.0 ], [ -68.883138726999022, -32.891973065747372, 0.0 ], [ -68.882628436053679, -32.892340238257269, 0.0 ], [ -68.882287595942699, -32.892532263171262, 0.0 ], [ -68.881744265248741, -32.892690839632316, 0.0 ], [ -68.880398982442927, -32.892758322335133, 0.0 ], [ -68.879199449520911, -32.892829428202376, 0.0 ], [ -68.879177363894883, -32.892830737762544, 0.0 ] ] ] ] } },
{ "type": "Feature", "properties": { "LAYER": "PARCELARIO_2026", "ccpp1": "1039 1450", "LAYER_2": "PADRONES" }, "geometry": { "type": "MultiPolygon", "coordinates": [ [ [ [ -68.872452994154969, -32.900175225260988, 0.0 ], [ -68.873276162454204, -32.900096312221066, 0.0 ], [ -68.874253406350363, -32.899955162635258, 0.0 ], [ -68.874965683607712, -32.899820611608888, 0.0 ], [ -68.875882945810929, -32.899606591284424, 0.0 ], [ -68.876436089336366, -32.899454528883233, 0.0 ], [ -68.876818265914437, -32.89932852229434, 0.0 ], [ -68.877286071433886, -32.899149069728566, 0.0 ], [ -68.877758683066958, -32.89893744507161, 0.0 ], [ -68.879176551556299, -32.89283000841079, 0.0 ], [ -68.876820379479199, -32.892969643187534, 0.0 ], [ -68.874883784872921, -32.893097882472425, 0.0 ], [ -68.874318145192021, -32.893049091892678, 0.0 ], [ -68.872840069119817, -32.896082694277709, 0.0 ], [ -68.872395898013195, -32.899836258499072, 0.0 ], [ -68.872452994154969, -32.900175225260988, 0.0 ] ] ] ] } },
{ "type": "Feature", "properties": { "LAYER": "PARCELARIO_2026", "ccpp1": "1039 1512", "LAYER_2": "PADRONES" }, "geometry": { "type": "MultiPolygon", "coordinates": [ [ [ [ -68.872478557357681, -32.900326987813898, 0.0 ], [ -68.872493775563726, -32.900417331080476, 0.0 ], [ -68.872615601113722, -32.900415290293616, 0.0 ], [ -68.873566013966695, -32.900477943190815, 0.0 ], [ -68.874036384738076, -32.900447066153717, 0.0 ], [ -68.875831172048635, -32.900069266768284, 0.0 ], [ -68.876661725900277, -32.899905913474669, 0.0 ], [ -68.876634732819682, -32.899849146159696, 0.0 ], [ -68.876560654140704, -32.899758286328655, 0.0 ], [ -68.876482255696331, -32.899701052541644, 0.0 ], [ -68.876377345801615, -32.899656076228432, 0.0 ], [ -68.875870853824779, -32.899784469318902, 0.0 ], [ -68.874601556974852, -32.900044684964143, 0.0 ], [ -68.873340653045162, -32.90023491780714, 0.0 ], [ -68.872478557357681, -32.900326987813898, 0.0 ] ] ] ] } },
{ "type": "Feature", "properties": { "LAYER": "PARCELARIO_2026", "ccpp1": "1039 1509", "LAYER_2": "PADRONES" }, "geometry": { "type": "MultiPolygon", "coordinates": [ [ [ [ -68.87928021649131, -32.892162333668587, 0.0 ], [ -68.879290958122837, -32.892189442580388, 0.0 ], [ -68.879399454595031, -32.892278841796525, 0.0 ], [ -68.879525458236998, -32.892349557599786, 0.0 ], [ -68.879625393093775, -32.892432799733712, 0.0 ], [ -68.879650051284557, -32.892527011480524, 0.0 ], [ -68.879781971092811, -32.892579715352738, 0.0 ], [ -68.879948320434949, -32.892543799136547, 0.0 ], [ -68.880074675656971, -32.892216929073982, 0.0 ], [ -68.880861247937673, -32.892157672429335, 0.0 ], [ -68.88091459054931, -32.892137711089944, 0.0 ], [ -68.880983990832235, -32.891791874648995, 0.0 ], [ -68.880940031734227, -32.891720200600162, 0.0 ], [ -68.880765496022761, -32.891650245161507, 0.0 ], [ -68.880732479749014, -32.891627475713449, 0.0 ], [ -68.880698113706998, -32.891587130092596, 0.0 ], [ -68.880746897528525, -32.891580138016089, 0.0 ], [ -68.880626371010706, -32.891408447286452, 0.0 ], [ -68.880482824407096, -32.891276413391004, 0.0 ], [ -68.880499832753529, -32.891188580505791, 0.0 ], [ -68.880523917853111, -32.891191042595402, 0.0 ], [ -68.88063291491153, -32.891122346685812, 0.0 ], [ -68.880781637679675, -32.891097777687754, 0.0 ], [ -68.880885792356182, -32.891123030536328, 0.0 ], [ -68.880999763483146, -32.891112316032682, 0.0 ], [ -68.88105050042266, -32.891070326522168, 0.0 ], [ -68.881090568600328, -32.890999937075229, 0.0 ], [ -68.881129766903356, -32.890984663611313, 0.0 ], [ -68.881224425706449, -32.89098033706523, 0.0 ], [ -68.881290393752266, -32.890937043647916, 0.0 ], [ -68.881321368451808, -32.890868552571369, 0.0 ], [ -68.881408973865319, -32.890717903433696, 0.0 ], [ -68.8813997966204, -32.890547840123183, 0.0 ], [ -68.881424021564584, -32.890486124241079, 0.0 ], [ -68.881528138421061, -32.890372362656642, 0.0 ], [ -68.881537828623848, -32.890316147729031, 0.0 ], [ -68.881519099672531, -32.890174378580852, 0.0 ], [ -68.881558231112066, -32.890074084368486, 0.0 ], [ -68.881618514301323, -32.890011893133227, 0.0 ], [ -68.881674113633721, -32.889932467903328, 0.0 ], [ -68.881792776935995, -32.889739902036979, 0.0 ], [ -68.881829183362314, -32.889608459806979, 0.0 ], [ -68.881812293319385, -32.889453844211708, 0.0 ], [ -68.881758246434515, -32.889340784939776, 0.0 ], [ -68.881565771575481, -32.889156268063225, 0.0 ], [ -68.881474377525322, -32.888998449353601, 0.0 ], [ -68.881577098854265, -32.888869507288433, 0.0 ], [ -68.881717947153419, -32.888850889891835, 0.0 ], [ -68.881856444910099, -32.888971071215458, 0.0 ], [ -68.883972586067813, -32.888026531525746, 0.0 ], [ -68.884320440163947, -32.888097991891783, 0.0 ], [ -68.884300823220158, -32.887811642209186, 0.0 ], [ -68.884274386631802, -32.887595482060121, 0.0 ], [ -68.884258486231914, -32.886920788519163, 0.0 ], [ -68.884360404698711, -32.886286844090378, 0.0 ], [ -68.884399168740032, -32.886289583201808, 0.0 ], [ -68.884500443637435, -32.885654473010675, 0.0 ], [ -68.884536310999664, -32.885659910875958, 0.0 ], [ -68.884629876393433, -32.885036773287595, 0.0 ], [ -68.884524718843693, -32.884799825862352, 0.0 ], [ -68.884350838444391, -32.88465568016715, 0.0 ], [ -68.881687370355934, -32.883550956725983, 0.0 ], [ -68.881586070805596, -32.883700369679424, 0.0 ], [ -68.881164290437042, -32.883534602737647, 0.0 ], [ -68.88080086208366, -32.883395142791144, 0.0 ], [ -68.880341696309841, -32.88331094155992, 0.0 ], [ -68.879100621200706, -32.883539167593291, 0.0 ], [ -68.879367776879036, -32.883719577506206, 0.0 ], [ -68.880031723375808, -32.886219926849947, 0.0 ], [ -68.87895660773674, -32.886411466317909, 0.0 ], [ -68.878913615051459, -32.88604645649437, 0.0 ], [ -68.877851671488031, -32.886084707868598, 0.0 ], [ -68.875935253346526, -32.886449005128533, 0.0 ], [ -68.875808422134014, -32.886450963058124, 0.0 ], [ -68.875681492681196, -32.88643908428925, 0.0 ], [ -68.875559215551306, -32.886405582924901, 0.0 ], [ -68.875474979092388, -32.886336415904765, 0.0 ], [ -68.875361341098667, -32.886432162542441, 0.0 ], [ -68.875467382201322, -32.886543956324267, 0.0 ], [ -68.876054039673704, -32.886625774396713, 0.0 ], [ -68.877577616296534, -32.888353528253383, 0.0 ], [ -68.877482521134382, -32.888806520163556, 0.0 ], [ -68.877878189602711, -32.889257312339275, 0.0 ], [ -68.877797219320016, -32.889850400592408, 0.0 ], [ -68.877786066048444, -32.889888570942887, 0.0 ], [ -68.877731112580392, -32.889914659083686, 0.0 ], [ -68.877096220037984, -32.890339465860819, 0.0 ], [ -68.876192765304665, -32.890921331893367, 0.0 ], [ -68.87578448804102, -32.891182042568296, 0.0 ], [ -68.875100792243245, -32.891649345060301, 0.0 ], [ -68.875047036291079, -32.891711798437335, 0.0 ], [ -68.875007507485833, -32.891762820837826, 0.0 ], [ -68.874921076531777, -32.891876197900807, 0.0 ], [ -68.87491064211585, -32.891927292647239, 0.0 ], [ -68.874900291951278, -32.891993716236229, 0.0 ], [ -68.875740749872563, -32.891968227486814, 0.0 ], [ -68.875929663575874, -32.891923800251448, 0.0 ], [ -68.876513179299593, -32.891736902570543, 0.0 ], [ -68.876724610811777, -32.8917201584662, 0.0 ], [ -68.877099503793971, -32.89155977024086, 0.0 ], [ -68.877247091596274, -32.891434099431784, 0.0 ], [ -68.877609944333415, -32.891243225169568, 0.0 ], [ -68.877972014112089, -32.891054021721068, 0.0 ], [ -68.8781641403218, -32.89097622712432, 0.0 ], [ -68.878350971372555, -32.890954950541165, 0.0 ], [ -68.878560026923665, -32.890990761541993, 0.0 ], [ -68.878628402260929, -32.891031151585082, 0.0 ], [ -68.878912203724809, -32.891136917446403, 0.0 ], [ -68.878932088160937, -32.8911672110045, 0.0 ], [ -68.879045297675603, -32.891229561640827, 0.0 ], [ -68.879046253256391, -32.891303405721615, 0.0 ], [ -68.879046049930196, -32.891366523957338, 0.0 ], [ -68.879265158169886, -32.891681358523407, 0.0 ], [ -68.87928021649131, -32.892162333668587, 0.0 ] ] ] ] } },
{ "type": "Feature", "properties": { "LAYER": "PARCELARIO_2026", "ccpp1": "1039 1514", "LAYER_2": "PADRONES" }, "geometry": { "type": "MultiPolygon", "coordinates": [ [ [ [ -68.876282759619301, -32.900620833587517, 0.0 ], [ -68.874920704589854, -32.90081103119703, 0.0 ], [ -68.87496189627123, -32.901421112029354, 0.0 ], [ -68.874956850622723, -32.901705543770674, 0.0 ], [ -68.876352498873601, -32.901635600604237, 0.0 ], [ -68.876282759619301, -32.900620833587517, 0.0 ] ] ] ] } },
{ "type": "Feature", "properties": { "LAYER": "PARCELARIO_2026", "ccpp1": "1039 1515", "LAYER_2": "PADRONES" }, "geometry": { "type": "MultiPolygon", "coordinates": [ [ [ [ -68.86543127033859, -32.930562183119768, 0.0 ], [ -68.865445943545481, -32.930499089912516, 0.0 ], [ -68.865450319646243, -32.930480150200097, 0.0 ], [ -68.86523595197589, -32.930429143487324, 0.0 ], [ -68.865217224451683, -32.930511086553153, 0.0 ], [ -68.86543127033859, -32.930562183119768, 0.0 ] ] ] ] } },
{ "type": "Feature", "properties": { "LAYER": "PARCELARIO_2026", "ccpp1": "1039 1515", "LAYER_2": "PADRONES" }, "geometry": { "type": "MultiPolygon", "coordinates": [ [ [ [ -68.864582241945158, -32.929787346977243, 0.0 ], [ -68.864403504986413, -32.930837912175733, 0.0 ], [ -68.865632125543343, -32.931135552421338, 0.0 ], [ -68.865858687880959, -32.93010935744514, 0.0 ], [ -68.864582241945158, -32.929787346977243, 0.0 ] ] ] ] } },
{ "type": "Feature", "properties": { "LAYER": "PARCELARIO_2026", "ccpp1": "1039 1552", "LAYER_2": "PADRONES" }, "geometry": { "type": "MultiPolygon", "coordinates": [ [ [ [ -68.865572580123867, -32.934153318621568, 0.0 ], [ -68.865648777623875, -32.934168920372436, 0.0 ], [ -68.865650292020021, -32.934165169185391, 0.0 ], [ -68.865783819910021, -32.93383464563982, 0.0 ], [ -68.865734281026633, -32.933824210419154, 0.0 ], [ -68.865680081685298, -32.933812793644407, 0.0 ], [ -68.865686862686488, -32.933790296664085, 0.0 ], [ -68.865183188485716, -32.933704670375974, 0.0 ], [ -68.865183155347111, -32.933704664930126, 0.0 ], [ -68.865166426906256, -32.93370182100022, 0.0 ], [ -68.865092471055306, -32.934128562152694, 0.0 ], [ -68.865091653614343, -32.934128909320854, 0.0 ], [ -68.865092402023294, -32.934128957016419, 0.0 ], [ -68.86547699390826, -32.934145398152808, 0.0 ], [ -68.865548923672876, -32.934148474565511, 0.0 ], [ -68.865572580123867, -32.934153318621568, 0.0 ] ] ] ] } },
{ "type": "Feature", "properties": { "LAYER": "PARCELARIO_2026", "ccpp1": "1039 1451", "LAYER_2": "PADRONES" }, "geometry": { "type": "MultiPolygon", "coordinates": [ [ [ [ -68.867955187763414, -32.922182731894488, 0.0 ], [ -68.867974433424109, -32.922179506149995, 0.0 ], [ -68.868510411296811, -32.921309571339499, 0.0 ], [ -68.868502748421861, -32.921286844362221, 0.0 ], [ -68.868145311291627, -32.92113050655766, 0.0 ], [ -68.868122218170484, -32.921133727368463, 0.0 ], [ -68.867578550702405, -32.921997162945132, 0.0 ], [ -68.867586213402831, -32.922019889074349, 0.0 ], [ -68.867955187763414, -32.922182731894488, 0.0 ] ] ] ] } },
{ "type": "Feature", "properties": { "LAYER": "PARCELARIO_2026", "ccpp1": "1039 1491", "LAYER_2": "PADRONES" }, "geometry": { "type": "MultiPolygon", "coordinates": [ [ [ [ -68.882825649725945, -32.881982955958215, 0.0 ], [ -68.882275805691322, -32.882056822111437, 0.0 ], [ -68.882263124202424, -32.882058448551071, 0.0 ], [ -68.882178464868801, -32.882093204846448, 0.0 ], [ -68.882168343680988, -32.882097359331155, 0.0 ], [ -68.882158188889576, -32.882100257724659, 0.0 ], [ -68.882123461192975, -32.882110165266425, 0.0 ], [ -68.882012211795129, -32.882141033531909, 0.0 ], [ -68.881690251460171, -32.88223027114126, 0.0 ], [ -68.881314414026988, -32.88237006614073, 0.0 ], [ -68.880939323844729, -32.882561525933689, 0.0 ], [ -68.880920337658495, -32.88257166362888, 0.0 ], [ -68.880130943169064, -32.88299310212858, 0.0 ], [ -68.879984339179572, -32.883057973608977, 0.0 ], [ -68.87973992730754, -32.883132196144032, 0.0 ], [ -68.879706840176894, -32.883142255172473, 0.0 ], [ -68.884763526554252, -32.882341392368467, 0.0 ], [ -68.88477913086966, -32.882338855854407, 0.0 ], [ -68.883947813524827, -32.882069069770175, 0.0 ], [ -68.883780088799185, -32.882027700334369, 0.0 ], [ -68.883599291636855, -32.881997781735166, 0.0 ], [ -68.883408607481712, -32.881982650445536, 0.0 ], [ -68.883224019384485, -32.881972832825532, 0.0 ], [ -68.88303258714528, -32.881976534833861, 0.0 ], [ -68.882865318033367, -32.881977581151943, 0.0 ], [ -68.882825649725945, -32.881982955958215, 0.0 ] ] ] ] } }
]
}
