{
"type": "FeatureCollection",
"name": "canal civit area de influencia",
"crs": { "type": "name", "properties": { "name": "urn:ogc:def:crs:OGC:1.3:CRS84" } },
"features": [
{ "type": "Feature", "properties": { "LAYER": "AREA_DE_INFLUENCIA_CANAL_C", "GM_TYPE": "Unknown Area Type", "MAP_NAME": "area de influencia_Cl.Civit_2026.dwg", "CLOSED": "YES", "BORDER_STY": "Solid", "BORDER_COL": "RGB(255,0,0)", "BORDER_WID": 1, "FILL_STYLE": "No Fill" }, "geometry": { "type": "MultiPolygon", "coordinates": [ [ [ [ -68.891049480572249, -32.881940070635473, 0.0 ], [ -68.882625765147552, -32.875956149549467, 0.0 ], [ -68.875848472321266, -32.873717463153042, 0.0 ], [ -68.874765287732615, -32.876272235517135, 0.0 ], [ -68.874417954017403, -32.877289713144997, 0.0 ], [ -68.8743117061845, -32.877557465131119, 0.0 ], [ -68.874094935284973, -32.878845790424471, 0.0 ], [ -68.873911239974845, -32.880911448358148, 0.0 ], [ -68.873587232230506, -32.882932609234054, 0.0 ], [ -68.873978005735481, -32.884222350543503, 0.0 ], [ -68.875003200180601, -32.886174225408013, 0.0 ], [ -68.875352933304427, -32.886343214607024, 0.0 ], [ -68.875237707048541, -32.886511739852381, 0.0 ], [ -68.875452559316543, -32.886604706077023, 0.0 ], [ -68.875987409670856, -32.886681125636152, 0.0 ], [ -68.877495988549754, -32.88837967545183, 0.0 ], [ -68.87740091884676, -32.888844948603797, 0.0 ], [ -68.877792730508787, -32.889258321874202, 0.0 ], [ -68.877736663199769, -32.889834548398412, 0.0 ], [ -68.874855817578663, -32.891724620715252, 0.0 ], [ -68.874791124009604, -32.891948483573593, 0.0 ], [ -68.874839169783414, -32.892118173999826, 0.0 ], [ -68.875732495290919, -32.892071565042301, 0.0 ], [ -68.876481259214771, -32.891814450645647, 0.0 ], [ -68.876746849974722, -32.891794355578803, 0.0 ], [ -68.877358897794338, -32.891469244318813, 0.0 ], [ -68.877536144047269, -32.891320132781424, 0.0 ], [ -68.878131924423201, -32.891009966237874, 0.0 ], [ -68.878437870310961, -32.890996966814406, 0.0 ], [ -68.878753093574332, -32.891119607525141, 0.0 ], [ -68.878910690820874, -32.891191565390521, 0.0 ], [ -68.878998905615546, -32.891260796460202, 0.0 ], [ -68.8790145237069, -32.891372508542155, 0.0 ], [ -68.87923486749051, -32.891689196048205, 0.0 ], [ -68.879250415659399, -32.89220098072142, 0.0 ], [ -68.879360684312033, -32.892288848978502, 0.0 ], [ -68.879534017743381, -32.892387415833134, 0.0 ], [ -68.879663088903882, -32.892565723243365, 0.0 ], [ -68.879244841580629, -32.892766702941309, 0.0 ], [ -68.874339376871262, -32.892927823794359, 0.0 ], [ -68.873520607952955, -32.894555445912971, 0.0 ], [ -68.872789242359261, -32.89606145391646, 0.0 ], [ -68.872408803762056, -32.899103001321471, 0.0 ], [ -68.872350181572415, -32.899786060588255, 0.0 ], [ -68.872407262941806, -32.900177629938682, 0.0 ], [ -68.872472640701901, -32.900952803439161, 0.0 ], [ -68.872558758496439, -32.901850200555693, 0.0 ], [ -68.872681901879517, -32.902052005688155, 0.0 ], [ -68.872792270011445, -32.904004169569625, 0.0 ], [ -68.872908319612989, -32.904928537696755, 0.0 ], [ -68.873580743230491, -32.906318116881536, 0.0 ], [ -68.87417529402525, -32.90756700206363, 0.0 ], [ -68.874135198845096, -32.907912008961354, 0.0 ], [ -68.873963203568323, -32.908167838666685, 0.0 ], [ -68.873646105938306, -32.908334476872149, 0.0 ], [ -68.873381959743369, -32.908400992985293, 0.0 ], [ -68.872880087348008, -32.908522919949021, 0.0 ], [ -68.872576156718097, -32.908711830145691, 0.0 ], [ -68.87236451585683, -32.908989878096044, 0.0 ], [ -68.870323162871713, -32.912089547045397, 0.0 ], [ -68.869749136719435, -32.913974506838628, 0.0 ], [ -68.869035210785086, -32.915920009866483, 0.0 ], [ -68.868554363407313, -32.916881105205597, 0.0 ], [ -68.86717388266473, -32.918655814953382, 0.0 ], [ -68.86629688710687, -32.919791474740592, 0.0 ], [ -68.865537426253496, -32.921108004592, 0.0 ], [ -68.86493141083551, -32.922293427387551, 0.0 ], [ -68.864376448675898, -32.923189919281029, 0.0 ], [ -68.864113733929955, -32.923260559634727, 0.0 ], [ -68.863911558393283, -32.923495406022532, 0.0 ], [ -68.863635430159505, -32.9240982354832, 0.0 ], [ -68.861596709320111, -32.923200474862256, 0.0 ], [ -68.859605957671377, -32.922182561655681, 0.0 ], [ -68.858914838913208, -32.926594736623613, 0.0 ], [ -68.852030344826076, -32.92634606399254, 0.0 ], [ -68.851620342844626, -32.929434697366382, 0.0 ], [ -68.85151137021856, -32.930889327235356, 0.0 ], [ -68.854801687545446, -32.931146315503, 0.0 ], [ -68.854798522027963, -32.927971772982524, 0.0 ], [ -68.855241025556964, -32.928035636212478, 0.0 ], [ -68.855491752680564, -32.927916265265104, 0.0 ], [ -68.855542716561686, -32.927388407367118, 0.0 ], [ -68.856803618551695, -32.927453208294729, 0.0 ], [ -68.85703805810553, -32.927073376622516, 0.0 ], [ -68.85872487959297, -32.927124566879854, 0.0 ], [ -68.858623324197936, -32.927969119008608, 0.0 ], [ -68.858452379778555, -32.930432537052901, 0.0 ], [ -68.858802325623159, -32.934293996890418, 0.0 ], [ -68.858226944826356, -32.937440400912628, 0.0 ], [ -68.857655321533841, -32.942627525034844, 0.0 ], [ -68.856915724140109, -32.945977112922726, 0.0 ], [ -68.860432302789178, -32.943498656941451, 0.0 ], [ -68.865207753583491, -32.94029488575719, 0.0 ], [ -68.86800419139206, -32.931293784182436, 0.0 ], [ -68.868966440457456, -32.931493107144682, 0.0 ], [ -68.867909496958248, -32.926084130282334, 0.0 ], [ -68.869627566183951, -32.923765737198586, 0.0 ], [ -68.871500942301367, -32.92458029133261, 0.0 ], [ -68.871688790174304, -32.924309612869408, 0.0 ], [ -68.875330037298667, -32.924855040507957, 0.0 ], [ -68.875410945717903, -32.9244488142227, 0.0 ], [ -68.874179743480099, -32.923984842264595, 0.0 ], [ -68.874917493627166, -32.923048819124148, 0.0 ], [ -68.871626371717255, -32.921171954993532, 0.0 ], [ -68.874350716998904, -32.917262258553215, 0.0 ], [ -68.877909598987955, -32.910163012619208, 0.0 ], [ -68.879801598311417, -32.909208820328793, 0.0 ], [ -68.878158789811309, -32.906396932048317, 0.0 ], [ -68.876718716221305, -32.902293275510999, 0.0 ], [ -68.877122568891053, -32.900657152458756, 0.0 ], [ -68.88131614177621, -32.900384773726195, 0.0 ], [ -68.889465381566779, -32.899762582181253, 0.0 ], [ -68.888716838501978, -32.89613763688979, 0.0 ], [ -68.898650557434891, -32.892537276109159, 0.0 ], [ -68.891049480572249, -32.881940070635473, 0.0 ] ] ] ] } }
]
}
