{
"type": "FeatureCollection",
"name": "area de influencia_1038_2026",
"crs": { "type": "name", "properties": { "name": "urn:ogc:def:crs:OGC:1.3:CRS84" } },
"features": [
{ "type": "Feature", "properties": { "LAYER": "AREA_DE_INFLUENCIA_CANAL_D", "GM_TYPE": "Unknown Area Type", "MAP_NAME": "area de influencia_Cl_del Oeste_2026.dwg", "CLOSED": "YES", "BORDER_STY": "Solid", "BORDER_COL": "RGB(255,255,0)", "BORDER_WID": 1, "FILL_STYLE": "No Fill" }, "geometry": { "type": "MultiPolygon", "coordinates": [ [ [ [ -68.875848472321266, -32.873717463153042, 0.0 ], [ -68.869111536633611, -32.871868117215868, 0.0 ], [ -68.864407994557922, -32.87057669434968, 0.0 ], [ -68.862224131916633, -32.869329091755432, 0.0 ], [ -68.861171919811241, -32.868382925267092, 0.0 ], [ -68.858029451921112, -32.868722922010392, 0.0 ], [ -68.858390442241358, -32.871080031669173, 0.0 ], [ -68.857248349012153, -32.87121544185316, 0.0 ], [ -68.85737096200522, -32.871695080475156, 0.0 ], [ -68.858467124655022, -32.871541253511552, 0.0 ], [ -68.860543508482166, -32.883811838753125, 0.0 ], [ -68.861259974894836, -32.886632974973544, 0.0 ], [ -68.863643160998279, -32.898663720487725, 0.0 ], [ -68.863926891257663, -32.900213422399005, 0.0 ], [ -68.864796029874995, -32.901371719083002, 0.0 ], [ -68.865130499294665, -32.901406120059342, 0.0 ], [ -68.86602114134071, -32.901125867744163, 0.0 ], [ -68.86768264789184, -32.900831004451923, 0.0 ], [ -68.868726829105483, -32.90066190592696, 0.0 ], [ -68.870913051771211, -32.900445354716666, 0.0 ], [ -68.872422145463361, -32.900349411120978, 0.0 ], [ -68.872350181572415, -32.899786060588255, 0.0 ], [ -68.872408803762056, -32.899103001321471, 0.0 ], [ -68.872599026355374, -32.897582227956768, 0.0 ], [ -68.872789242359261, -32.89606145391646, 0.0 ], [ -68.873154928259041, -32.895308450502355, 0.0 ], [ -68.873752165035782, -32.894086449421096, 0.0 ], [ -68.874339376871262, -32.892927823794359, 0.0 ], [ -68.879244841580629, -32.892766702941309, 0.0 ], [ -68.879937349948648, -32.89257054271642, 0.0 ], [ -68.879716321155627, -32.892479406552702, 0.0 ], [ -68.879658848246052, -32.892378554477759, 0.0 ], [ -68.879323289816867, -32.892151663709768, 0.0 ], [ -68.87929076726347, -32.891672098500493, 0.0 ], [ -68.879096862886996, -32.891366074408381, 0.0 ], [ -68.879087852297062, -32.891216507792656, 0.0 ], [ -68.878917557198932, -32.891099804567958, 0.0 ], [ -68.878586038972486, -32.890971290803279, 0.0 ], [ -68.878355771352119, -32.890916682366857, 0.0 ], [ -68.87814381925908, -32.890943668347809, 0.0 ], [ -68.877229746261833, -32.891406921506196, 0.0 ], [ -68.877067398563895, -32.891545692532986, 0.0 ], [ -68.876716914483154, -32.891698354853801, 0.0 ], [ -68.876511958906349, -32.891717944521901, 0.0 ], [ -68.875728375194939, -32.891955768562156, 0.0 ], [ -68.874925540879929, -32.891984958105049, 0.0 ], [ -68.874938123173067, -32.891879174953516, 0.0 ], [ -68.875107473448466, -32.891662319925103, 0.0 ], [ -68.877046402417051, -32.890402442454757, 0.0 ], [ -68.877884016518564, -32.889859579093681, 0.0 ], [ -68.877940181332832, -32.889239916747094, 0.0 ], [ -68.877509263253742, -32.888793519729326, 0.0 ], [ -68.877615962511257, -32.888325705030766, 0.0 ], [ -68.876069028761918, -32.886566125061371, 0.0 ], [ -68.875495132100468, -32.886512646756643, 0.0 ], [ -68.875413912536445, -32.886432223587128, 0.0 ], [ -68.875530246051824, -32.886328482537671, 0.0 ], [ -68.875196003287925, -32.886057729411995, 0.0 ], [ -68.874346059537089, -32.884399272494377, 0.0 ], [ -68.874145381310456, -32.884031456023422, 0.0 ], [ -68.874007493135679, -32.88405331117486, 0.0 ], [ -68.873610412469588, -32.88293435606581, 0.0 ], [ -68.873929850849478, -32.880939447801929, 0.0 ], [ -68.874092862873667, -32.87883201228064, 0.0 ], [ -68.874310683198246, -32.877548209279922, 0.0 ], [ -68.874763239404146, -32.876298142969596, 0.0 ], [ -68.875848472321266, -32.873717463153042, 0.0 ] ] ] ] } }
]
}
