{
"type": "FeatureCollection",
"name": "derechos de riego 1038_2026",
"crs": { "type": "name", "properties": { "name": "urn:ogc:def:crs:OGC:1.3:CRS84" } },
"features": [
{ "type": "Feature", "properties": { "MAP_NAME": "Cl_del Oeste_modificado_2026.dwg", "ccpp1": "1038 6" }, "geometry": { "type": "MultiPolygon", "coordinates": [ [ [ [ -68.877868518327588, -32.889246293926128, 0.0 ], [ -68.877482521134738, -32.888806520338228, 0.0 ], [ -68.877577616296904, -32.88835352842807, 0.0 ], [ -68.876999766461125, -32.887698249838095, 0.0 ], [ -68.876054039674059, -32.88662577457135, 0.0 ], [ -68.875467382201677, -32.886543956498898, 0.0 ], [ -68.875361341099023, -32.886432162717071, 0.0 ], [ -68.875474979092743, -32.886336416079409, 0.0 ], [ -68.875160882318738, -32.886078510112682, 0.0 ], [ -68.874556359998763, -32.884925578957905, 0.0 ], [ -68.874301732249378, -32.884439949292059, 0.0 ], [ -68.873880227253537, -32.884535816728025, 0.0 ], [ -68.873818937755047, -32.884543774563845, 0.0 ], [ -68.873759407395255, -32.884558424705752, 0.0 ], [ -68.873702657092224, -32.884579515713277, 0.0 ], [ -68.873649661971513, -32.884606685192921, 0.0 ], [ -68.87360133105355, -32.88463946608961, 0.0 ], [ -68.873558493346266, -32.884677297492146, 0.0 ], [ -68.873521885014796, -32.88471952912839, 0.0 ], [ -68.873492134399982, -32.884765435776607, 0.0 ], [ -68.873469750243274, -32.884814230778552, 0.0 ], [ -68.873455118467277, -32.884865075052595, 0.0 ], [ -68.873448490390246, -32.884917097820725, 0.0 ], [ -68.873528388017021, -32.885400289361904, 0.0 ], [ -68.873667421721507, -32.886055313905224, 0.0 ], [ -68.873827028606726, -32.886670406794842, 0.0 ], [ -68.873942667778806, -32.887116049650906, 0.0 ], [ -68.874065943919121, -32.887511857211244, 0.0 ], [ -68.874119551232667, -32.887683973920581, 0.0 ], [ -68.8741805197091, -32.8878797241508, 0.0 ], [ -68.874210243038377, -32.888132720219794, 0.0 ], [ -68.874251535166138, -32.888484180975624, 0.0 ], [ -68.874262889606527, -32.888601141873913, 0.0 ], [ -68.874266572354855, -32.888718453929712, 0.0 ], [ -68.874262573200539, -32.888835758259894, 0.0 ], [ -68.874252955379674, -32.888936710161012, 0.0 ], [ -68.874237646256773, -32.889037160405834, 0.0 ], [ -68.874216681401606, -32.889136881801662, 0.0 ], [ -68.874152863613844, -32.88943271237509, 0.0 ], [ -68.874141085886052, -32.889487309144897, 0.0 ], [ -68.877357117627767, -32.889439927253783, 0.0 ], [ -68.877868518327588, -32.889246293926128, 0.0 ] ] ] ] } },
{ "type": "Feature", "properties": { "MAP_NAME": "Cl_del Oeste_modificado_2026.dwg", "ccpp1": "1038 12" }, "geometry": { "type": "MultiPolygon", "coordinates": [ [ [ [ -68.873144729412857, -32.895228282704771, 0.0 ], [ -68.871694960694086, -32.894767219054629, 0.0 ], [ -68.871450265942727, -32.895377134691486, 0.0 ], [ -68.871251869717327, -32.895913797495979, 0.0 ], [ -68.871158753916561, -32.896225235862147, 0.0 ], [ -68.870922775866106, -32.897173751769429, 0.0 ], [ -68.870867135653356, -32.89743734874488, 0.0 ], [ -68.870829699725036, -32.897677069682864, 0.0 ], [ -68.870804639154343, -32.897932492807456, 0.0 ], [ -68.870698931018921, -32.898448421178422, 0.0 ], [ -68.870537725533097, -32.898907034610012, 0.0 ], [ -68.870512906491996, -32.898995645103632, 0.0 ], [ -68.870511750143663, -32.899055786673131, 0.0 ], [ -68.872376600751892, -32.899077631051902, 0.0 ], [ -68.872458744810842, -32.898384495309081, 0.0 ], [ -68.872577639771606, -32.897310702710911, 0.0 ], [ -68.872639887423773, -32.896832869911968, 0.0 ], [ -68.872745850786771, -32.89612920792117, 0.0 ], [ -68.872770711396427, -32.896009398468685, 0.0 ], [ -68.872807955176512, -32.89589997105336, 0.0 ], [ -68.873144729412857, -32.895228282704771, 0.0 ] ] ] ] } },
{ "type": "Feature", "properties": { "MAP_NAME": "Cl_del Oeste_modificado_2026.dwg", "ccpp1": "1038 264" }, "geometry": { "type": "MultiPolygon", "coordinates": [ [ [ [ -68.864632403743101, -32.898980219926031, 0.0 ], [ -68.864674418616573, -32.899044195265766, 0.0 ], [ -68.864863447257605, -32.899287405305742, 0.0 ], [ -68.865205934908104, -32.899619597092212, 0.0 ], [ -68.865602951420797, -32.89987105508397, 0.0 ], [ -68.865935183175623, -32.900061307751521, 0.0 ], [ -68.866206521261034, -32.900160874501871, 0.0 ], [ -68.866479992108722, -32.900264139870899, 0.0 ], [ -68.866682438326563, -32.900331712161758, 0.0 ], [ -68.867201793396745, -32.90040367871277, 0.0 ], [ -68.86728622234962, -32.900410711369986, 0.0 ], [ -68.867355679724326, -32.900422867724039, 0.0 ], [ -68.86772932205379, -32.900442379377566, 0.0 ], [ -68.868279494096186, -32.900348012166049, 0.0 ], [ -68.868823178207094, -32.900158597549307, 0.0 ], [ -68.869141473102417, -32.900019259211057, 0.0 ], [ -68.869565968455291, -32.899762720948544, 0.0 ], [ -68.869917558212137, -32.899511695887234, 0.0 ], [ -68.870229458570108, -32.899210314302579, 0.0 ], [ -68.870382273574876, -32.898936719524784, 0.0 ], [ -68.87054207196374, -32.898417330884115, 0.0 ], [ -68.870654211929661, -32.897969147543868, 0.0 ], [ -68.870629006089374, -32.897802828414093, 0.0 ], [ -68.870982375012616, -32.896317116662033, 0.0 ], [ -68.871513103926858, -32.894789747428923, 0.0 ], [ -68.872227184226574, -32.893209453389645, 0.0 ], [ -68.872435731802142, -32.89281490573935, 0.0 ], [ -68.872170872859726, -32.892605262490072, 0.0 ], [ -68.872091057218825, -32.892516454421589, 0.0 ], [ -68.872011129675357, -32.892431252953131, 0.0 ], [ -68.871906193841937, -32.892271455919264, 0.0 ], [ -68.871826424726521, -32.892150727840509, 0.0 ], [ -68.871670027631197, -32.892547942948895, 0.0 ], [ -68.871526648852992, -32.892810368321122, 0.0 ], [ -68.87140138483052, -32.892961813918092, 0.0 ], [ -68.871085701077916, -32.893384382201049, 0.0 ], [ -68.870707594188502, -32.893735922013995, 0.0 ], [ -68.870249941843454, -32.894031563453197, 0.0 ], [ -68.869600144545501, -32.894310231521033, 0.0 ], [ -68.869268740971378, -32.894365790358933, 0.0 ], [ -68.868758480881382, -32.894382027328767, 0.0 ], [ -68.868268635036756, -32.894324500314802, 0.0 ], [ -68.86829734515166, -32.894786041208874, 0.0 ], [ -68.868330644784479, -32.895395439185961, 0.0 ], [ -68.868262005815566, -32.895699417141437, 0.0 ], [ -68.868247805345476, -32.895761799204486, 0.0 ], [ -68.868179401469376, -32.896050989610416, 0.0 ], [ -68.868109062342469, -32.896347571789924, 0.0 ], [ -68.867866458448674, -32.896337577405653, 0.0 ], [ -68.867639799671053, -32.896328141284094, 0.0 ], [ -68.86764226980921, -32.896378096740435, 0.0 ], [ -68.867721141088822, -32.896813967444629, 0.0 ], [ -68.867820224934718, -32.897026420434571, 0.0 ], [ -68.868157297615255, -32.897624507167286, 0.0 ], [ -68.868229739651397, -32.89792944518954, 0.0 ], [ -68.868229491453945, -32.898097069242468, 0.0 ], [ -68.8681428971868, -32.898398683678764, 0.0 ], [ -68.867910447453426, -32.898744777734464, 0.0 ], [ -68.867379056925671, -32.899080816368915, 0.0 ], [ -68.867023939889563, -32.899185215663081, 0.0 ], [ -68.866670179203652, -32.899239842072667, 0.0 ], [ -68.866497642103752, -32.899257421280929, 0.0 ], [ -68.866012592882726, -32.899263845478316, 0.0 ], [ -68.865753725564886, -32.899260051224552, 0.0 ], [ -68.865475998993517, -32.899217102776475, 0.0 ], [ -68.865111985823589, -32.899124467677673, 0.0 ], [ -68.864834346135908, -32.899024801561424, 0.0 ], [ -68.864636593732385, -32.898966067919915, 0.0 ], [ -68.864632403743101, -32.898980219926031, 0.0 ] ] ] ] } },
{ "type": "Feature", "properties": { "MAP_NAME": "Cl_del Oeste_modificado_2026.dwg", "ccpp1": "1038 3" }, "geometry": { "type": "MultiPolygon", "coordinates": [ [ [ [ -68.871694960694086, -32.894767219054629, 0.0 ], [ -68.873144694322733, -32.895228271545463, 0.0 ], [ -68.873476296768843, -32.894531791589465, 0.0 ], [ -68.873035057265184, -32.894339103768338, 0.0 ], [ -68.872595849061597, -32.894147318148029, 0.0 ], [ -68.872546784543289, -32.894227248176037, 0.0 ], [ -68.872041969767594, -32.894025204611388, 0.0 ], [ -68.871694960694086, -32.894767219054629, 0.0 ] ] ] ] } },
{ "type": "Feature", "properties": { "MAP_NAME": "Cl_del Oeste_modificado_2026.dwg", "ccpp1": "1038 265" }, "geometry": { "type": "MultiPolygon", "coordinates": [ [ [ [ -68.868268640622617, -32.894324500970782, 0.0 ], [ -68.868182080450879, -32.894314335222198, 0.0 ], [ -68.867645584797131, -32.894148939363326, 0.0 ], [ -68.867539528850003, -32.894171189011388, 0.0 ], [ -68.867552208073178, -32.894556675467285, 0.0 ], [ -68.867639799671053, -32.896328141284094, 0.0 ], [ -68.868109062342469, -32.896347571789924, 0.0 ], [ -68.868330644784479, -32.895395439185961, 0.0 ], [ -68.868268640622617, -32.894324500970782, 0.0 ] ] ] ] } },
{ "type": "Feature", "properties": { "MAP_NAME": "Cl_del Oeste_modificado_2026.dwg", "ccpp1": "1038 260" }, "geometry": { "type": "MultiPolygon", "coordinates": [ [ [ [ -68.866513875814391, -32.893992645514111, 0.0 ], [ -68.866466764076662, -32.893978438661186, 0.0 ], [ -68.866301629838162, -32.893983942870129, 0.0 ], [ -68.866254526810664, -32.893963965122104, 0.0 ], [ -68.867061591068122, -32.892726532866838, 0.0 ], [ -68.867182462021603, -32.892945411660868, 0.0 ], [ -68.867253476721856, -32.892769386715337, 0.0 ], [ -68.867270473254308, -32.892695556221092, 0.0 ], [ -68.867324575812361, -32.892536555246323, 0.0 ], [ -68.867409026537644, -32.892380471838131, 0.0 ], [ -68.867496330387311, -32.892246031989998, 0.0 ], [ -68.867574017883783, -32.89210977851149, 0.0 ], [ -68.867776609711356, -32.891851568060673, 0.0 ], [ -68.867928360647667, -32.89171539263986, 0.0 ], [ -68.868066768632914, -32.891567841639677, 0.0 ], [ -68.868154538787451, -32.891405990375418, 0.0 ], [ -68.868218779344133, -32.891255565737211, 0.0 ], [ -68.868252659048665, -32.891110789738271, 0.0 ], [ -68.868310166304809, -32.890960267782418, 0.0 ], [ -68.868408180652168, -32.890736030036209, 0.0 ], [ -68.868550130004522, -32.890432309170755, 0.0 ], [ -68.86855389385812, -32.890199406112352, 0.0 ], [ -68.868422763321021, -32.889980607923327, 0.0 ], [ -68.868355488064722, -32.889943657922409, 0.0 ], [ -68.868257890536782, -32.889886748553771, 0.0 ], [ -68.868156843834043, -32.889849672695277, 0.0 ], [ -68.868099044499715, -32.889836988059123, 0.0 ], [ -68.867940604591439, -32.889873790218537, 0.0 ], [ -68.867768771859531, -32.889933210483925, 0.0 ], [ -68.867647344739837, -32.890018291919048, 0.0 ], [ -68.867556167852612, -32.890171573182975, 0.0 ], [ -68.867397449187379, -32.890466709075852, 0.0 ], [ -68.867323003906264, -32.89065129660387, 0.0 ], [ -68.867188402848186, -32.891041045258056, 0.0 ], [ -68.867043066894809, -32.891390206201677, 0.0 ], [ -68.866850355182876, -32.891830207039689, 0.0 ], [ -68.866684808661788, -32.892185026655248, 0.0 ], [ -68.866586783529527, -32.892341185265543, 0.0 ], [ -68.866377492615456, -32.892644831856494, 0.0 ], [ -68.865740590155667, -32.893442867970258, 0.0 ], [ -68.865365975084998, -32.893874195028914, 0.0 ], [ -68.865264688530814, -32.893993379699424, 0.0 ], [ -68.865136365389105, -32.894180612821486, 0.0 ], [ -68.864866081445285, -32.894737025200079, 0.0 ], [ -68.864758254063304, -32.894939428467779, 0.0 ], [ -68.864582492268752, -32.895325522735206, 0.0 ], [ -68.864464198187918, -32.895592295135323, 0.0 ], [ -68.864410028067311, -32.895791059285777, 0.0 ], [ -68.864372672472214, -32.895967119031205, 0.0 ], [ -68.864362267820624, -32.896131846690771, 0.0 ], [ -68.864365536549258, -32.89623121658208, 0.0 ], [ -68.864392292845523, -32.896347744073672, 0.0 ], [ -68.864415614896231, -32.896543706804948, 0.0 ], [ -68.864415459120593, -32.896645958386237, 0.0 ], [ -68.864385173248095, -32.896811566162, 0.0 ], [ -68.864327556023611, -32.897027368455142, 0.0 ], [ -68.8642326644229, -32.897365219184415, 0.0 ], [ -68.864191972729998, -32.897555521921944, 0.0 ], [ -68.864181730850049, -32.897683280379638, 0.0 ], [ -68.864198429030068, -32.89773721962284, 0.0 ], [ -68.864228688181782, -32.897799739650765, 0.0 ], [ -68.864289181957091, -32.897870858550675, 0.0 ], [ -68.86435653800649, -32.89792773815153, 0.0 ], [ -68.864420401644054, -32.897961891322886, 0.0 ], [ -68.864494530424594, -32.897993170175766, 0.0 ], [ -68.864595584824215, -32.89803024896522, 0.0 ], [ -68.864875496387626, -32.898039298161052, 0.0 ], [ -68.864956479529184, -32.897991145194474, 0.0 ], [ -68.865017249873929, -32.897880393019697, 0.0 ], [ -68.865095044113062, -32.897679490104373, 0.0 ], [ -68.86529804766306, -32.897091806541468, 0.0 ], [ -68.865321861900739, -32.896963972427521, 0.0 ], [ -68.865318604907074, -32.896856126689428, 0.0 ], [ -68.865291933229884, -32.896682792966914, 0.0 ], [ -68.86527530828721, -32.896509560228068, 0.0 ], [ -68.865272179811853, -32.896387467902301, 0.0 ], [ -68.865275622091644, -32.896302261814604, 0.0 ], [ -68.865289196552439, -32.896231223189901, 0.0 ], [ -68.865333154954271, -32.896140380086464, 0.0 ], [ -68.865387292638445, -32.896032505964484, 0.0 ], [ -68.865414402415666, -32.895916126834322, 0.0 ], [ -68.865471508593259, -32.895682650302227, 0.0 ], [ -68.865525697327527, -32.895540692243621, 0.0 ], [ -68.865627002849195, -32.895339092846044, 0.0 ], [ -68.865724913045099, -32.895191591182048, 0.0 ], [ -68.865877002273422, -32.89490772168557, 0.0 ], [ -68.865951300139969, -32.894754423680908, 0.0 ], [ -68.866079609648921, -32.894575665621431, 0.0 ], [ -68.866258510405871, -32.894371353510785, 0.0 ], [ -68.866453156947401, -32.894072109858435, 0.0 ], [ -68.866513875814391, -32.893992645514111, 0.0 ] ] ] ] } },
{ "type": "Feature", "properties": { "MAP_NAME": "Cl_del Oeste_modificado_2026.dwg", "ccpp1": "1038 5" }, "geometry": { "type": "MultiPolygon", "coordinates": [ [ [ [ -68.873450260314357, -32.882264172035015, 0.0 ], [ -68.8732918499405, -32.882291240981985, 0.0 ], [ -68.873186136151602, -32.882309256069085, 0.0 ], [ -68.873045575000617, -32.882333368114644, 0.0 ], [ -68.872940502422523, -32.882351293475416, 0.0 ], [ -68.872657030533404, -32.88239978406952, 0.0 ], [ -68.872574618436019, -32.882413855813759, 0.0 ], [ -68.87254180317386, -32.882419502141531, 0.0 ], [ -68.872503215978867, -32.882426045171783, 0.0 ], [ -68.872457787698124, -32.882433842682666, 0.0 ], [ -68.872213115577097, -32.882475518961989, 0.0 ], [ -68.872183507214814, -32.882480448019372, 0.0 ], [ -68.872276503401281, -32.882833556751585, 0.0 ], [ -68.872336974454981, -32.883065534833285, 0.0 ], [ -68.872356730345331, -32.883149141936755, 0.0 ], [ -68.872426881558141, -32.883412508757296, 0.0 ], [ -68.872592773027023, -32.884054324327636, 0.0 ], [ -68.872617314465572, -32.884154617569749, 0.0 ], [ -68.872770294287534, -32.884106568787026, 0.0 ], [ -68.872683919367972, -32.88376470412642, 0.0 ], [ -68.872615614289231, -32.883777347543834, 0.0 ], [ -68.872599672229185, -32.883716016188792, 0.0 ], [ -68.872577652065246, -32.883720141543641, 0.0 ], [ -68.872494651026287, -32.883400586250147, 0.0 ], [ -68.872763171954304, -32.883347301854783, 0.0 ], [ -68.872770714257854, -32.883378868780881, 0.0 ], [ -68.872754894404466, -32.883381557765809, 0.0 ], [ -68.872754883323012, -32.883389312313881, 0.0 ], [ -68.872808974231134, -32.883600184043587, 0.0 ], [ -68.872780433792528, -32.88360538393303, 0.0 ], [ -68.872782665977738, -32.883613771947694, 0.0 ], [ -68.872792974306591, -32.883654089007585, 0.0 ], [ -68.87279966996897, -32.883679884234724, 0.0 ], [ -68.872815184532499, -32.883740583945013, 0.0 ], [ -68.872718017113456, -32.883759329576357, 0.0 ], [ -68.872804834921965, -32.884095720487032, 0.0 ], [ -68.873636845053724, -32.883834390358622, 0.0 ], [ -68.873438447927697, -32.883051157789446, 0.0 ], [ -68.873438024314964, -32.883048452281706, 0.0 ], [ -68.873437600830414, -32.883045656604864, 0.0 ], [ -68.873398331085752, -32.882857162117389, 0.0 ], [ -68.873392541480158, -32.882720910437712, 0.0 ], [ -68.87340037302998, -32.882625068392713, 0.0 ], [ -68.873421814661867, -32.882427799647807, 0.0 ], [ -68.873450260314357, -32.882264172035015, 0.0 ] ] ] ] } },
{ "type": "Feature", "properties": { "MAP_NAME": "Cl_del Oeste_modificado_2026.dwg", "ccpp1": "1038 269" }, "geometry": { "type": "MultiPolygon", "coordinates": [ [ [ [ -68.87148828747857, -32.881940515022251, 0.0 ], [ -68.871527414237804, -32.882100600338838, 0.0 ], [ -68.871636907865039, -32.882548140084033, 0.0 ], [ -68.871297522812426, -32.88261108655265, 0.0 ], [ -68.871319507436496, -32.882704614741129, 0.0 ], [ -68.870310867222443, -32.882889491205525, 0.0 ], [ -68.870415497586507, -32.883320158943548, 0.0 ], [ -68.870387854549321, -32.883368821717482, 0.0 ], [ -68.87008214650578, -32.883492303363077, 0.0 ], [ -68.870020955894077, -32.883244634010275, 0.0 ], [ -68.869995997016645, -32.883139651011476, 0.0 ], [ -68.869981765930731, -32.883079583467847, 0.0 ], [ -68.869978366414173, -32.883065784031601, 0.0 ], [ -68.869902686926494, -32.88307904948757, 0.0 ], [ -68.869890999562188, -32.883032690311992, 0.0 ], [ -68.869888343369979, -32.88302213683945, 0.0 ], [ -68.869881012963035, -32.882993275038608, 0.0 ], [ -68.869874318329408, -32.882967389485472, 0.0 ], [ -68.869866137088167, -32.882935010195688, 0.0 ], [ -68.869850519128448, -32.882873408314254, 0.0 ], [ -68.869758377690346, -32.882890082985362, 0.0 ], [ -68.869736388712639, -32.882799890787055, 0.0 ], [ -68.869419346835201, -32.88285618289401, 0.0 ], [ -68.869312342104095, -32.882444356300248, 0.0 ], [ -68.869221269117801, -32.882461392370949, 0.0 ], [ -68.869193316439336, -32.882358299625452, 0.0 ], [ -68.866620852309083, -32.882810908858623, 0.0 ], [ -68.866367405874882, -32.882858425340743, 0.0 ], [ -68.8664149011896, -32.883038995000554, 0.0 ], [ -68.867019402124072, -32.88533562665296, 0.0 ], [ -68.868659304293303, -32.885031884147594, 0.0 ], [ -68.871275366760401, -32.884544834345782, 0.0 ], [ -68.872617314465572, -32.884154617569749, 0.0 ], [ -68.872592773027023, -32.884054324327636, 0.0 ], [ -68.872426881558141, -32.883412508757296, 0.0 ], [ -68.872356730345331, -32.883149141936755, 0.0 ], [ -68.872336974454981, -32.883065534833285, 0.0 ], [ -68.872276503401281, -32.882833556751585, 0.0 ], [ -68.872183507214814, -32.882480448019372, 0.0 ], [ -68.872213115577097, -32.882475518961989, 0.0 ], [ -68.872457787698124, -32.882433842682666, 0.0 ], [ -68.872503215978867, -32.882426045171783, 0.0 ], [ -68.87254180317386, -32.882419502141531, 0.0 ], [ -68.872574618436019, -32.882413855813759, 0.0 ], [ -68.872657030533404, -32.88239978406952, 0.0 ], [ -68.872940502422523, -32.882351293475416, 0.0 ], [ -68.873045575000617, -32.882333368114644, 0.0 ], [ -68.873186136151602, -32.882309256069085, 0.0 ], [ -68.8732918499405, -32.882291240981985, 0.0 ], [ -68.873450260314357, -32.882264172035015, 0.0 ], [ -68.873442301430302, -32.882224850161677, 0.0 ], [ -68.873427073198286, -32.882188134939618, 0.0 ], [ -68.873360920247265, -32.882041723178659, 0.0 ], [ -68.873338625731691, -32.882013657044169, 0.0 ], [ -68.873314822573818, -32.881994426872183, 0.0 ], [ -68.873290917352577, -32.881972581682064, 0.0 ], [ -68.873180025673037, -32.881874814117275, 0.0 ], [ -68.873099639487904, -32.881818195518683, 0.0 ], [ -68.873050611007855, -32.881802997318971, 0.0 ], [ -68.872970148525184, -32.881799217779928, 0.0 ], [ -68.872885417068929, -32.881791556569851, 0.0 ], [ -68.872827171393425, -32.881795283569708, 0.0 ], [ -68.872715488985733, -32.881802653114399, 0.0 ], [ -68.872554665629835, -32.881798790598992, 0.0 ], [ -68.87148828747857, -32.881940515022251, 0.0 ] ] ] ] } },
{ "type": "Feature", "properties": { "MAP_NAME": "Cl_del Oeste_modificado_2026.dwg", "ccpp1": "1038 263" }, "geometry": { "type": "MultiPolygon", "coordinates": [ [ [ [ -68.862811443922993, -32.883581209988279, 0.0 ], [ -68.862750192221512, -32.883592863890875, 0.0 ], [ -68.862557781927734, -32.883627184722307, 0.0 ], [ -68.862357781834717, -32.883662940514895, 0.0 ], [ -68.862156068579196, -32.883700045736497, 0.0 ], [ -68.861941101028876, -32.883739661643489, 0.0 ], [ -68.861744733297627, -32.883775780239269, 0.0 ], [ -68.861540774801938, -32.883813243563843, 0.0 ], [ -68.861447664860322, -32.883832616111881, 0.0 ], [ -68.861405760059057, -32.883841315200208, 0.0 ], [ -68.861241035969726, -32.883869804579177, 0.0 ], [ -68.861075563577643, -32.883898383078943, 0.0 ], [ -68.861065724846512, -32.883902249428452, 0.0 ], [ -68.861040279774087, -32.883909344532285, 0.0 ], [ -68.860999519871399, -32.883937611487717, 0.0 ], [ -68.860975535703005, -32.883967250519156, 0.0 ], [ -68.860944463956514, -32.884018250880693, 0.0 ], [ -68.860910677234273, -32.884097652435543, 0.0 ], [ -68.860890817140515, -32.884154527154543, 0.0 ], [ -68.860883815225108, -32.884190136226337, 0.0 ], [ -68.861023128072631, -32.884896497659135, 0.0 ], [ -68.861162989248442, -32.885526757527188, 0.0 ], [ -68.862295330649602, -32.885338035439119, 0.0 ], [ -68.862401999608295, -32.885328055689037, 0.0 ], [ -68.862508454810694, -32.885318074711229, 0.0 ], [ -68.862522014536836, -32.885326114680744, 0.0 ], [ -68.862802376473866, -32.88529423573528, 0.0 ], [ -68.863087040306823, -32.885245227810451, 0.0 ], [ -68.863212637681656, -32.885226702009248, 0.0 ], [ -68.86324299482277, -32.885222226744972, 0.0 ], [ -68.86320195250066, -32.885087287752206, 0.0 ], [ -68.863198762844647, -32.885076644291104, 0.0 ], [ -68.863181978861832, -32.885011613897142, 0.0 ], [ -68.863163601228507, -32.884939819062382, 0.0 ], [ -68.862965483584091, -32.884172169740204, 0.0 ], [ -68.862956454264875, -32.884136902760766, 0.0 ], [ -68.862942007935644, -32.884080801644586, 0.0 ], [ -68.862931491538248, -32.88403967293231, 0.0 ], [ -68.862910246526667, -32.883957144763905, 0.0 ], [ -68.86288369050267, -32.883853690595281, 0.0 ], [ -68.862811443922993, -32.883581209988279, 0.0 ] ] ] ] } },
{ "type": "Feature", "properties": { "MAP_NAME": "Cl_del Oeste_modificado_2026.dwg", "ccpp1": "1038 9" }, "geometry": { "type": "MultiPolygon", "coordinates": [ [ [ [ -68.864946913390057, -32.88317256599538, 0.0 ], [ -68.864940499468489, -32.883173911608651, 0.0 ], [ -68.864298882757268, -32.88331423465003, 0.0 ], [ -68.864083703796069, -32.883352861251858, 0.0 ], [ -68.86403132549151, -32.883362362264272, 0.0 ], [ -68.863439343726014, -32.883468560681045, 0.0 ], [ -68.863270984930736, -32.88349876198496, 0.0 ], [ -68.863001183051338, -32.883547155446323, 0.0 ], [ -68.862811443922993, -32.883581209988279, 0.0 ], [ -68.86288369050267, -32.883853690595281, 0.0 ], [ -68.862910246526667, -32.883957144763905, 0.0 ], [ -68.862931491538248, -32.88403967293231, 0.0 ], [ -68.862942007935644, -32.884080801644586, 0.0 ], [ -68.862956454264875, -32.884136902760766, 0.0 ], [ -68.862965483584091, -32.884172169740204, 0.0 ], [ -68.863163601228507, -32.884939819062382, 0.0 ], [ -68.863181978861832, -32.885011613897142, 0.0 ], [ -68.863198762844647, -32.885076644291104, 0.0 ], [ -68.86320195250066, -32.885087287752206, 0.0 ], [ -68.86324299482277, -32.885222226744972, 0.0 ], [ -68.865381431291695, -32.884854336150092, 0.0 ], [ -68.864946913390057, -32.88317256599538, 0.0 ] ] ] ] } },
{ "type": "Feature", "properties": { "MAP_NAME": "Cl_del Oeste_modificado_2026.dwg", "ccpp1": "1038 262" }, "geometry": { "type": "MultiPolygon", "coordinates": [ [ [ [ -68.862577052879587, -32.892711426555103, 0.0 ], [ -68.862844661591382, -32.8940427899215, 0.0 ], [ -68.862877052026775, -32.894066329829585, 0.0 ], [ -68.862964995174224, -32.89406780942717, 0.0 ], [ -68.863080642103483, -32.894063733322099, 0.0 ], [ -68.863993790908864, -32.89390337215908, 0.0 ], [ -68.864003489811907, -32.893880442778958, 0.0 ], [ -68.864035864976387, -32.892854141297519, 0.0 ], [ -68.864022624573821, -32.89245223308901, 0.0 ], [ -68.862576996440012, -32.892711293944409, 0.0 ], [ -68.862577052879587, -32.892711426555103, 0.0 ] ] ] ] } },
{ "type": "Feature", "properties": { "MAP_NAME": "Cl_del Oeste_modificado_2026.dwg", "ccpp1": "1038 10" }, "geometry": { "type": "MultiPolygon", "coordinates": [ [ [ [ -68.862038445082575, -32.890016017140198, 0.0 ], [ -68.86205084285497, -32.89008464956467, 0.0 ], [ -68.862094625815928, -32.890314178418095, 0.0 ], [ -68.862139800588139, -32.890542266075606, 0.0 ], [ -68.862168856313559, -32.890689273857596, 0.0 ], [ -68.862185399175502, -32.890772878912749, 0.0 ], [ -68.862228453119442, -32.89099050456128, 0.0 ], [ -68.862234921630332, -32.891023333264975, 0.0 ], [ -68.862253479873274, -32.891116859135487, 0.0 ], [ -68.862264826520885, -32.891174309392646, 0.0 ], [ -68.86227617318302, -32.891231759648292, 0.0 ], [ -68.862305441569006, -32.891379759478006, 0.0 ], [ -68.862326432271757, -32.891489969305937, 0.0 ], [ -68.862345568937826, -32.891486022929051, 0.0 ], [ -68.862404088499844, -32.891793473998518, 0.0 ], [ -68.862409796046776, -32.891834687583476, 0.0 ], [ -68.862465639175156, -32.892214541492422, 0.0 ], [ -68.862546441729435, -32.892142314673251, 0.0 ], [ -68.862757771058583, -32.891910631712449, 0.0 ], [ -68.862779181083027, -32.891887932579834, 0.0 ], [ -68.862804006924904, -32.891867942265698, 0.0 ], [ -68.862872793624007, -32.891825097193262, 0.0 ], [ -68.862917391969745, -32.891804677690494, 0.0 ], [ -68.862990212050661, -32.891779870806026, 0.0 ], [ -68.86303030440078, -32.891770627301625, 0.0 ], [ -68.863114010259196, -32.891755841044123, 0.0 ], [ -68.863198458254715, -32.891744932816245, 0.0 ], [ -68.863283646597694, -32.891739074813678, 0.0 ], [ -68.863403672645632, -32.891735509040096, 0.0 ], [ -68.863882338807485, -32.891613220572147, 0.0 ], [ -68.86393611314719, -32.891602548961934, 0.0 ], [ -68.863897734706555, -32.891329745474337, 0.0 ], [ -68.863874764985951, -32.891184548112697, 0.0 ], [ -68.863812482808541, -32.890818573802946, 0.0 ], [ -68.863762891654574, -32.890540347878876, 0.0 ], [ -68.863610020203623, -32.889730912821079, 0.0 ], [ -68.863200162502096, -32.889801428303706, 0.0 ], [ -68.862864808202062, -32.889863007243513, 0.0 ], [ -68.862345574436347, -32.889961983566316, 0.0 ], [ -68.862038445082575, -32.890016017140198, 0.0 ] ] ] ] } },
{ "type": "Feature", "properties": { "MAP_NAME": "Cl_del Oeste_modificado_2026.dwg", "ccpp1": "1038 26" }, "geometry": { "type": "MultiPolygon", "coordinates": [ [ [ [ -68.863898965629204, -32.876131801781774, 0.0 ], [ -68.863895032623589, -32.876118272094352, 0.0 ], [ -68.859420116138665, -32.876824260596635, 0.0 ], [ -68.859423228563969, -32.876845451191329, 0.0 ], [ -68.859425772777968, -32.876858348270432, 0.0 ], [ -68.859519470602251, -32.877339238398001, 0.0 ], [ -68.859522226852349, -32.877353217744627, 0.0 ], [ -68.859529861715458, -32.877390556434683, 0.0 ], [ -68.859560608617358, -32.877543247687505, 0.0 ], [ -68.859564754810478, -32.877556056391704, 0.0 ], [ -68.859602805942501, -32.87775257903985, 0.0 ], [ -68.859607577169243, -32.877776298935864, 0.0 ], [ -68.859697591636703, -32.878223099812324, 0.0 ], [ -68.859710012340656, -32.878274329934385, 0.0 ], [ -68.859768537703872, -32.878565553285597, 0.0 ], [ -68.859806677758044, -32.878773346207126, 0.0 ], [ -68.859854650016771, -32.878778179843827, 0.0 ], [ -68.860621279842249, -32.878629183132489, 0.0 ], [ -68.860614377471052, -32.878601403282488, 0.0 ], [ -68.86345105532989, -32.878051284645025, 0.0 ], [ -68.864149370505004, -32.877915356403093, 0.0 ], [ -68.864178115507727, -32.877985359043656, 0.0 ], [ -68.864236800491497, -32.877972439268184, 0.0 ], [ -68.864268866350102, -32.877966974639214, 0.0 ], [ -68.864299862249865, -32.877962409633085, 0.0 ], [ -68.864334173224293, -32.8779562251665, 0.0 ], [ -68.864391468185786, -32.877943844826852, 0.0 ], [ -68.864326355099635, -32.877688503848752, 0.0 ], [ -68.864311697145496, -32.877631140232531, 0.0 ], [ -68.864023953807887, -32.876570974246981, 0.0 ], [ -68.863973044727317, -32.876392112109151, 0.0 ], [ -68.86391405845562, -32.876184657463213, 0.0 ], [ -68.863898965629204, -32.876131801781774, 0.0 ] ] ] ] } },
{ "type": "Feature", "properties": { "MAP_NAME": "Cl_del Oeste_modificado_2026.dwg", "ccpp1": "1038 1" }, "geometry": { "type": "MultiPolygon", "coordinates": [ [ [ [ -68.862017318841609, -32.878489523432279, 0.0 ], [ -68.862437857050168, -32.880037425593493, 0.0 ], [ -68.862099223551724, -32.880100802412464, 0.0 ], [ -68.862034304970095, -32.880342564949139, 0.0 ], [ -68.860186329478594, -32.880697853885223, 0.0 ], [ -68.86035820337834, -32.881584779275407, 0.0 ], [ -68.860481031374078, -32.881530806366676, 0.0 ], [ -68.860464482049039, -32.881453422642359, 0.0 ], [ -68.861832179589328, -32.881201745583482, 0.0 ], [ -68.862003455707821, -32.882044837327967, 0.0 ], [ -68.862213605556562, -32.88200827994207, 0.0 ], [ -68.862274126641765, -32.882053791927021, 0.0 ], [ -68.86237001309172, -32.882449199669523, 0.0 ], [ -68.863366207710186, -32.882094303536299, 0.0 ], [ -68.863582233270876, -32.881988860923272, 0.0 ], [ -68.864101640584252, -32.881884829974013, 0.0 ], [ -68.864237508222104, -32.882486406755461, 0.0 ], [ -68.864360918879669, -32.883042992448232, 0.0 ], [ -68.865307654500114, -32.88287079591742, 0.0 ], [ -68.866688612885838, -32.88261954627697, 0.0 ], [ -68.86675209945362, -32.882613302980801, 0.0 ], [ -68.866786951093729, -32.88260396249899, 0.0 ], [ -68.867239750069302, -32.882522124792935, 0.0 ], [ -68.867631835070227, -32.8824493265003, 0.0 ], [ -68.868556454111811, -32.88228340907925, 0.0 ], [ -68.868320123743814, -32.881243054769506, 0.0 ], [ -68.868308020260599, -32.881189751958281, 0.0 ], [ -68.869397473000376, -32.880978376934493, 0.0 ], [ -68.869504579275613, -32.880958292602941, 0.0 ], [ -68.869987300542533, -32.880867639533754, 0.0 ], [ -68.870134488189279, -32.881423597958566, 0.0 ], [ -68.870220995707967, -32.881823138724911, 0.0 ], [ -68.870246364202117, -32.881940294982883, 0.0 ], [ -68.870254007103398, -32.881975468943203, 0.0 ], [ -68.870737365281599, -32.881891035344196, 0.0 ], [ -68.871571975881409, -32.881737804782603, 0.0 ], [ -68.872116481770519, -32.881636928535947, 0.0 ], [ -68.871641291126124, -32.879849009698582, 0.0 ], [ -68.870574522723146, -32.880053755276975, 0.0 ], [ -68.870321736158587, -32.880100394125947, 0.0 ], [ -68.870154984209265, -32.880132391744503, 0.0 ], [ -68.870139237770175, -32.880071154022666, 0.0 ], [ -68.870122656165279, -32.880006666629725, 0.0 ], [ -68.870106074584271, -32.879942179233943, 0.0 ], [ -68.870089529155834, -32.879877831635433, 0.0 ], [ -68.870066822928251, -32.879789524148315, 0.0 ], [ -68.870044095497008, -32.879701131874725, 0.0 ], [ -68.869971776883276, -32.879419874428962, 0.0 ], [ -68.869970846074054, -32.879416254063656, 0.0 ], [ -68.869938594574506, -32.879323347905462, 0.0 ], [ -68.869904118058457, -32.879224035596103, 0.0 ], [ -68.869869547982958, -32.879124449063589, 0.0 ], [ -68.86983500564665, -32.879024945504732, 0.0 ], [ -68.86979897043615, -32.878921140204334, 0.0 ], [ -68.869668645712267, -32.878545711493217, 0.0 ], [ -68.869386879532641, -32.877804702392943, 0.0 ], [ -68.865626467770994, -32.877815185914422, 0.0 ], [ -68.862017318841609, -32.878489523432279, 0.0 ] ] ] ] } },
{ "type": "Feature", "properties": { "MAP_NAME": "Cl_del Oeste_modificado_2026.dwg", "ccpp1": "1038 24" }, "geometry": { "type": "MultiPolygon", "coordinates": [ [ [ [ -68.866198832174561, -32.873092262863942, 0.0 ], [ -68.865615772974309, -32.872927883839417, 0.0 ], [ -68.863647037134569, -32.873193084064063, 0.0 ], [ -68.863552502311435, -32.872549981854114, 0.0 ], [ -68.863150591972769, -32.872368207562786, 0.0 ], [ -68.863138302108709, -32.872369455587609, 0.0 ], [ -68.86307899008446, -32.872375522202681, 0.0 ], [ -68.863059184689078, -32.872331316595734, 0.0 ], [ -68.863024912814694, -32.872313425523707, 0.0 ], [ -68.861020128094353, -32.872335357093334, 0.0 ], [ -68.86092684033521, -32.872338678950562, 0.0 ], [ -68.860373724634968, -32.872371509339366, 0.0 ], [ -68.860312516671755, -32.87235998858462, 0.0 ], [ -68.859862832489725, -32.872393204482691, 0.0 ], [ -68.859791184761377, -32.872429461576978, 0.0 ], [ -68.859736792335227, -32.872432555627903, 0.0 ], [ -68.858887596145536, -32.872527802321216, 0.0 ], [ -68.858789059582762, -32.872539862195502, 0.0 ], [ -68.858746032919925, -32.872584717992943, 0.0 ], [ -68.858966082678563, -32.87396762686982, 0.0 ], [ -68.859302681637303, -32.876046143585263, 0.0 ], [ -68.859550761205085, -32.876003955310281, 0.0 ], [ -68.85979884160821, -32.87596176654349, 0.0 ], [ -68.86007951639435, -32.875916639060613, 0.0 ], [ -68.860271480284325, -32.87588439447029, 0.0 ], [ -68.86098545991193, -32.875768428758022, 0.0 ], [ -68.861511829342703, -32.875681166913154, 0.0 ], [ -68.862755340203691, -32.87547500812024, 0.0 ], [ -68.86848066162932, -32.874535345861517, 0.0 ], [ -68.8683836923, -32.873708118856733, 0.0 ], [ -68.86802641811272, -32.873607469516777, 0.0 ], [ -68.867924919004579, -32.87357885712882, 0.0 ], [ -68.867823580174459, -32.873550289912565, 0.0 ], [ -68.86772220936713, -32.873521713563456, 0.0 ], [ -68.867620838625086, -32.873493137132193, 0.0 ], [ -68.867519499990792, -32.873464569669729, 0.0 ], [ -68.867418128310803, -32.873435993073144, 0.0 ], [ -68.867316757764641, -32.873407416395516, 0.0 ], [ -68.867215515453353, -32.873378875839705, 0.0 ], [ -68.867114082021516, -32.873350280897156, 0.0 ], [ -68.867012839840612, -32.873321740177353, 0.0 ], [ -68.866911564613986, -32.873293190323452, 0.0 ], [ -68.866810227504985, -32.873264622287721, 0.0 ], [ -68.866708823171123, -32.873236036064398, 0.0 ], [ -68.866607453081912, -32.873207458812267, 0.0 ], [ -68.866506211226948, -32.873178917682566, 0.0 ], [ -68.866404841268249, -32.873150340266314, 0.0 ], [ -68.866198832174561, -32.873092262863942, 0.0 ] ] ] ] } },
{ "type": "Feature", "properties": { "MAP_NAME": "Cl_del Oeste_modificado_2026.dwg", "ccpp1": "1038 25" }, "geometry": { "type": "MultiPolygon", "coordinates": [ [ [ [ -68.862017318841609, -32.878489523432279, 0.0 ], [ -68.859831032579933, -32.878897955972505, 0.0 ], [ -68.860186329478594, -32.880697853885223, 0.0 ], [ -68.862034304970095, -32.880342564949139, 0.0 ], [ -68.862099223551724, -32.880100802412464, 0.0 ], [ -68.862437857050168, -32.880037425593493, 0.0 ], [ -68.862017318841609, -32.878489523432279, 0.0 ] ] ] ] } },
{ "type": "Feature", "properties": { "MAP_NAME": "Cl_del Oeste_modificado_2026.dwg", "ccpp1": "1038 23" }, "geometry": { "type": "MultiPolygon", "coordinates": [ [ [ [ -68.873060084515544, -32.877462969488739, 0.0 ], [ -68.872955157958842, -32.877160072368227, 0.0 ], [ -68.872924478200474, -32.877168246617373, 0.0 ], [ -68.872895535292699, -32.877083277648758, 0.0 ], [ -68.872475224948161, -32.877185277750591, 0.0 ], [ -68.872610697053773, -32.877572063004074, 0.0 ], [ -68.872675091115156, -32.877556847564961, 0.0 ], [ -68.872835190863356, -32.877518054556624, 0.0 ], [ -68.872879965872087, -32.8775072382658, 0.0 ], [ -68.872889256150572, -32.877504954699774, 0.0 ], [ -68.873060084515544, -32.877462969488739, 0.0 ] ] ] ] } },
{ "type": "Feature", "properties": { "MAP_NAME": "Cl_del Oeste_modificado_2026.dwg", "ccpp1": "1038 270" }, "geometry": { "type": "MultiPolygon", "coordinates": [ [ [ [ -68.863366207710186, -32.882094303536299, 0.0 ], [ -68.86237001309172, -32.882449199669523, 0.0 ], [ -68.862274126641765, -32.882053791927021, 0.0 ], [ -68.862213605556562, -32.88200827994207, 0.0 ], [ -68.862003455707821, -32.882044837327967, 0.0 ], [ -68.861832179589328, -32.881201745583482, 0.0 ], [ -68.860464482049039, -32.881453422642359, 0.0 ], [ -68.860481031374078, -32.881530806366676, 0.0 ], [ -68.86035820337834, -32.881584779275407, 0.0 ], [ -68.86049446924666, -32.882270979643103, 0.0 ], [ -68.860627095124471, -32.882944422477358, 0.0 ], [ -68.860697595329114, -32.883303285488154, 0.0 ], [ -68.860871672473422, -32.883443694282192, 0.0 ], [ -68.860909366933313, -32.883461500457045, 0.0 ], [ -68.8609344769432, -32.883469067432557, 0.0 ], [ -68.861115565843022, -32.883493922737919, 0.0 ], [ -68.861373811765048, -32.883524057976935, 0.0 ], [ -68.861483869713553, -32.883532476390698, 0.0 ], [ -68.86154446169995, -32.883532814891744, 0.0 ], [ -68.861681689839386, -32.883524222115057, 0.0 ], [ -68.861898895691041, -32.8834881257253, 0.0 ], [ -68.861961645774798, -32.883475031184823, 0.0 ], [ -68.862043741029737, -32.883460244736369, 0.0 ], [ -68.863495688547815, -32.88320072384326, 0.0 ], [ -68.864031231119, -32.88310293881937, 0.0 ], [ -68.864340796728058, -32.883046652270508, 0.0 ], [ -68.864360918879669, -32.883042992448232, 0.0 ], [ -68.864237508222104, -32.882486406755461, 0.0 ], [ -68.864101640584252, -32.881884829974013, 0.0 ], [ -68.863582233270876, -32.881988860923272, 0.0 ], [ -68.863366207710186, -32.882094303536299, 0.0 ] ] ] ] } },
{ "type": "Feature", "properties": { "MAP_NAME": "Cl_del Oeste_modificado_2026.dwg", "ccpp1": "1038 241" }, "geometry": { "type": "MultiPolygon", "coordinates": [ [ [ [ -68.871641291126124, -32.879849009698582, 0.0 ], [ -68.872116481770519, -32.881636928535947, 0.0 ], [ -68.873105861435107, -32.881448968381449, 0.0 ], [ -68.873288481342911, -32.881360184354989, 0.0 ], [ -68.873495321617085, -32.881350127954335, 0.0 ], [ -68.873637357580591, -32.881281833015585, 0.0 ], [ -68.873739101119767, -32.881028715043627, 0.0 ], [ -68.873919689201415, -32.879509572661632, 0.0 ], [ -68.873818398827609, -32.879444454808187, 0.0 ], [ -68.871641291126124, -32.879849009698582, 0.0 ] ] ] ] } },
{ "type": "Feature", "properties": { "MAP_NAME": "Cl_del Oeste_modificado_2026.dwg", "ccpp1": "1038 28" }, "geometry": { "type": "MultiPolygon", "coordinates": [ [ [ [ -68.858041303366818, -32.871259948840347, 0.0 ], [ -68.858057826698783, -32.871349145173127, 0.0 ], [ -68.858215690407974, -32.871321194938858, 0.0 ], [ -68.858202018540197, -32.871231464448641, 0.0 ], [ -68.858041303366818, -32.871259948840347, 0.0 ] ] ] ] } },
{ "type": "Feature", "properties": { "MAP_NAME": "Cl_del Oeste_modificado_2026.dwg", "ccpp1": "1038 2" }, "geometry": { "type": "MultiPolygon", "coordinates": [ [ [ [ -68.869225180974439, -32.900516809415166, 0.0 ], [ -68.870896593473674, -32.900339290294646, 0.0 ], [ -68.870873425044152, -32.900321593237287, 0.0 ], [ -68.870740890767664, -32.900245624128708, 0.0 ], [ -68.870618962186455, -32.900153255086551, 0.0 ], [ -68.870488688121043, -32.899993430830229, 0.0 ], [ -68.870438273696564, -32.899895815687053, 0.0 ], [ -68.870425842238276, -32.899771549848573, 0.0 ], [ -68.870434590955341, -32.89956218636496, 0.0 ], [ -68.870418051987514, -32.899322680203277, 0.0 ], [ -68.870323241677596, -32.899398864937929, 0.0 ], [ -68.869845744706609, -32.899795293006306, 0.0 ], [ -68.869641384931199, -32.89993871941865, 0.0 ], [ -68.869415983668716, -32.900071573740945, 0.0 ], [ -68.869192727253505, -32.900199109923143, 0.0 ], [ -68.869005224780594, -32.900289353181059, 0.0 ], [ -68.868788338874865, -32.900372532139556, 0.0 ], [ -68.868579904357901, -32.90045039962969, 0.0 ], [ -68.86841564992902, -32.900503426616886, 0.0 ], [ -68.868284356312017, -32.900529257062985, 0.0 ], [ -68.868090637945258, -32.900557456094809, 0.0 ], [ -68.867804461022629, -32.900587270319903, 0.0 ], [ -68.867574970104613, -32.900592347452346, 0.0 ], [ -68.86736238291985, -32.900586802149448, 0.0 ], [ -68.867126719150491, -32.900574108610307, 0.0 ], [ -68.866833272421445, -32.900533310529418, 0.0 ], [ -68.866610266487683, -32.900490513038356, 0.0 ], [ -68.866389422438488, -32.900431757539742, 0.0 ], [ -68.866151701677552, -32.900365770062926, 0.0 ], [ -68.865876079610288, -32.900271518574264, 0.0 ], [ -68.864940983234504, -32.899821109516736, 0.0 ], [ -68.864724448924008, -32.899600953134723, 0.0 ], [ -68.864474451620595, -32.899316740079684, 0.0 ], [ -68.864295914799868, -32.89906290089278, 0.0 ], [ -68.864117505016964, -32.898796528081, 0.0 ], [ -68.863782829117085, -32.898812123860587, 0.0 ], [ -68.863791114395596, -32.898845856114107, 0.0 ], [ -68.864026869664357, -32.900054468145207, 0.0 ], [ -68.864060340561565, -32.900183987280947, 0.0 ], [ -68.864089751283743, -32.900242629128044, 0.0 ], [ -68.864862774191167, -32.901208636310074, 0.0 ], [ -68.864894262481386, -32.901237073581527, 0.0 ], [ -68.864974271801614, -32.901269079844226, 0.0 ], [ -68.865058372530669, -32.901281523792804, 0.0 ], [ -68.865186753566462, -32.901274629095376, 0.0 ], [ -68.865304705457191, -32.901237516407946, 0.0 ], [ -68.865437421037697, -32.901191492764632, 0.0 ], [ -68.865942350800978, -32.901050379603717, 0.0 ], [ -68.866227396641264, -32.900992255360094, 0.0 ], [ -68.866576921038913, -32.900916345817279, 0.0 ], [ -68.866890598335999, -32.900866997004194, 0.0 ], [ -68.867254741209408, -32.900807061044311, 0.0 ], [ -68.867671596708107, -32.900734736493369, 0.0 ], [ -68.868267297163214, -32.900644925969928, 0.0 ], [ -68.868774791912372, -32.900571340661585, 0.0 ], [ -68.869225180974439, -32.900516809415166, 0.0 ] ] ] ] } },
{ "type": "Feature", "properties": { "MAP_NAME": "Cl_del Oeste_modificado_2026.dwg", "ccpp1": "1038 289" }, "geometry": { "type": "MultiPolygon", "coordinates": [ [ [ [ -68.871229791877525, -32.892926832046413, 0.0 ], [ -68.871415459479564, -32.89261476730465, 0.0 ], [ -68.871558970775226, -32.892334578862524, 0.0 ], [ -68.871639369027136, -32.89201888899229, 0.0 ], [ -68.87168101892459, -32.891818305332947, 0.0 ], [ -68.871572162616147, -32.891413694670305, 0.0 ], [ -68.871424793077622, -32.891406419873675, 0.0 ], [ -68.871408029165224, -32.891395762673753, 0.0 ], [ -68.871365977071804, -32.891356676171149, 0.0 ], [ -68.87133653605305, -32.891317692799063, 0.0 ], [ -68.8713239813233, -32.891278636627085, 0.0 ], [ -68.871311441986393, -32.891228940506167, 0.0 ], [ -68.871311508728041, -32.891182773954668, 0.0 ], [ -68.871357887784384, -32.891111858527289, 0.0 ], [ -68.871412694440977, -32.891051591711246, 0.0 ], [ -68.871467475374743, -32.891009088173149, 0.0 ], [ -68.871505441263039, -32.890991363859833, 0.0 ], [ -68.871471981563758, -32.8907749234317, 0.0 ], [ -68.871316984856747, -32.890277931799467, 0.0 ], [ -68.871170664156921, -32.889768776033968, 0.0 ], [ -68.871107708033293, -32.889626784840232, 0.0 ], [ -68.871002701076122, -32.889445706977931, 0.0 ], [ -68.870805308413168, -32.88915092041367, 0.0 ], [ -68.870708857455867, -32.888966334531993, 0.0 ], [ -68.870721849588904, -32.888703775213763, 0.0 ], [ -68.870772514241338, -32.888551261262876, 0.0 ], [ -68.870486406757323, -32.888487035318946, 0.0 ], [ -68.8702130120584, -32.888426428683069, 0.0 ], [ -68.869876381349485, -32.888344475733575, 0.0 ], [ -68.869611292252472, -32.888305156359507, 0.0 ], [ -68.869240878472326, -32.888304769616006, 0.0 ], [ -68.868904157361342, -32.888357707106366, 0.0 ], [ -68.868605236843464, -32.88843187317579, 0.0 ], [ -68.868243091996192, -32.888548621973534, 0.0 ], [ -68.868003045681874, -32.888629971980372, 0.0 ], [ -68.8679609069207, -32.888651207431145, 0.0 ], [ -68.867990345447012, -32.888690281777741, 0.0 ], [ -68.868070248310985, -32.888715162628515, 0.0 ], [ -68.868255403470783, -32.888750884487017, 0.0 ], [ -68.868440516939359, -32.888814919159643, 0.0 ], [ -68.868659216535022, -32.888932278838212, 0.0 ], [ -68.868814776602804, -32.889035325181673, 0.0 ], [ -68.868982869461547, -32.889191674461742, 0.0 ], [ -68.869079512663461, -32.889315938667167, 0.0 ], [ -68.869159270352043, -32.889440185130724, 0.0 ], [ -68.869205405121008, -32.889536083251521, 0.0 ], [ -68.869259915229449, -32.889678066571001, 0.0 ], [ -68.869293392414249, -32.889805871318593, 0.0 ], [ -68.869310064745122, -32.889951331656412, 0.0 ], [ -68.86930134048724, -32.890142932075698, 0.0 ], [ -68.869242166781433, -32.890338086516763, 0.0 ], [ -68.869119596009739, -32.890692774047899, 0.0 ], [ -68.868980205986801, -32.891001367366428, 0.0 ], [ -68.868727843846685, -32.891530666280119, 0.0 ], [ -68.868622328355116, -32.891768331574056, 0.0 ], [ -68.868529280063569, -32.892030806396853, 0.0 ], [ -68.868390024223771, -32.892318119204866, 0.0 ], [ -68.868195940310471, -32.89260528389763, 0.0 ], [ -68.867795190239136, -32.89322937240167, 0.0 ], [ -68.867664628569131, -32.893416966460684, 0.0 ], [ -68.867554838271019, -32.893651019485169, 0.0 ], [ -68.867512529293634, -32.893856740639038, 0.0 ], [ -68.867546037185363, -32.893963265884317, 0.0 ], [ -68.867663700054052, -32.894041476929118, 0.0 ], [ -68.868071814631975, -32.89414830773692, 0.0 ], [ -68.868425276862837, -32.894209003293454, 0.0 ], [ -68.868707285389505, -32.894237702977293, 0.0 ], [ -68.869001937004526, -32.894245135355163, 0.0 ], [ -68.869279231019661, -32.894209357880264, 0.0 ], [ -68.869565472834125, -32.894120930348564, 0.0 ], [ -68.869927680032788, -32.893975864811814, 0.0 ], [ -68.870121471517308, -32.893887339804344, 0.0 ], [ -68.870412100243641, -32.893720828406778, 0.0 ], [ -68.87075340940541, -32.893465732448654, 0.0 ], [ -68.870981029696978, -32.893263718099739, 0.0 ], [ -68.871229791877525, -32.892926832046413, 0.0 ] ] ] ] } }
]
}
