{
"type": "FeatureCollection",
"name": "Area de influencia_1012_2026",
"crs": { "type": "name", "properties": { "name": "urn:ogc:def:crs:EPSG::22172" } },
"features": [
{ "type": "Feature", "properties": { }, "geometry": { "type": "MultiPolygon", "coordinates": [ [ [ [ 2511414.453926817048341, 6352568.637343692593277, 0.0 ], [ 2511113.482694412115961, 6352879.750145238824189, 0.0 ], [ 2511255.045583457220346, 6353016.698406343348324, 0.0 ], [ 2511796.950387057848275, 6353265.790823492221534, 0.0 ], [ 2511868.723897849209607, 6353898.795387046411633, 0.0 ], [ 2512348.762616919819266, 6354883.357662511989474, 0.0 ], [ 2512427.269886708818376, 6354877.288187939673662, 0.0 ], [ 2512447.484252919908613, 6354801.513510150834918, 0.0 ], [ 2512605.316161619964987, 6354872.075683987699449, 0.0 ], [ 2512599.857259455136955, 6354973.273473471403122, 0.0 ], [ 2512868.503356074914336, 6354884.497202783823013, 0.0 ], [ 2512888.880626772996038, 6354902.790312534198165, 0.0 ], [ 2512947.964652496855706, 6354913.32372014131397, 0.0 ], [ 2513003.155571160838008, 6354906.785057629458606, 0.0 ], [ 2513075.588111612945795, 6354864.525131768546999, 0.0 ], [ 2513145.795638530049473, 6354812.590911738574505, 0.0 ], [ 2513170.100843076128513, 6354793.798436461016536, 0.0 ], [ 2513272.507433190010488, 6354783.522405583411455, 0.0 ], [ 2513453.252700481098145, 6354799.225105778314173, 0.0 ], [ 2513472.824772566091269, 6354689.69407401420176, 0.0 ], [ 2513583.435463185887784, 6354677.173898331820965, 0.0 ], [ 2513626.654837861191481, 6354758.817460698075593, 0.0 ], [ 2514109.348452830221504, 6354801.996908688917756, 0.0 ], [ 2513894.36386902211234, 6354359.316129345446825, 0.0 ], [ 2513819.110805664211512, 6354189.697457923553884, 0.0 ], [ 2513773.613904387224466, 6354071.328343112021685, 0.0 ], [ 2513659.95495914015919, 6353876.17113746330142, 0.0 ], [ 2513630.67577115399763, 6353787.213488302193582, 0.0 ], [ 2513735.848864761181176, 6353778.421677610836923, 0.0 ], [ 2513395.170918234158307, 6352898.476429459638894, 0.0 ], [ 2513198.274579603224993, 6352256.032738793641329, 0.0 ], [ 2513114.964102657046169, 6351982.769741793163121, 0.0 ], [ 2513075.962512786034495, 6351787.350742179900408, 0.0 ], [ 2512989.436497902031988, 6351443.996342699974775, 0.0 ], [ 2512922.332652957178652, 6351315.5489795608446, 0.0 ], [ 2512775.679216437041759, 6350875.337903527542949, 0.0 ], [ 2512773.04187414702028, 6350814.953470710664988, 0.0 ], [ 2512732.527622050140053, 6350659.653313329443336, 0.0 ], [ 2512687.33833543304354, 6350566.657102080062032, 0.0 ], [ 2512651.258240680210292, 6350420.698839226737618, 0.0 ], [ 2512596.430649721063673, 6349908.001556167379022, 0.0 ], [ 2512573.087713425979018, 6349801.889926292933524, 0.0 ], [ 2512540.549742550123483, 6349672.669627560302615, 0.0 ], [ 2512472.198321177158505, 6349513.768163328059018, 0.0 ], [ 2512436.059008826967329, 6349352.644541971385479, 0.0 ], [ 2512377.155431595165282, 6349149.544313341379166, 0.0 ], [ 2512331.813032730016857, 6348804.85413505975157, 0.0 ], [ 2512266.369505589827895, 6348618.313121948391199, 0.0 ], [ 2512157.076690500136465, 6348142.734085470438004, 0.0 ], [ 2512089.84141328278929, 6347984.020647089928389, 0.0 ], [ 2511926.873677025083452, 6347797.187651748768985, 0.0 ], [ 2511670.931433556135744, 6347598.069716330617666, 0.0 ], [ 2511510.654686075169593, 6347449.257905585691333, 0.0 ], [ 2511120.557954139076173, 6346969.648657988756895, 0.0 ], [ 2510923.882971160113811, 6346810.804174859076738, 0.0 ], [ 2510914.866581523790956, 6346763.426477926783264, 0.0 ], [ 2510820.57382893608883, 6346652.492673185653985, 0.0 ], [ 2510706.639181809034199, 6346543.901126622222364, 0.0 ], [ 2510389.436769690830261, 6346232.243116991594434, 0.0 ], [ 2510221.893755841068923, 6346067.300777359865606, 0.0 ], [ 2510029.939345236867666, 6346131.527324049733579, 0.0 ], [ 2510051.859436424914747, 6346287.0907725347206, 0.0 ], [ 2510248.291745501104742, 6346258.402240736410022, 0.0 ], [ 2510392.923144640866667, 6346434.208738029934466, 0.0 ], [ 2510439.285273890011013, 6346481.668834244832397, 0.0 ], [ 2510485.30663323123008, 6346526.801727831363678, 0.0 ], [ 2510501.143125134985894, 6346538.805084763094783, 0.0 ], [ 2510518.220079855062068, 6346556.017765348777175, 0.0 ], [ 2510533.035369466990232, 6346575.672509301453829, 0.0 ], [ 2510547.506141419056803, 6346588.711563265882432, 0.0 ], [ 2510566.592901395168155, 6346609.243916274048388, 0.0 ], [ 2510598.148400696925819, 6346654.566958136856556, 0.0 ], [ 2510629.7039, 6346699.889999999664724, 0.0 ], [ 2510763.2971, 6346868.3915, 0.0 ], [ 2510758.976600000169128, 6346870.616999998688698, 0.0 ], [ 2510748.322109287139028, 6346989.671324524097145, 0.0 ], [ 2510703.257925190031528, 6347232.111415984109044, 0.0 ], [ 2510657.506565686780959, 6347478.248431550338864, 0.0 ], [ 2510659.574136632028967, 6347559.211288766004145, 0.0 ], [ 2510647.17575904680416, 6347695.603850165382028, 0.0 ], [ 2510645.148684058804065, 6347803.339230060577393, 0.0 ], [ 2510645.670499139931053, 6347904.825815320946276, 0.0 ], [ 2510648.910716999787837, 6348008.930764538235962, 0.0 ], [ 2510645.162331771105528, 6348199.178966975770891, 0.0 ], [ 2510624.394555603154004, 6348341.292993461713195, 0.0 ], [ 2510570.577391173224896, 6348617.147540484555066, 0.0 ], [ 2510537.162829274777323, 6348747.907422857359052, 0.0 ], [ 2510515.444554796908051, 6348843.54523295443505, 0.0 ], [ 2510480.24133868701756, 6348910.666532887145877, 0.0 ], [ 2510452.391925275791436, 6349071.060037262737751, 0.0 ], [ 2510447.429825135972351, 6349322.582550252787769, 0.0 ], [ 2510439.572319598868489, 6349514.891479853540659, 0.0 ], [ 2510437.346690996084362, 6349573.471317587420344, 0.0 ], [ 2510445.879774361848831, 6349618.314573887735605, 0.0 ], [ 2510484.98148526577279, 6349723.144818533211946, 0.0 ], [ 2510539.625415158923715, 6349813.811136230826378, 0.0 ], [ 2510572.922664586920291, 6349937.223551775328815, 0.0 ], [ 2510579.570902673061937, 6350027.808696646243334, 0.0 ], [ 2510590.097498632967472, 6350103.892016973346472, 0.0 ], [ 2510699.479719530791044, 6350090.389173896051943, 0.0 ], [ 2510704.586405810900033, 6350128.824733753688633, 0.0 ], [ 2510597.600115973036736, 6350140.741883368231356, 0.0 ], [ 2510603.627795541193336, 6350175.255245906300843, 0.0 ], [ 2510671.891263580881059, 6350179.229336434975266, 0.0 ], [ 2510673.151050237938762, 6350193.963195961900055, 0.0 ], [ 2510718.246325666084886, 6350186.651169989258051, 0.0 ], [ 2510779.506935879122466, 6350179.616517423652112, 0.0 ], [ 2510781.492106114979833, 6350230.669567784294486, 0.0 ], [ 2510754.443655109032989, 6350232.726252401247621, 0.0 ], [ 2510800.728680565021932, 6350357.816009752452374, 0.0 ], [ 2510774.770508727058768, 6350364.347887383773923, 0.0 ], [ 2510830.392922822851688, 6350491.565385323949158, 0.0 ], [ 2511010.656183891929686, 6350584.81213257368654, 0.0 ], [ 2511106.425558432005346, 6350689.047922194935381, 0.0 ], [ 2511162.415595618076622, 6350773.546996903605759, 0.0 ], [ 2511214.12982766283676, 6350787.331820991821587, 0.0 ], [ 2511284.873045500833541, 6350871.024255099706352, 0.0 ], [ 2511221.656089995987713, 6350912.311122586019337, 0.0 ], [ 2511296.5669503537938, 6351021.466443601064384, 0.0 ], [ 2511350.281272204127163, 6351094.475367887876928, 0.0 ], [ 2511356.751253368798643, 6351121.851639648899436, 0.0 ], [ 2511352.242562285158783, 6351197.229774772189558, 0.0 ], [ 2511351.145988376811147, 6351302.174837720580399, 0.0 ], [ 2511323.050479101017118, 6351303.093633905984461, 0.0 ], [ 2511318.784340066835284, 6351394.694956626743078, 0.0 ], [ 2511298.593735451810062, 6351393.832813613116741, 0.0 ], [ 2511297.40046708798036, 6351419.325885006226599, 0.0 ], [ 2511322.452207264956087, 6351419.757537639699876, 0.0 ], [ 2511320.994406057987362, 6351460.399751342833042, 0.0 ], [ 2511306.591442012228072, 6351460.814058458432555, 0.0 ], [ 2511252.579982716124505, 6351426.624136905185878, 0.0 ], [ 2511225.99563726503402, 6351422.584458440542221, 0.0 ], [ 2511229.077120368834585, 6351488.231867937371135, 0.0 ], [ 2511256.17080112779513, 6351488.126415378414094, 0.0 ], [ 2511277.180853145197034, 6351532.150970447808504, 0.0 ], [ 2511296.226314504165202, 6351530.784437676891685, 0.0 ], [ 2511300.696209636051208, 6351610.735669599846005, 0.0 ], [ 2511262.530784212984145, 6351738.670393853448331, 0.0 ], [ 2511243.55491244001314, 6351739.491001112386584, 0.0 ], [ 2511249.287503345869482, 6351831.176732204854488, 0.0 ], [ 2511238.192809787113219, 6351831.479635368101299, 0.0 ], [ 2511257.267030990216881, 6351922.021305064670742, 0.0 ], [ 2511231.827214641030878, 6351920.739377534016967, 0.0 ], [ 2511255.792679985053837, 6351947.449889432638884, 0.0 ], [ 2511318.421069545205683, 6351959.922625127248466, 0.0 ], [ 2511319.037432163022459, 6351989.554442034102976, 0.0 ], [ 2511018.638622702565044, 6351965.961793383583426, 0.0 ], [ 2511063.02509785676375, 6352116.036828922107816, 0.0 ], [ 2511260.211070240009576, 6352130.788326884619892, 0.0 ], [ 2511293.722371278796345, 6352139.215882441960275, 0.0 ], [ 2511298.156285936012864, 6352180.691593788564205, 0.0 ], [ 2511400.297371578868479, 6352204.158223745413125, 0.0 ], [ 2511423.231809940189123, 6352241.937733957543969, 0.0 ], [ 2511377.601248648017645, 6352262.664815915748477, 0.0 ], [ 2511400.304067734163254, 6352313.702003357931972, 0.0 ], [ 2511429.217885366175324, 6352332.366520714946091, 0.0 ], [ 2511477.709293923806399, 6352304.277919761836529, 0.0 ], [ 2511590.849400786217302, 6352413.514734612777829, 0.0 ], [ 2511414.453926817048341, 6352568.637343692593277, 0.0 ] ] ] ] } }
]
}
