{
"type": "FeatureCollection",
"name": "Area incluencia Compuertas_2026",
"crs": { "type": "name", "properties": { "name": "urn:ogc:def:crs:OGC:1.3:CRS84" } },
"features": [
{ "type": "Feature", "properties": { "LAYER": "AREA_CANAL_COMPUERTAS", "GM_TYPE": "Unknown Area Type", "MAP_NAME": "Area_1104_2026.dwg", "CLOSED": "YES", "BORDER_STY": "Solid", "BORDER_COL": "RGB(255,0,255)", "BORDER_WID": 1, "FILL_STYLE": "No Fill" }, "geometry": { "type": "MultiPolygon", "coordinates": [ [ [ [ -69.006083676542104, -33.041085815839452, 0.0 ], [ -69.004271311162981, -33.040737099852905, 0.0 ], [ -69.004590524215743, -33.038842581385381, 0.0 ], [ -69.00084672723699, -33.039099327952549, 0.0 ], [ -68.99667009416963, -33.038603917962853, 0.0 ], [ -68.990355918082244, -33.037976259831488, 0.0 ], [ -68.979288179532659, -33.037135060356029, 0.0 ], [ -68.978399019693697, -33.036844651368916, 0.0 ], [ -68.976303849456684, -33.034578666727064, 0.0 ], [ -68.97519487026608, -33.033196088196178, 0.0 ], [ -68.974569450794647, -33.032197587213538, 0.0 ], [ -68.974291497838635, -33.030054935113505, 0.0 ], [ -68.973984236389768, -33.027346280592717, 0.0 ], [ -68.972695298575672, -33.02626293380132, 0.0 ], [ -68.970658089265655, -33.025680837882042, 0.0 ], [ -68.970160516545889, -33.024969323040608, 0.0 ], [ -68.951769679913383, -33.017841746378991, 0.0 ], [ -68.941412958638949, -33.013727586994229, 0.0 ], [ -68.936133536511662, -33.008632677908679, 0.0 ], [ -68.921861958077059, -33.003746326083863, 0.0 ], [ -68.917269185165694, -33.000575834351309, 0.0 ], [ -68.913526612784949, -33.002733736886228, 0.0 ], [ -68.908593731564679, -32.999217272512112, 0.0 ], [ -68.906965584073404, -33.000665666531546, 0.0 ], [ -68.909947604787817, -33.003082995182325, 0.0 ], [ -68.910989302559955, -33.00348382135401, 0.0 ], [ -68.914716334954321, -33.00456896970681, 0.0 ], [ -68.917419271806594, -33.006124897862627, 0.0 ], [ -68.924029020088383, -33.010877212449415, 0.0 ], [ -68.92694716046347, -33.013148527844855, 0.0 ], [ -68.926266867117889, -33.013774864975908, 0.0 ], [ -68.926826889790362, -33.014252014134073, 0.0 ], [ -68.927480699679194, -33.014496728889767, 0.0 ], [ -68.926954622351431, -33.015037567397307, 0.0 ], [ -68.927239473989133, -33.015317732686235, 0.0 ], [ -68.926787223137438, -33.015812312562467, 0.0 ], [ -68.926856636629765, -33.015974649832813, 0.0 ], [ -68.926985254659897, -33.0168500664238, 0.0 ], [ -68.927850192042129, -33.016951494069254, 0.0 ], [ -68.928243398394812, -33.016651019120175, 0.0 ], [ -68.928494389848709, -33.016517246381163, 0.0 ], [ -68.928898115260111, -33.016551615700344, 0.0 ], [ -68.929516965581314, -33.016831432929877, 0.0 ], [ -68.929667210388615, -33.016930430600944, 0.0 ], [ -68.929554911751879, -33.016959150625652, 0.0 ], [ -68.929486745483771, -33.017395814329831, 0.0 ], [ -68.929579855597112, -33.017496883763663, 0.0 ], [ -68.9292841974369, -33.018766708586803, 0.0 ], [ -68.929103536685659, -33.019510105317714, 0.0 ], [ -68.929358029545824, -33.021998403817427, 0.0 ], [ -68.929680857376241, -33.025219360508842, 0.0 ], [ -68.92980338325529, -33.026767014557997, 0.0 ], [ -68.930002585635407, -33.027218834959058, 0.0 ], [ -68.932653108685557, -33.032837613912129, 0.0 ], [ -68.93272598349958, -33.032937752078666, 0.0 ], [ -68.932888384143851, -33.033093377859267, 0.0 ], [ -68.9330063982339, -33.033166207605525, 0.0 ], [ -68.932976853323666, -33.033303698970997, 0.0 ], [ -68.933306331014919, -33.03400049992586, 0.0 ], [ -68.934445457505035, -33.036383824568624, 0.0 ], [ -68.935410045653057, -33.03843753515708, 0.0 ], [ -68.935382582056903, -33.0384414791396, 0.0 ], [ -68.936000432908202, -33.039743411387647, 0.0 ], [ -68.935946985038385, -33.039751327401078, 0.0 ], [ -68.936610430597838, -33.041311339778495, 0.0 ], [ -68.937352430097789, -33.042953220324058, 0.0 ], [ -68.938598164024086, -33.045707991626749, 0.0 ], [ -68.938660207496071, -33.045936142214799, 0.0 ], [ -68.938721772629805, -33.045994087274821, 0.0 ], [ -68.938777296320637, -33.047106217322849, 0.0 ], [ -68.942292765358729, -33.047195986927832, 0.0 ], [ -68.942674562454897, -33.047329808518427, 0.0 ], [ -68.944217130950037, -33.047377264388928, 0.0 ], [ -68.945398596658421, -33.047368088588335, 0.0 ], [ -68.945868066457706, -33.047361520768604, 0.0 ], [ -68.945889997051623, -33.04730391329953, 0.0 ], [ -68.947499565653132, -33.047164044126525, 0.0 ], [ -68.949261690158821, -33.047010200399775, 0.0 ], [ -68.949789753327821, -33.047030745706735, 0.0 ], [ -68.950342964089515, -33.046897918098281, 0.0 ], [ -68.952386969913277, -33.046798143592461, 0.0 ], [ -68.952890848456974, -33.046612684150894, 0.0 ], [ -68.953082436334512, -33.046500436548698, 0.0 ], [ -68.953291674445452, -33.046564777346845, 0.0 ], [ -68.953931120908024, -33.046364917073134, 0.0 ], [ -68.9549338566096, -33.046368139337133, 0.0 ], [ -68.955809482446327, -33.046156320336408, 0.0 ], [ -68.956373619790867, -33.046310913716248, 0.0 ], [ -68.956673712469311, -33.046305391330861, 0.0 ], [ -68.956773202535544, -33.046311202371605, 0.0 ], [ -68.95713672078324, -33.046419857615945, 0.0 ], [ -68.957593251800475, -33.046414069599813, 0.0 ], [ -68.9579260028341, -33.046336976423547, 0.0 ], [ -68.958200524572788, -33.046377808364845, 0.0 ], [ -68.958352871314673, -33.046381316250638, 0.0 ], [ -68.958486628581127, -33.046378575770333, 0.0 ], [ -68.958694938279095, -33.046330720646274, 0.0 ], [ -68.958877408258047, -33.046408306872863, 0.0 ], [ -68.959224709179807, -33.046528760044367, 0.0 ], [ -68.959303881857409, -33.046529687062531, 0.0 ], [ -68.959771465249048, -33.046423493679406, 0.0 ], [ -68.960988671203012, -33.048561200333317, 0.0 ], [ -68.961308032944686, -33.049277203694771, 0.0 ], [ -68.961841617299399, -33.050412620302453, 0.0 ], [ -68.96540901815581, -33.050095717423019, 0.0 ], [ -68.965400738607912, -33.050285650945419, 0.0 ], [ -68.973993480454325, -33.049167250768996, 0.0 ], [ -68.974503955547576, -33.048994022664814, 0.0 ], [ -68.977236626585352, -33.047247552337673, 0.0 ], [ -68.97850828759411, -33.046159966792338, 0.0 ], [ -68.977936223967603, -33.045548965024061, 0.0 ], [ -68.979168579257617, -33.045316812670599, 0.0 ], [ -68.979288636532885, -33.045412684593025, 0.0 ], [ -68.97947138022991, -33.045432162378319, 0.0 ], [ -68.979645297000118, -33.045533239930862, 0.0 ], [ -68.979954067855729, -33.046658915333367, 0.0 ], [ -68.980332709214835, -33.04680989031251, 0.0 ], [ -68.981117261573885, -33.045598146675552, 0.0 ], [ -68.981810317169007, -33.045979109447778, 0.0 ], [ -68.984895930972982, -33.04562964093261, 0.0 ], [ -68.985700300810109, -33.045324029156831, 0.0 ], [ -68.989577718030489, -33.044376050229097, 0.0 ], [ -68.992167047406681, -33.044027921911578, 0.0 ], [ -68.995095269771781, -33.044384046747687, 0.0 ], [ -68.997820531858693, -33.043356292223777, 0.0 ], [ -68.998223250724209, -33.043279882348855, 0.0 ], [ -69.000687928529132, -33.043177407459098, 0.0 ], [ -69.001493698129437, -33.042861501109165, 0.0 ], [ -69.001743108916699, -33.042691481319046, 0.0 ], [ -69.001884436247508, -33.04247157104993, 0.0 ], [ -69.003707576194046, -33.041649556988339, 0.0 ], [ -69.006083676542104, -33.041085815839452, 0.0 ] ] ] ] } }
]
}
