{
"type": "FeatureCollection",
"name": "Jarillal área de influencia",
"crs": { "type": "name", "properties": { "name": "urn:ogc:def:crs:OGC:1.3:CRS84" } },
"features": [
{ "type": "Feature", "properties": { "LAYER": "AREA_DE_INFLUENCIA_JARILLA", "GM_TYPE": "Unknown Area Type", "MAP_NAME": "Area de influencia_Cl_Jarillal_2026.dwg", "CLOSED": "YES", "BORDER_STY": "Solid", "BORDER_COL": "RGB(0,255,255)", "BORDER_WID": 1, "FILL_STYLE": "No Fill" }, "geometry": { "type": "MultiPolygon", "coordinates": [ [ [ [ -68.853265694286037, -32.79777835775144, 0.0 ], [ -68.832977233196317, -32.797548266208118, 0.0 ], [ -68.832076384995858, -32.796058207773783, 0.0 ], [ -68.824719514598812, -32.796459780035207, 0.0 ], [ -68.829672311468613, -32.818339463177622, 0.0 ], [ -68.832970831294276, -32.829189691610523, 0.0 ], [ -68.833222401774123, -32.832208201616645, 0.0 ], [ -68.833455668279342, -32.836515790185835, 0.0 ], [ -68.833557971515731, -32.839014478579713, 0.0 ], [ -68.833647471687158, -32.841951324772864, 0.0 ], [ -68.834296101817827, -32.85167274485655, 0.0 ], [ -68.83427918393599, -32.854614367063284, 0.0 ], [ -68.833477007755761, -32.856700465267714, 0.0 ], [ -68.832982918977606, -32.860332608634401, 0.0 ], [ -68.832399477507039, -32.864045187201029, 0.0 ], [ -68.842760795804665, -32.903989849825336, 0.0 ], [ -68.837689499455252, -32.904481500484771, 0.0 ], [ -68.838184253738376, -32.906150932387654, 0.0 ], [ -68.837726195754996, -32.908722673746752, 0.0 ], [ -68.838646723808452, -32.911208527760408, 0.0 ], [ -68.838593139087479, -32.911891179848517, 0.0 ], [ -68.838269735237034, -32.91286200004064, 0.0 ], [ -68.837797610249439, -32.914199599754625, 0.0 ], [ -68.837651524708477, -32.918549392132917, 0.0 ], [ -68.837642646976761, -32.92321240151788, 0.0 ], [ -68.837834754529666, -32.925512480645736, 0.0 ], [ -68.838375687350876, -32.927077417451834, 0.0 ], [ -68.83904893480198, -32.929030988561607, 0.0 ], [ -68.840341197031876, -32.934013652367035, 0.0 ], [ -68.841295135536555, -32.938395944053759, 0.0 ], [ -68.843588406757419, -32.945672188203815, 0.0 ], [ -68.848128815533684, -32.951515169224898, 0.0 ], [ -68.849298626335766, -32.952878174915135, 0.0 ], [ -68.850622911534586, -32.954263376946066, 0.0 ], [ -68.852514446945591, -32.957674498473715, 0.0 ], [ -68.853497460619167, -32.959954333515576, 0.0 ], [ -68.854437439490511, -32.961124413423043, 0.0 ], [ -68.855214243889804, -32.960889814353692, 0.0 ], [ -68.854296854452286, -32.958741913998431, 0.0 ], [ -68.861987263972821, -32.9588905025199, 0.0 ], [ -68.85847204089238, -32.956890159571479, 0.0 ], [ -68.857324954172029, -32.955654741636835, 0.0 ], [ -68.85591770704265, -32.953130104915957, 0.0 ], [ -68.85624712340686, -32.95304084568393, 0.0 ], [ -68.85606272027303, -32.951382586049583, 0.0 ], [ -68.859320509495291, -32.951132463125987, 0.0 ], [ -68.863751873729143, -32.950873568919839, 0.0 ], [ -68.864813688105926, -32.948202495025093, 0.0 ], [ -68.863765976188873, -32.946308409093234, 0.0 ], [ -68.86318472002533, -32.945345313035304, 0.0 ], [ -68.862468927434236, -32.943829923653304, 0.0 ], [ -68.862368693203635, -32.941904959033842, 0.0 ], [ -68.862997626124667, -32.941558533598936, 0.0 ], [ -68.864282608449329, -32.932070548342715, 0.0 ], [ -68.863824027503711, -32.924181698718982, 0.0 ], [ -68.865835638848409, -32.920196320639761, 0.0 ], [ -68.86858324619736, -32.916534749532033, 0.0 ], [ -68.869122858168254, -32.915545521034232, 0.0 ], [ -68.870147082455176, -32.912016205984628, 0.0 ], [ -68.872380248482656, -32.90860828699735, 0.0 ], [ -68.873882919779888, -32.908119939232776, 0.0 ], [ -68.874064115970342, -32.907592528417176, 0.0 ], [ -68.872763813826751, -32.905002451366023, 0.0 ], [ -68.872703973043471, -32.900543465234627, 0.0 ], [ -68.867961389537655, -32.900898271887051, 0.0 ], [ -68.864833311264874, -32.901781970581602, 0.0 ], [ -68.864574868126027, -32.901136420917304, 0.0 ], [ -68.863975173709903, -32.900368021160631, 0.0 ], [ -68.86120985540731, -32.886339379078507, 0.0 ], [ -68.859215668764705, -32.876721359300333, 0.0 ], [ -68.857974846122687, -32.86838941418366, 0.0 ], [ -68.858863574041422, -32.865813473070126, 0.0 ], [ -68.859821803317232, -32.854357586482621, 0.0 ], [ -68.859762454729321, -32.850933370599869, 0.0 ], [ -68.860247046753031, -32.846551723035553, 0.0 ], [ -68.862663030970339, -32.840917222566276, 0.0 ], [ -68.861980809396584, -32.840731474111621, 0.0 ], [ -68.864596783951072, -32.832918007612406, 0.0 ], [ -68.864669386460307, -32.828500509907705, 0.0 ], [ -68.858257244205305, -32.821495300351195, 0.0 ], [ -68.853129259771961, -32.81709013931323, 0.0 ], [ -68.853265694286037, -32.79777835775144, 0.0 ] ] ] ] } }
]
}
