{
"type": "FeatureCollection",
"name": "Area de influencia Hijuela La Falda_2026",
"crs": { "type": "name", "properties": { "name": "urn:ogc:def:crs:OGC:1.3:CRS84" } },
"features": [
{ "type": "Feature", "properties": { "LAYER": "AREA_HIJUELA_LA_FALDA", "GM_TYPE": "Unknown Area Type", "MAP_NAME": "Area de influencia Hijuela La Falda_2026.dwg", "CLOSED": "YES", "BORDER_STY": "Solid", "BORDER_COL": "RGB(255,255,0)", "BORDER_WID": 1, "FILL_STYLE": "No Fill" }, "geometry": { "type": "MultiPolygon", "coordinates": [ [ [ [ -68.893452602485013, -32.993134613485061, 0.0 ], [ -68.893543110257653, -32.993097842222205, 0.0 ], [ -68.893641440945771, -32.992943901498201, 0.0 ], [ -68.894356097987639, -32.991894746148105, 0.0 ], [ -68.894137388879159, -32.991809044522228, 0.0 ], [ -68.894122694975223, -32.991705528588611, 0.0 ], [ -68.894194353649411, -32.991415928117306, 0.0 ], [ -68.894322974784558, -32.991189576944528, 0.0 ], [ -68.894664812449335, -32.990970783120012, 0.0 ], [ -68.894370114321234, -32.990462106954553, 0.0 ], [ -68.894116594851653, -32.990041872017272, 0.0 ], [ -68.89394250153984, -32.98969382183639, 0.0 ], [ -68.893619961592435, -32.989320907941867, 0.0 ], [ -68.893441600062303, -32.989094841825377, 0.0 ], [ -68.893348457906583, -32.988929128917704, 0.0 ], [ -68.893289306308759, -32.988685648732947, 0.0 ], [ -68.893381128859886, -32.9886351040779, 0.0 ], [ -68.893565227582116, -32.988642020902041, 0.0 ], [ -68.893936006662827, -32.988697890572865, 0.0 ], [ -68.896774858178631, -32.988789372464133, 0.0 ], [ -68.896041884159175, -32.987657570577547, 0.0 ], [ -68.893734126116883, -32.986387847764746, 0.0 ], [ -68.893192568673243, -32.985924539349973, 0.0 ], [ -68.892647799659088, -32.985317700012509, 0.0 ], [ -68.892717336709026, -32.984776543984403, 0.0 ], [ -68.892509333452921, -32.983332451153352, 0.0 ], [ -68.889941410258118, -32.983619894719112, 0.0 ], [ -68.889320186801129, -32.983503344764898, 0.0 ], [ -68.88734910002384, -32.982509095222738, 0.0 ], [ -68.886676014549963, -32.980905146974656, 0.0 ], [ -68.885611329205901, -32.979150513811902, 0.0 ], [ -68.883517525640116, -32.97549490716866, 0.0 ], [ -68.882048098859414, -32.973557049723617, 0.0 ], [ -68.881331700673016, -32.972085862340613, 0.0 ], [ -68.879744583610005, -32.970641914454426, 0.0 ], [ -68.877900882787031, -32.969725490774117, 0.0 ], [ -68.876140761869891, -32.971146404414007, 0.0 ], [ -68.878225024666335, -32.973380767708662, 0.0 ], [ -68.879627389930604, -32.974937572055268, 0.0 ], [ -68.879067142685415, -32.974855329893977, 0.0 ], [ -68.879059091889999, -32.974925097829789, 0.0 ], [ -68.878859766165448, -32.974887024970748, 0.0 ], [ -68.878846882553532, -32.975259690344501, 0.0 ], [ -68.879596060988135, -32.975359379591701, 0.0 ], [ -68.879767934571291, -32.975544331944199, 0.0 ], [ -68.879534476916533, -32.975537812095482, 0.0 ], [ -68.879586337065632, -32.975823674188931, 0.0 ], [ -68.879712555336297, -32.976349127184321, 0.0 ], [ -68.879576821713925, -32.976354393535537, 0.0 ], [ -68.879622811822699, -32.9771403234259, 0.0 ], [ -68.879452845438237, -32.977142836236169, 0.0 ], [ -68.879022691168927, -32.978348711330973, 0.0 ], [ -68.879037078124767, -32.9785908381929, 0.0 ], [ -68.878735567341408, -32.97859776942429, 0.0 ], [ -68.878792955700604, -32.980053387132564, 0.0 ], [ -68.8787902335703, -32.980160593512473, 0.0 ], [ -68.879097930754597, -32.980160877830578, 0.0 ], [ -68.87909024139681, -32.980270375632088, 0.0 ], [ -68.878822825355584, -32.980272403394785, 0.0 ], [ -68.878820946416127, -32.980525193288749, 0.0 ], [ -68.87881572616557, -32.981115285210976, 0.0 ], [ -68.878234360475631, -32.981136917889629, 0.0 ], [ -68.878306693551423, -32.982616129943693, 0.0 ], [ -68.878864617869581, -32.983337669134123, 0.0 ], [ -68.879154777200426, -32.983656097262966, 0.0 ], [ -68.880018445322065, -32.984664174175094, 0.0 ], [ -68.879365077255542, -32.985124383013968, 0.0 ], [ -68.880114459931676, -32.985852517212258, 0.0 ], [ -68.880622090258697, -32.98596116908206, 0.0 ], [ -68.881249128601539, -32.986677129807582, 0.0 ], [ -68.881558758439851, -32.986432344564783, 0.0 ], [ -68.882147560897025, -32.987046849003868, 0.0 ], [ -68.882775089016093, -32.986573092027029, 0.0 ], [ -68.8845132273552, -32.988167039776748, 0.0 ], [ -68.884661051554119, -32.988334008910947, 0.0 ], [ -68.884207244956286, -32.988588394825747, 0.0 ], [ -68.882603770504829, -32.988681806833007, 0.0 ], [ -68.883262029497544, -32.989917678459804, 0.0 ], [ -68.884382861982672, -32.98968525480533, 0.0 ], [ -68.884677670427678, -32.990307760287216, 0.0 ], [ -68.8848873099477, -32.990769046847504, 0.0 ], [ -68.884596717194086, -32.990779115294593, 0.0 ], [ -68.884625346746404, -32.991333337080178, 0.0 ], [ -68.885775336244762, -32.991182408556632, 0.0 ], [ -68.885790882740523, -32.991320249337079, 0.0 ], [ -68.886585675249904, -32.991334861483949, 0.0 ], [ -68.886643475880959, -32.991638582679052, 0.0 ], [ -68.885483465400213, -32.991744128073478, 0.0 ], [ -68.885558040146606, -32.992068216938399, 0.0 ], [ -68.88662706468709, -32.991949989603441, 0.0 ], [ -68.886894574036603, -32.993470744931855, 0.0 ], [ -68.88726337625323, -32.994590389424751, 0.0 ], [ -68.887834727826913, -32.995387353353038, 0.0 ], [ -68.888246862194123, -32.99632864828255, 0.0 ], [ -68.888333842461591, -32.996743936970589, 0.0 ], [ -68.888213842377468, -32.999372786837945, 0.0 ], [ -68.888200279534345, -33.000912037016626, 0.0 ], [ -68.888197460830199, -33.001296604532918, 0.0 ], [ -68.887868152940584, -33.002728105496466, 0.0 ], [ -68.887502641330016, -33.003338849966184, 0.0 ], [ -68.887241358379356, -33.004184960595246, 0.0 ], [ -68.886882283509919, -33.00536366570455, 0.0 ], [ -68.886563742536268, -33.006777447312018, 0.0 ], [ -68.886171642679642, -33.008813144457029, 0.0 ], [ -68.886145472654846, -33.009483789900358, 0.0 ], [ -68.886173503784121, -33.011490386026388, 0.0 ], [ -68.88612410936102, -33.014628152601588, 0.0 ], [ -68.886097538839522, -33.015323128569456, 0.0 ], [ -68.885322757298368, -33.01875617979357, 0.0 ], [ -68.884771672217227, -33.021133601353029, 0.0 ], [ -68.887421945027441, -33.023977440657994, 0.0 ], [ -68.887789850961397, -33.024277274016249, 0.0 ], [ -68.890353848075151, -33.026765386865556, 0.0 ], [ -68.89549068698355, -33.026164836631636, 0.0 ], [ -68.895391636971695, -33.0251970129546, 0.0 ], [ -68.89308664266963, -33.024986638980913, 0.0 ], [ -68.892760309422087, -33.021597770862975, 0.0 ], [ -68.895049576536678, -33.021782149668596, 0.0 ], [ -68.895078218947233, -33.020217137051226, 0.0 ], [ -68.895187949556615, -33.018197988332922, 0.0 ], [ -68.895201261196974, -33.01579359157094, 0.0 ], [ -68.89499979764102, -33.015750922743536, 0.0 ], [ -68.889599272586807, -33.015497975463191, 0.0 ], [ -68.889853599752044, -33.014481354224195, 0.0 ], [ -68.890136849737999, -33.013224850650616, 0.0 ], [ -68.890357908022764, -33.012336504737206, 0.0 ], [ -68.890663817763766, -33.01121159603229, 0.0 ], [ -68.890785198411734, -33.010521823049181, 0.0 ], [ -68.890856550308797, -33.010479040899611, 0.0 ], [ -68.892416844494278, -33.010495039512207, 0.0 ], [ -68.892533865832206, -33.010463453246935, 0.0 ], [ -68.892573850484311, -33.00961765964098, 0.0 ], [ -68.897228308094483, -33.009751856465357, 0.0 ], [ -68.897350642465767, -33.005705871142965, 0.0 ], [ -68.893020679903969, -33.005530023055798, 0.0 ], [ -68.893053070227054, -33.005383260984338, 0.0 ], [ -68.893096306332822, -33.00534541552134, 0.0 ], [ -68.893347806411541, -33.004689571906063, 0.0 ], [ -68.89379299152364, -33.003647047550452, 0.0 ], [ -68.894172135082471, -33.00280554757537, 0.0 ], [ -68.894489195511596, -33.002107943433415, 0.0 ], [ -68.894711024368874, -33.001626508803248, 0.0 ], [ -68.894646110832653, -33.000677995675879, 0.0 ], [ -68.894513718423596, -33.000293832436036, 0.0 ], [ -68.89441776073356, -32.99920911978824, 0.0 ], [ -68.894235785155146, -32.998039585067644, 0.0 ], [ -68.893417614326481, -32.998057562803943, 0.0 ], [ -68.893277041598523, -32.997446509095901, 0.0 ], [ -68.892991272891791, -32.996748767898723, 0.0 ], [ -68.893221597107555, -32.996745719059511, 0.0 ], [ -68.892817475668153, -32.995400926480883, 0.0 ], [ -68.892802813657354, -32.99519996288663, 0.0 ], [ -68.892904940941122, -32.994822471420449, 0.0 ], [ -68.893282032629358, -32.993591635800378, 0.0 ], [ -68.893407750999685, -32.99322276690981, 0.0 ], [ -68.893452602485013, -32.993134613485061, 0.0 ] ] ] ] } }
]
}
