{
"type": "FeatureCollection",
"name": "area de influencia 1º vistalba_2026",
"crs": { "type": "name", "properties": { "name": "urn:ogc:def:crs:OGC:1.3:CRS84" } },
"features": [
{ "type": "Feature", "properties": { "LAYER": "AREA_1__VISTALBA", "GM_TYPE": "Unknown Area Type", "MAP_NAME": "Area_1106_2025.dwg", "CLOSED": "YES", "BORDER_STY": "Solid", "BORDER_COL": "RGB(0,255,255)", "BORDER_WID": 1, "FILL_STYLE": "No Fill" }, "geometry": { "type": "MultiPolygon", "coordinates": [ [ [ [ -68.908864822061716, -33.032085255266807, 0.0 ], [ -68.909721933254374, -33.033311721860194, 0.0 ], [ -68.911183003936088, -33.035317374047395, 0.0 ], [ -68.911413924162346, -33.035543256833023, 0.0 ], [ -68.911235418879286, -33.035747644839347, 0.0 ], [ -68.911189745707773, -33.035924610432886, 0.0 ], [ -68.903460170642802, -33.036335333317567, 0.0 ], [ -68.902381541636842, -33.036687672129354, 0.0 ], [ -68.901242905454694, -33.035874331835174, 0.0 ], [ -68.901165553904391, -33.035814680035614, 0.0 ], [ -68.899323499323074, -33.036485285121088, 0.0 ], [ -68.899719254531561, -33.037505444573377, 0.0 ], [ -68.899646218634629, -33.037522500219957, 0.0 ], [ -68.900637642291173, -33.040217564560841, 0.0 ], [ -68.900206446126489, -33.040312002260308, 0.0 ], [ -68.900763926458751, -33.04179426847935, 0.0 ], [ -68.901648670365631, -33.044391348347858, 0.0 ], [ -68.903245496999901, -33.046259652427025, 0.0 ], [ -68.909309379162181, -33.04646416267704, 0.0 ], [ -68.909369176637341, -33.045205621898063, 0.0 ], [ -68.923352245826663, -33.04712344495924, 0.0 ], [ -68.924313630700695, -33.046754153973595, 0.0 ], [ -68.925447406909242, -33.046603711895251, 0.0 ], [ -68.925889184566529, -33.046653005031715, 0.0 ], [ -68.92926729394118, -33.046947605378186, 0.0 ], [ -68.930940194870487, -33.047958019071309, 0.0 ], [ -68.934190775623776, -33.048231159695149, 0.0 ], [ -68.936243148808302, -33.049239349960004, 0.0 ], [ -68.937142964958639, -33.05099187357645, 0.0 ], [ -68.938191163626243, -33.050783717006112, 0.0 ], [ -68.938769064895396, -33.051461605392049, 0.0 ], [ -68.943305366533707, -33.051723796305772, 0.0 ], [ -68.944540573871947, -33.050978573076115, 0.0 ], [ -68.947769249899977, -33.051323897654321, 0.0 ], [ -68.95002213347712, -33.052040098135436, 0.0 ], [ -68.95160748820598, -33.051944158023872, 0.0 ], [ -68.954218703967584, -33.0495779133566, 0.0 ], [ -68.955056227412513, -33.049672866745986, 0.0 ], [ -68.956098453652615, -33.049963915929141, 0.0 ], [ -68.959120214640691, -33.050323095114614, 0.0 ], [ -68.960988671203125, -33.048561200510932, 0.0 ], [ -68.959771465249162, -33.04642349385697, 0.0 ], [ -68.959228450902344, -33.046523682118057, 0.0 ], [ -68.958695822287481, -33.046326921166546, 0.0 ], [ -68.958486628581241, -33.046378575947898, 0.0 ], [ -68.95820469044827, -33.046373448783569, 0.0 ], [ -68.957927555298681, -33.046331033033958, 0.0 ], [ -68.957599761823886, -33.046407822805101, 0.0 ], [ -68.957141604074963, -33.046412025826108, 0.0 ], [ -68.95678067318245, -33.046304289675859, 0.0 ], [ -68.956680464055367, -33.046299289422009, 0.0 ], [ -68.956382292821644, -33.046301477575547, 0.0 ], [ -68.955810678666751, -33.046146419063064, 0.0 ], [ -68.95493213762407, -33.046355120053803, 0.0 ], [ -68.953928801961681, -33.046354967259482, 0.0 ], [ -68.953316400204244, -33.046547238067596, 0.0 ], [ -68.953080506575802, -33.046487431056001, 0.0 ], [ -68.952883562827068, -33.046597436330806, 0.0 ], [ -68.952388644747188, -33.046787743379362, 0.0 ], [ -68.950334463167636, -33.046889105336774, 0.0 ], [ -68.949802907206916, -33.047008543306177, 0.0 ], [ -68.949284666808126, -33.046994342491402, 0.0 ], [ -68.947499728346827, -33.04715420905508, 0.0 ], [ -68.945886968117875, -33.047298632515769, 0.0 ], [ -68.945863506102228, -33.047356914400766, 0.0 ], [ -68.945792650356864, -33.047357939488464, 0.0 ], [ -68.944321031722893, -33.047361321830728, 0.0 ], [ -68.942678735692766, -33.047317066154569, 0.0 ], [ -68.942311192599149, -33.047181501969462, 0.0 ], [ -68.938777296320808, -33.047106217500435, 0.0 ], [ -68.938721772629975, -33.045994087452392, 0.0 ], [ -68.938660207496255, -33.045936142392364, 0.0 ], [ -68.938598164024256, -33.045707991804314, 0.0 ], [ -68.936610430598009, -33.041311339955975, 0.0 ], [ -68.935946985038555, -33.039751327578514, 0.0 ], [ -68.936000432908401, -33.039743411565105, 0.0 ], [ -68.935382582057088, -33.038441479317029, 0.0 ], [ -68.935410045653242, -33.038437535334502, 0.0 ], [ -68.932976853323851, -33.033303699148334, 0.0 ], [ -68.933006398234085, -33.033166207782848, 0.0 ], [ -68.932888384144036, -33.033093378036597, 0.0 ], [ -68.932725983499765, -33.032937752255997, 0.0 ], [ -68.932653108685741, -33.032837614089452, 0.0 ], [ -68.929803383255489, -33.026767014735206, 0.0 ], [ -68.929103536685858, -33.019510105494803, 0.0 ], [ -68.929579855597297, -33.017496883940709, 0.0 ], [ -68.929486745483985, -33.017395814506877, 0.0 ], [ -68.930317343366724, -33.017192426264572, 0.0 ], [ -68.931167108581505, -33.01583084817451, 0.0 ], [ -68.930831188336313, -33.015757669380406, 0.0 ], [ -68.929498246989638, -33.016566467231996, 0.0 ], [ -68.928805899320139, -33.016378181390358, 0.0 ], [ -68.928494389848908, -33.01651724655818, 0.0 ], [ -68.927850192042328, -33.016951494246285, 0.0 ], [ -68.92698525466011, -33.016850066600824, 0.0 ], [ -68.926856636629992, -33.015974650009824, 0.0 ], [ -68.926787223137651, -33.015812312739477, 0.0 ], [ -68.927239473989331, -33.015317732863238, 0.0 ], [ -68.92695462235163, -33.015037567574296, 0.0 ], [ -68.926571393136115, -33.015264605316212, 0.0 ], [ -68.924098014991458, -33.013403217123468, 0.0 ], [ -68.923183094468953, -33.013639459999752, 0.0 ], [ -68.922999771884065, -33.013940568395654, 0.0 ], [ -68.921480217575379, -33.013275059332592, 0.0 ], [ -68.920537930196787, -33.012627153099444, 0.0 ], [ -68.919654028085901, -33.012425339771909, 0.0 ], [ -68.9191050517978, -33.012068437550155, 0.0 ], [ -68.918885273496855, -33.011726367439543, 0.0 ], [ -68.918338475583923, -33.010391069763791, 0.0 ], [ -68.919795819739065, -33.010235809596125, 0.0 ], [ -68.92052011560385, -33.009507892357746, 0.0 ], [ -68.918769387038296, -33.008250526275958, 0.0 ], [ -68.918583056048476, -33.007807796196964, 0.0 ], [ -68.918634918381073, -33.007465864339814, 0.0 ], [ -68.918828399231685, -33.007273072863882, 0.0 ], [ -68.917419271806835, -33.006124898039459, 0.0 ], [ -68.914716334954562, -33.004568969883621, 0.0 ], [ -68.91098930256021, -33.003483821530779, 0.0 ], [ -68.909947604788059, -33.003082995359115, 0.0 ], [ -68.906965584073674, -33.000665666708294, 0.0 ], [ -68.905169804668773, -32.999027215803999, 0.0 ], [ -68.903739761581008, -32.997428278106284, 0.0 ], [ -68.901596338216777, -32.995769898148787, 0.0 ], [ -68.900344428385651, -32.99562009845507, 0.0 ], [ -68.899964527651051, -32.995471494295309, 0.0 ], [ -68.899557898000126, -32.995292968688084, 0.0 ], [ -68.899489406283294, -32.995352018196215, 0.0 ], [ -68.899223737328796, -32.995695168928847, 0.0 ], [ -68.899863872296024, -32.996047736286819, 0.0 ], [ -68.899658591169782, -32.996344234237803, 0.0 ], [ -68.899945230245123, -32.997008909895811, 0.0 ], [ -68.900021452040605, -32.996851612139423, 0.0 ], [ -68.900743880644455, -32.997637957844042, 0.0 ], [ -68.900997661940366, -32.997671625025156, 0.0 ], [ -68.901971393705196, -32.998104634020926, 0.0 ], [ -68.902125626433843, -32.998222819195945, 0.0 ], [ -68.902848005499564, -32.998854064000824, 0.0 ], [ -68.9031647951943, -32.999870485432069, 0.0 ], [ -68.903406976769247, -33.000030158041369, 0.0 ], [ -68.904448969295274, -33.000524542345097, 0.0 ], [ -68.904785398055623, -33.000803173491079, 0.0 ], [ -68.905133280641849, -33.000970452237937, 0.0 ], [ -68.905487268106583, -33.001284349010184, 0.0 ], [ -68.905638118828691, -33.001423790511723, 0.0 ], [ -68.905532306550299, -33.001804976534189, 0.0 ], [ -68.907230311849958, -33.003103550193501, 0.0 ], [ -68.907457180378714, -33.002743094565027, 0.0 ], [ -68.908219081336156, -33.003432164734271, 0.0 ], [ -68.908670026292143, -33.003774209330651, 0.0 ], [ -68.909261713408341, -33.00412730311043, 0.0 ], [ -68.909565419453983, -33.004456623487002, 0.0 ], [ -68.909731907069073, -33.004667513430732, 0.0 ], [ -68.910246019378349, -33.004893200302632, 0.0 ], [ -68.910414672526642, -33.005114722756034, 0.0 ], [ -68.910449171731628, -33.00518827627188, 0.0 ], [ -68.910320370786508, -33.006747063473121, 0.0 ], [ -68.910242738688893, -33.00781251542832, 0.0 ], [ -68.91022305293933, -33.008742157894893, 0.0 ], [ -68.910182112526684, -33.008911065854988, 0.0 ], [ -68.910142609084374, -33.0096604220101, 0.0 ], [ -68.909987284265213, -33.010643999217812, 0.0 ], [ -68.909903858480789, -33.011618025711357, 0.0 ], [ -68.909827143166254, -33.012386537256617, 0.0 ], [ -68.909629312110098, -33.01423393031574, 0.0 ], [ -68.909429024701154, -33.016479364935236, 0.0 ], [ -68.909185359818267, -33.019132056653291, 0.0 ], [ -68.908798275377947, -33.023148406980525, 0.0 ], [ -68.908566525047334, -33.025523815245982, 0.0 ], [ -68.908341591869586, -33.028786246845378, 0.0 ], [ -68.908324919689051, -33.030715213954814, 0.0 ], [ -68.908498815841369, -33.031280551006745, 0.0 ], [ -68.908832422391484, -33.03201401976311, 0.0 ], [ -68.908864822061716, -33.032085255266807, 0.0 ] ] ] ] } }
]
}
